{
 "type": "FeatureCollection",
 "features": [
  {
   "type": "Feature",
   "id": "node/510145174",
   "properties": {
    "addr:city": "Norwich",
    "addr:housenumber": "35",
    "addr:postcode": "NR1 3DY",
    "addr:street": "Cattle Market Street",
    "amenity": "fast_food",
    "cuisine": "kebab;pizza",
    "fhrs:id": "8676",
    "name": "Top Kapi - Kebab House",
    "source:addr": "FHRS Open Data",
    "id": "node/510145174"
   },
   "geometry": {
    "type": "Point",
    "coordinates": [
     1.2986449,
     52.6278928
    ]
   }
  },
  {
   "type": "Feature",
   "id": "node/1038499891",
   "properties": {
    "addr:city": "Norwich",
    "addr:housenumber": "18",
    "addr:postcode": "NR2 1QJ",
    "addr:street": "Haymarket",
    "amenity": "fast_food",
    "brand": "McDonald's",
    "brand:wikidata": "Q38076",
    "brand:wikipedia": "en:McDonald's",
    "cuisine": "burger",
    "drive_through": "no",
    "fhrs:id": "27479",
    "name": "McDonald's",
    "phone": "+44 1603 623391",
    "source:addr": "FHRS Open Data",
    "takeaway": "yes",
    "toilets": "customers",
    "toilets:wheelchair": "Ground floor with easy access rails and low sinks.",
    "wheelchair": "yes",
    "wheelchair:description": "Easy access through electronic doors from Hayhill/Haymarket",
    "id": "node/1038499891"
   },
   "geometry": {
    "type": "Point",
    "coordinates": [
     1.2927065,
     52.6271956
    ]
   }
  },
  {
   "type": "Feature",
   "id": "node/1317865563",
   "properties": {
    "amenity": "fast_food",
    "name": "Megabites",
    "id": "node/1317865563"
   },
   "geometry": {
    "type": "Point",
    "coordinates": [
     1.2844799,
     52.6384872
    ]
   }
  },
  {
   "type": "Feature",
   "id": "node/1539929456",
   "properties": {
    "addr:city": "Norwich",
    "addr:housenumber": "11",
    "addr:postcode": "NR2 1QD",
    "addr:street": "Haymarket",
    "amenity": "fast_food",
    "brand": "Pret A Manger",
    "brand:wikidata": "Q2109109",
    "brand:wikipedia": "en:Pret a Manger",
    "cuisine": "sandwich",
    "fhrs:id": "15185",
    "name": "Pret A Manger",
    "source:addr": "FHRS Open Data",
    "takeaway": "yes",
    "id": "node/1539929456"
   },
   "geometry": {
    "type": "Point",
    "coordinates": [
     1.2934965,
     52.6271056
    ]
   }
  },
  {
   "type": "Feature",
   "id": "node/1824494500",
   "properties": {
    "addr:city": "Norwich",
    "addr:country": "GB",
    "addr:housenumber": "2",
    "addr:postcode": "NR5 0SY",
    "addr:street": "Dereham Road",
    "amenity": "fast_food",
    "cuisine": "sandwich",
    "fhrs:id": "648785",
    "name": "Subway",
    "opening_hours": "08:00-23:00",
    "phone": "+44 1603 271542",
    "ref": "55386",
    "website": "http://www.subway.co.uk/",
    "id": "node/1824494500"
   },
   "geometry": {
    "type": "Point",
    "coordinates": [
     1.2353726,
     52.6411779
    ]
   }
  },
  {
   "type": "Feature",
   "id": "node/1855526590",
   "properties": {
    "addr:city": "Norwich",
    "addr:postcode": "NR5 9JB",
    "addr:street": "Barnard Road",
    "amenity": "fast_food",
    "colour": "black;yellow",
    "cuisine": "regional",
    "description": "Mobile catering",
    "fhrs:id": "1056196",
    "name": "The Bap Cave",
    "note": "Mobile kitchen. Only on site during opening hours.",
    "opening_hours": "Mo-Fr 07:00-15:00; Sa-Su closed",
    "phone": "+44 7907 795444",
    "source:addr:postcode": "code-point_open",
    "id": "node/1855526590"
   },
   "geometry": {
    "type": "Point",
    "coordinates": [
     1.2133875,
     52.6428316
    ]
   }
  },
  {
   "type": "Feature",
   "id": "node/3250735961",
   "properties": {
    "addr:city": "Norwich",
    "addr:country": "GB",
    "addr:housenumber": "197",
    "addr:postcode": "NR7 8AG",
    "addr:street": "Wroxham Road",
    "addr:village": "Sprowston",
    "amenity": "fast_food",
    "cuisine": "fish_and_chips",
    "fhrs:id": "94370",
    "name": "Golden Plaice",
    "phone": "+44 1603 425921",
    "id": "node/3250735961"
   },
   "geometry": {
    "type": "Point",
    "coordinates": [
     1.3246006,
     52.6584933
    ]
   }
  },
  {
   "type": "Feature",
   "id": "node/3544832139",
   "properties": {
    "amenity": "fast_food",
    "cuisine": "sandwich",
    "email": "pdeary@applegreen.ie",
    "indoor": "yes",
    "name": "Subway",
    "opening_hours": "Mo-We 07:00-20:00; Th-Sa 07:00-21:00; Su 09:00-20:00",
    "phone": "+44 1603 867226",
    "ref": "63310",
    "website": "http://www.subway.co.uk/",
    "id": "node/3544832139"
   },
   "geometry": {
    "type": "Point",
    "coordinates": [
     1.2232105,
     52.6757641
    ]
   }
  },
  {
   "type": "Feature",
   "id": "node/5309286221",
   "properties": {
    "addr:city": "Norwich",
    "addr:housenumber": "54-55",
    "addr:postcode": "NR2 1ND",
    "addr:street": "Market Place",
    "amenity": "fast_food",
    "cuisine": "burger;sandwich;sausage",
    "diet:gluten_free": "yes",
    "diet:vegan": "only",
    "facebook": "https://www.facebook.com/biakitchen/",
    "fhrs:id": "839165",
    "instagram": "https://www.instagram.com/explore/tags/biakitchen/",
    "name": "Bia Vegan Diner",
    "source:addr": "FHRS Open Data",
    "website": "http://biavegandiner.co.uk/",
    "id": "node/5309286221"
   },
   "geometry": {
    "type": "Point",
    "coordinates": [
     1.2926916,
     52.6283623
    ]
   }
  },
  {
   "type": "Feature",
   "id": "node/5478805912",
   "properties": {
    "addr:city": "Norwich",
    "addr:housenumber": "216",
    "addr:postcode": "NR1 3HG",
    "addr:street": "Queens Road",
    "amenity": "fast_food",
    "cuisine": "chicken",
    "fhrs:id": "915682",
    "name": "USA Fried Chicken",
    "source:addr": "FSA Food Hygiene Ratings Database",
    "id": "node/5478805912"
   },
   "geometry": {
    "type": "Point",
    "coordinates": [
     1.3000036,
     52.6209746
    ]
   }
  },
  {
   "type": "Feature",
   "id": "node/6195282042",
   "properties": {
    "addr:city": "Norwich",
    "addr:housenumber": "13",
    "addr:postcode": "NR1 3RU",
    "addr:street": "Orford Place",
    "amenity": "fast_food",
    "cuisine": "fish_and_chips",
    "fhrs:id": "735927",
    "name": "Orford Plaice",
    "source:addr": "FHRS Open Data",
    "id": "node/6195282042"
   },
   "geometry": {
    "type": "Point",
    "coordinates": [
     1.293957,
     52.6269459
    ]
   }
  },
  {
   "type": "Feature",
   "id": "node/6566009059",
   "properties": {
    "addr:city": "Norwich",
    "addr:postcode": "NR2 1QQ",
    "addr:street": "Hay Hill",
    "amenity": "fast_food",
    "building": "kiosk",
    "cuisine": "sausages",
    "fhrs:id": "27467",
    "name": "Top Dog",
    "source:addr": "FHRS Open Data",
    "id": "node/6566009059"
   },
   "geometry": {
    "type": "Point",
    "coordinates": [
     1.2930258,
     52.6272765
    ]
   }
  },
  {
   "type": "Feature",
   "id": "node/6568273970",
   "properties": {
    "addr:city": "Norwich",
    "addr:housenumber": "52",
    "addr:postcode": "NR2 1LA",
    "addr:street": "London Street",
    "amenity": "fast_food",
    "cuisine": "subs",
    "fhrs:id": "30134",
    "name": "Subway",
    "source:addr": "FHRS Open Data",
    "id": "node/6568273970"
   },
   "geometry": {
    "type": "Point",
    "coordinates": [
     1.2959833,
     52.6296039
    ]
   }
  },
  {
   "type": "Feature",
   "id": "node/6568273971",
   "properties": {
    "addr:city": "Norwich",
    "addr:housenumber": "46",
    "addr:postcode": "NR2 1LA",
    "addr:street": "London Street",
    "amenity": "fast_food",
    "fhrs:id": "1089532",
    "name": "The Chicken Shop",
    "source:addr": "FHRS Open Data",
    "id": "node/6568273971"
   },
   "geometry": {
    "type": "Point",
    "coordinates": [
     1.2957902,
     52.6294672
    ]
   }
  },
  {
   "type": "Feature",
   "id": "node/6568299054",
   "properties": {
    "addr:city": "Norwich",
    "addr:housenumber": "17-19",
    "addr:postcode": "NR1 3DH",
    "addr:street": "Castle Meadow",
    "amenity": "fast_food",
    "fhrs:id": "1030465",
    "name": "Take a Break",
    "source:addr": "FHRS Open Data",
    "id": "node/6568299054"
   },
   "geometry": {
    "type": "Point",
    "coordinates": [
     1.2957178,
     52.6293288
    ]
   }
  },
  {
   "type": "Feature",
   "id": "node/6573544543",
   "properties": {
    "addr:city": "Norwich",
    "addr:housename": "Co-op Foodstore",
    "addr:postcode": "NR4 7TE",
    "addr:street": "Earlham Green Lane",
    "amenity": "fast_food",
    "cuisine": "subs",
    "fhrs:id": "937371",
    "name": "Subway",
    "note": "Inside Coop Store",
    "source:addr": "FHRS Open Data",
    "id": "node/6573544543"
   },
   "geometry": {
    "type": "Point",
    "coordinates": [
     1.2476235,
     52.6293942
    ]
   }
  },
  {
   "type": "Feature",
   "id": "node/6573544551",
   "properties": {
    "addr:city": "Norwich",
    "addr:housenumber": "78",
    "addr:postcode": "NR5 8DG",
    "addr:street": "Cadge Road",
    "amenity": "fast_food",
    "fhrs:id": "7412",
    "name": "Britannia Kebab & Fish Bar",
    "source:addr": "FHRS Open Data",
    "id": "node/6573544551"
   },
   "geometry": {
    "type": "Point",
    "coordinates": [
     1.2484283,
     52.633661
    ]
   }
  },
  {
   "type": "Feature",
   "id": "node/6582594508",
   "properties": {
    "addr:city": "Norwich",
    "addr:housenumber": "33",
    "addr:postcode": "NR1 1BG",
    "addr:street": "Prince of Wales Road",
    "amenity": "fast_food",
    "name": "Rocky Mountain Pizza Project",
    "old_name": "Voodoo Daddy's Pizza",
    "website": "https://www.facebook.com/rockymoutainpizzaproject/",
    "id": "node/6582594508"
   },
   "geometry": {
    "type": "Point",
    "coordinates": [
     1.3009999,
     52.6293306
    ]
   }
  },
  {
   "type": "Feature",
   "id": "way/32561155",
   "properties": {
    "addr:postcode": "NR5 0JS",
    "addr:street": "William Frost Way",
    "addr:village": "Old Costessey",
    "amenity": "fast_food",
    "building": "yes",
    "cuisine": "burger",
    "fhrs:id": "648248",
    "name": "McDonald's",
    "source:addr": "FHRS Open Data",
    "id": "way/32561155"
   },
   "geometry": {
    "type": "Point",
    "coordinates": [
     1.1855528,
     52.6515351
    ]
   }
  },
  {
   "type": "Feature",
   "id": "way/32561301",
   "properties": {
    "addr:city": "Norwich",
    "addr:country": "GB",
    "addr:postcode": "NR5 0JS",
    "addr:street": "William Frost Way",
    "amenity": "fast_food",
    "building": "yes",
    "cuisine": "chicken",
    "fhrs:id": "648584",
    "internet_access": "wlan",
    "internet_access:fee": "no",
    "name": "KFC",
    "opening_hours": "Mo-Su 10:30-23:00",
    "outdoor_seating": "yes",
    "website": "https://www.kfc.co.uk/",
    "id": "way/32561301"
   },
   "geometry": {
    "type": "Point",
    "coordinates": [
     1.1847648,
     52.6538587
    ]
   }
  },
  {
   "type": "Feature",
   "id": "way/33617676",
   "properties": {
    "addr:city": "Norwich",
    "addr:country": "GB",
    "addr:housenumber": "162",
    "addr:postcode": "NR1 2RT",
    "addr:street": "Barrett Road",
    "amenity": "fast_food",
    "building": "yes",
    "cuisine": "burger",
    "email": "00607@uk.mcd.com",
    "fhrs:id": "4413",
    "internet_access": "wlan",
    "internet_access:fee": "no",
    "name": "McDonald's",
    "opening_hours": "24/7",
    "operator": "K Foley Ltd",
    "phone": "+44 1603 619159",
    "ref": "607",
    "website": "https://www.mcdonalds.co.uk/",
    "id": "way/33617676"
   },
   "geometry": {
    "type": "Point",
    "coordinates": [
     1.291819,
     52.6102116
    ]
   }
  },
  {
   "type": "Feature",
   "id": "way/71550738",
   "properties": {
    "addr:city": "Norwich",
    "addr:country": "GB",
    "addr:housenumber": "24",
    "addr:postcode": "NR4 7LD",
    "addr:street": "Eaton Street",
    "amenity": "fast_food",
    "building": "shop",
    "cuisine": "thai;chinese",
    "delivery": "yes",
    "fhrs:id": "564465",
    "name": "Planet Wok",
    "opening_hours": "Tu-Th,PH 17:00-20:30; Fr-Sa 17:00-21:30; Su-Mo off",
    "phone": "+44 1603 508000",
    "source:building": "OS_OpenData_StreetView",
    "start_date": "2017-02-16",
    "takeaway": "only",
    "website": "http://planetwok.co.uk/",
    "id": "way/71550738"
   },
   "geometry": {
    "type": "Point",
    "coordinates": [
     1.2512247,
     52.6083867
    ]
   }
  },
  {
   "type": "Feature",
   "id": "way/84798510",
   "properties": {
    "addr:city": "Norwich",
    "addr:country": "GB",
    "addr:housenumber": "2a",
    "addr:postcode": "NR5 8TX",
    "addr:street": "Larkman Lane",
    "amenity": "fast_food",
    "building": "house",
    "cuisine": "fish_and_chips",
    "fhrs:id": "909808",
    "name": "Larkman Fish Bar",
    "opening_hours": "Mo-Fr 11:30-13:45,16:30-23:00; Sa 11:30-14:00,16:30-22:30",
    "phone": "+44 1603 458343",
    "source:building": "OS_OpenData_StreetView",
    "id": "way/84798510"
   },
   "geometry": {
    "type": "Point",
    "coordinates": [
     1.2405271,
     52.6388828
    ]
   }
  },
  {
   "type": "Feature",
   "id": "way/85704828",
   "properties": {
    "addr:city": "Norwich",
    "addr:country": "GB",
    "addr:postcode": "NR9 3AU",
    "addr:street": "Thickthorn Service Area",
    "amenity": "fast_food",
    "building": "yes",
    "cuisine": "burger",
    "name": "Burger King",
    "phone": "+44 1603 505838",
    "source:building": "OS_OpenData_StreetView",
    "id": "way/85704828"
   },
   "geometry": {
    "type": "Point",
    "coordinates": [
     1.2214648,
     52.6018646
    ]
   }
  },
  {
   "type": "Feature",
   "id": "way/104310151",
   "properties": {
    "addr:city": "Norwich",
    "addr:country": "GB",
    "addr:housenumber": "120",
    "addr:postcode": "NR1 3HP",
    "addr:street": "Hall Road",
    "amenity": "fast_food",
    "building": "yes",
    "cuisine": "kebab",
    "fhrs:id": "1092844",
    "minimum_order": "£3.00 GBP",
    "name": "Amigo’s",
    "opening_hours": "Su-Th 16:00-00:00; Fr-Sa 16:00-01:00",
    "phone": "+44 1603 626260",
    "website": "https://www.just-eat.co.uk/restaurants-norwich-amigos/",
    "id": "way/104310151"
   },
   "geometry": {
    "type": "Point",
    "coordinates": [
     1.2971272,
     52.6177988
    ]
   }
  },
  {
   "type": "Feature",
   "id": "way/106366982",
   "properties": {
    "addr:city": "Norwich",
    "addr:postcode": "NR6 6BB",
    "addr:street": "Delft Way",
    "amenity": "fast_food",
    "building": "yes",
    "cuisine": "burger",
    "fhrs:id": "1774",
    "name": "McDonald's",
    "opening_hours": "Su-We 06:00-24:00; Th-Sa 06:00-03:00",
    "source:addr": "FHRS Open Data",
    "wheelchair": "yes",
    "id": "way/106366982"
   },
   "geometry": {
    "type": "Point",
    "coordinates": [
     1.2720075,
     52.6680581
    ]
   }
  },
  {
   "type": "Feature",
   "id": "way/106665874",
   "properties": {
    "addr:city": "Norwich",
    "addr:country": "GB",
    "addr:housenumber": "73",
    "addr:postcode": "NR1 3RL",
    "addr:street": "Grove Road",
    "amenity": "fast_food",
    "building": "shop",
    "cuisine": "pizza",
    "delivery": "yes",
    "fhrs:id": "711790",
    "name": "Pizza Hut",
    "opening_hours": "Su-Mo,We-Fr 11:00-01:00; Tu,Sa 11:00-04:00; Dec 24,26,31 11:30-23:00; Dec 25 off",
    "phone": "+44 1603 220066",
    "takeaway": "yes",
    "website": "https://www.pizzahut.co.uk/",
    "id": "way/106665874"
   },
   "geometry": {
    "type": "Point",
    "coordinates": [
     1.2912923,
     52.6208711
    ]
   }
  },
  {
   "type": "Feature",
   "id": "way/107045851",
   "properties": {
    "addr:city": "Norwich",
    "addr:country": "GB",
    "addr:full": "Kiosk 2, Food Court, Castle Mall Shopping Centre, NORWICH, NR1 3DD",
    "addr:housename": "Kiosk 2",
    "addr:postcode": "NR1 3DD",
    "addr:street": "Castle Mall",
    "amenity": "fast_food",
    "brand": "Burger King",
    "brand:wikidata": "Q177054",
    "brand:wikipedia": "en:Burger King",
    "building": "unit",
    "covered": "yes",
    "cuisine": "burger",
    "fhrs:id": "17607",
    "layer": "-2",
    "level": "2.5",
    "name": "Burger King",
    "note": "Needs positioning",
    "phone": "+44 1603 305835",
    "takeaway": "yes",
    "website": "https://www.burgerking.co.uk/",
    "id": "way/107045851"
   },
   "geometry": {
    "type": "Point",
    "coordinates": [
     1.296113,
     52.6273128
    ]
   }
  },
  {
   "type": "Feature",
   "id": "way/107045860",
   "properties": {
    "addr:city": "Norwich",
    "addr:country": "GB",
    "addr:housename": "Unit 3",
    "addr:postcode": "NR1 3DD",
    "amenity": "fast_food",
    "building": "unit",
    "covered": "yes",
    "cuisine": "chicken",
    "fhrs:id": "198466",
    "layer": "-2",
    "level": "2.5",
    "name": "Southern Fried Chicken",
    "phone": "+44 1603 663816",
    "website": "http://www.southernfriedchicken.co.uk/",
    "id": "way/107045860"
   },
   "geometry": {
    "type": "Point",
    "coordinates": [
     1.2960196,
     52.6273472
    ]
   }
  },
  {
   "type": "Feature",
   "id": "way/107045928",
   "properties": {
    "addr:city": "Norwich",
    "addr:country": "GB",
    "addr:housename": "Unit 4",
    "addr:postcode": "NR1 3DD",
    "amenity": "fast_food",
    "building": "unit",
    "covered": "yes",
    "cuisine": "jacket_potatoes",
    "fhrs:id": "17645",
    "layer": "-2",
    "level": "2.5",
    "name": "Spudulike",
    "phone": "+44 1603 305877",
    "id": "way/107045928"
   },
   "geometry": {
    "type": "Point",
    "coordinates": [
     1.2959221,
     52.6273822
    ]
   }
  },
  {
   "type": "Feature",
   "id": "way/108865891",
   "properties": {
    "addr:city": "Norwich",
    "addr:country": "GB",
    "addr:housename": "FF C1",
    "addr:housenumber": "308",
    "addr:postcode": "NR2 1SY",
    "addr:street": "The Dining Terrace",
    "amenity": "fast_food",
    "building": "unit",
    "cuisine": "oriental",
    "fhrs:id": "48593",
    "layer": "2",
    "leasing_number": "95",
    "level": "2",
    "name": "ChopStix Noodle Bar",
    "opening_hours": "Mo-We 10:00-18:00;Th 10:00-20:00; Fr-Sa 10:00-19:00; Su 11:00-17:00",
    "website": "http://www.chopstix.me/",
    "id": "way/108865891"
   },
   "geometry": {
    "type": "Point",
    "coordinates": [
     1.290545,
     52.6257128
    ]
   }
  },
  {
   "type": "Feature",
   "id": "way/108865930",
   "properties": {
    "addr:city": "Norwich",
    "addr:country": "GB",
    "addr:housename": "FF C2",
    "addr:housenumber": "309",
    "addr:postcode": "NR2 1SY",
    "addr:street": "The Dining Terrace",
    "amenity": "fast_food",
    "brand": "KFC",
    "brand:wikidata": "Q524757",
    "brand:wikipedia": "en:KFC",
    "building": "unit",
    "cuisine": "chicken",
    "fhrs:id": "1064619",
    "layer": "2",
    "leasing_number": "96",
    "level": "2",
    "name": "KFC",
    "opening_hours": "Mo-We 09:00-18:00; Th 09:00-20:00; Fr-Sa 09:00-19:00; Su 11:00-17:00; PH 10:00-18:00",
    "phone": "+44 1603 627904",
    "ref": "5838",
    "takeaway": "yes",
    "website": "https://www.kfc.co.uk/",
    "id": "way/108865930"
   },
   "geometry": {
    "type": "Point",
    "coordinates": [
     1.2906506,
     52.6257943
    ]
   }
  },
  {
   "type": "Feature",
   "id": "way/108865998",
   "properties": {
    "addr:city": "Norwich",
    "addr:country": "GB",
    "addr:housename": "UG 01",
    "addr:housenumber": "210",
    "addr:postcode": "NR2 1SU",
    "addr:street": "Merchants' Hall",
    "amenity": "fast_food",
    "brand": "Pret A Manger",
    "brand:wikidata": "Q2109109",
    "brand:wikipedia": "en:Pret a Manger",
    "building": "unit",
    "cuisine": "sandwich",
    "fhrs:id": "915713",
    "layer": "1",
    "leasing_number": "43",
    "level": "1",
    "name": "Pret A Manger",
    "not:addr:postcode": "NR2 1SH",
    "source:name": "FHRS Open Data",
    "takeaway": "yes",
    "id": "way/108865998"
   },
   "geometry": {
    "type": "Point",
    "coordinates": [
     1.2901185,
     52.6254288
    ]
   }
  },
  {
   "type": "Feature",
   "id": "way/108866001",
   "properties": {
    "addr:city": "Norwich",
    "addr:country": "GB",
    "addr:housename": "FF C3",
    "addr:housenumber": "310",
    "addr:postcode": "NR2 1SY",
    "addr:street": "The Dining Terrace",
    "amenity": "fast_food",
    "brand": "McDonald's",
    "brand:wikidata": "Q38076",
    "brand:wikipedia": "en:McDonald's",
    "building": "unit",
    "cuisine": "burger",
    "email": "1345@mcd.co.uk",
    "fhrs:id": "15480",
    "layer": "2",
    "leasing_number": "97",
    "level": "2",
    "name": "McDonald's",
    "opening_hours": "Mo-We,Fr-Sa 07:30-19:00; Th 07:30-21:00; Su 09:00-18:00",
    "phone": "+44 1603 626196",
    "ref": "1345",
    "takeaway": "yes",
    "website": "http://www.mcdonalds.com/",
    "id": "way/108866001"
   },
   "geometry": {
    "type": "Point",
    "coordinates": [
     1.290881,
     52.625922
    ]
   }
  },
  {
   "type": "Feature",
   "id": "way/108866034",
   "properties": {
    "addr:city": "Norwich",
    "addr:country": "GB",
    "addr:housename": "LG 34-35",
    "addr:housenumber": "156-157",
    "addr:postcode": "NR2 1SB",
    "addr:street": "Saint Stephen's Arcade",
    "amenity": "fast_food",
    "building": "unit",
    "cuisine": "milkshake",
    "fhrs:id": "515705",
    "leasing_number": "40",
    "level": "0",
    "name": "Shaake",
    "source:name": "FHRS Open Data",
    "id": "way/108866034"
   },
   "geometry": {
    "type": "Point",
    "coordinates": [
     1.2915189,
     52.6252094
    ]
   }
  },
  {
   "type": "Feature",
   "id": "way/108866052",
   "properties": {
    "addr:city": "Norwich",
    "addr:country": "GB",
    "addr:housename": "FF C5",
    "addr:housenumber": "302",
    "addr:postcode": "NR2 1SY",
    "addr:street": "The Dining Terrace",
    "amenity": "fast_food",
    "building": "unit",
    "cuisine": "jacket_potato",
    "fhrs:id": "15539",
    "layer": "2",
    "leasing_number": "99",
    "level": "2",
    "name": "spudulike",
    "opening_hours": "Mo-We 09:00-18:00; Th 09:00-20:00; Fr-Sa 09:00-19:00; Su 11:00-17:00; PH 10:00-18:00",
    "phone": "+44 1603 624294",
    "website": "http://www.spudulike.co.uk/",
    "id": "way/108866052"
   },
   "geometry": {
    "type": "Point",
    "coordinates": [
     1.2910813,
     52.6256282
    ]
   }
  },
  {
   "type": "Feature",
   "id": "way/114453803",
   "properties": {
    "addr:city": "Norwich",
    "addr:country": "GB",
    "addr:housenumber": "179a",
    "addr:postcode": "NR5 8RF",
    "addr:street": "Earlham Green Lane",
    "amenity": "fast_food",
    "building": "shop",
    "cuisine": "fish_and_chips",
    "fhrs:id": "810354",
    "name": "Neptune Fish Bar",
    "opening_hours": "Mo-Sa 15:00-00:00; Su 14:00-00:00",
    "phone": "+44 1603 453339",
    "source": "Bing",
    "id": "way/114453803"
   },
   "geometry": {
    "type": "Point",
    "coordinates": [
     1.2341891,
     52.6369377
    ]
   }
  },
  {
   "type": "Feature",
   "id": "way/114455226",
   "properties": {
    "addr:city": "Norwich",
    "addr:country": "GB",
    "addr:housenumber": "306",
    "addr:postcode": "NR5 8AB",
    "addr:street": "Bowthorpe Road",
    "amenity": "fast_food",
    "building": "house",
    "cuisine": "fish_and_chips",
    "fhrs:id": "14549",
    "name": "The Little Fish Bar",
    "phone": "+44 1603 623934",
    "source": "Bing",
    "id": "way/114455226"
   },
   "geometry": {
    "type": "Point",
    "coordinates": [
     1.2541506,
     52.6317322
    ]
   }
  },
  {
   "type": "Feature",
   "id": "way/114511720",
   "properties": {
    "addr:city": "Norwich",
    "addr:country": "GB",
    "addr:housenumber": "94",
    "addr:postcode": "NR7 0AQ",
    "addr:street": "Harvey Lane",
    "amenity": "fast_food",
    "building": "shop",
    "cuisine": "fish_and_chips",
    "fhrs:id": "1096617",
    "name": "Hartlands Fish Shop",
    "phone": "+44 1603 433988",
    "id": "way/114511720"
   },
   "geometry": {
    "type": "Point",
    "coordinates": [
     1.3287151,
     52.6366507
    ]
   }
  },
  {
   "type": "Feature",
   "id": "way/115016457",
   "properties": {
    "addr:city": "Norwich",
    "addr:country": "GB",
    "addr:housenumber": "556-558",
    "addr:interpolation": "even",
    "addr:postcode": "NR5 8TU",
    "addr:street": "Dereham Road",
    "amenity": "fast_food",
    "building": "shop",
    "cuisine": "chinese",
    "fhrs:id": "15173",
    "name": "Peking Chinese Takeaway",
    "phone": "+44 1603 451045",
    "source": "Bing",
    "id": "way/115016457"
   },
   "geometry": {
    "type": "Point",
    "coordinates": [
     1.2427342,
     52.6387928
    ]
   }
  },
  {
   "type": "Feature",
   "id": "way/115753923",
   "properties": {
    "addr:city": "Norwich",
    "addr:country": "GB",
    "addr:housenumber": "11,11a",
    "addr:postcode": "NR4 7DH",
    "addr:street": "Parmenter Road",
    "amenity": "fast_food",
    "building": "shop",
    "cuisine": "fish_and_chips;chinese",
    "name": "Mr Chip Fish Bar and Chinese Takeaway",
    "phone": "+44 1603 451260",
    "source": "Bing",
    "id": "way/115753923"
   },
   "geometry": {
    "type": "Point",
    "coordinates": [
     1.2589919,
     52.6175837
    ]
   }
  },
  {
   "type": "Feature",
   "id": "way/115982166",
   "properties": {
    "addr:city": "Norwich",
    "addr:country": "GB",
    "addr:housenumber": "7",
    "addr:postcode": "NR5 0AB",
    "addr:street": "Upper Stafford Avenue",
    "amenity": "fast_food",
    "building": "shop",
    "contact:facebook": "avenuefishchickenandpizzaplace",
    "cuisine": "regional",
    "delivery": "Mo-Sa 17:00-21:00",
    "delivery:fee": "£1.50 GBP @ order < £14.00",
    "delivery:min_payment": "£8.00 GBP",
    "description": "We are a lovely food takeaway of different types of food including kebabs we also deliver in the evenings",
    "fhrs:id": "712088",
    "name": "Avenue Fish, Chicken & Pizza Place",
    "opening_hours": "Mo-Sa 12:00-14:00,16:30-21:00; Su closed",
    "phone": "+44 1603 745555",
    "takeaway": "yes",
    "id": "way/115982166"
   },
   "geometry": {
    "type": "Point",
    "coordinates": [
     1.2186824,
     52.6469404
    ]
   }
  },
  {
   "type": "Feature",
   "id": "way/115982168",
   "properties": {
    "addr:city": "Norwich",
    "addr:country": "GB",
    "addr:housenumber": "3",
    "addr:postcode": "NR5 0AB",
    "addr:street": "Upper Stafford Avenue",
    "amenity": "fast_food",
    "building": "shop",
    "cuisine": "chinese",
    "fhrs:id": "647602",
    "name": "China China Peking & Cantonese Take Away",
    "phone": "+44 1603 745622",
    "id": "way/115982168"
   },
   "geometry": {
    "type": "Point",
    "coordinates": [
     1.2189379,
     52.6468408
    ]
   }
  },
  {
   "type": "Feature",
   "id": "way/116106252",
   "properties": {
    "addr:city": "Norwich",
    "addr:country": "GB",
    "addr:postcode": "NR6 5AL",
    "addr:street": "Sweet Briar Road",
    "amenity": "fast_food",
    "building": "yes",
    "cuisine": "burger",
    "fhrs:id": "72098",
    "name": "Burger King",
    "phone": "+44 1603 402424",
    "source": "Bing",
    "website": "http://burgerking.co.uk/",
    "id": "way/116106252"
   },
   "geometry": {
    "type": "Point",
    "coordinates": [
     1.2613669,
     52.6502899
    ]
   }
  },
  {
   "type": "Feature",
   "id": "way/116820355",
   "properties": {
    "addr:city": "Norwich",
    "addr:country": "GB",
    "addr:housenumber": "144,144a",
    "addr:postcode": "NR4 7AA",
    "addr:street": "Colman Road",
    "amenity": "fast_food",
    "building": "shop",
    "cuisine": "fish_and_chips",
    "fhrs:id": "564462",
    "name": "The Frying Machine",
    "phone": "+44 1603 506544",
    "source": "Bing",
    "id": "way/116820355"
   },
   "geometry": {
    "type": "Point",
    "coordinates": [
     1.259735,
     52.6251463
    ]
   }
  },
  {
   "type": "Feature",
   "id": "way/116820500",
   "properties": {
    "addr:city": "Norwich",
    "addr:country": "GB",
    "addr:housenumber": "142,142a",
    "addr:postcode": "NR4 7AA",
    "addr:street": "Colman Road",
    "amenity": "fast_food",
    "building": "shop",
    "cuisine": "chinese",
    "fhrs:id": "801686",
    "name": "China Garden",
    "phone": "+44 1603 507798",
    "source": "Bing",
    "id": "way/116820500"
   },
   "geometry": {
    "type": "Point",
    "coordinates": [
     1.2597485,
     52.6250898
    ]
   }
  },
  {
   "type": "Feature",
   "id": "way/116820658",
   "properties": {
    "addr:city": "Norwich",
    "addr:country": "GB",
    "addr:housenumber": "81",
    "addr:postcode": "NR4 7AE",
    "addr:street": "Lovelace Road",
    "amenity": "fast_food",
    "building": "shop",
    "cuisine": "pizza;kebab;burger;chicken",
    "fhrs:id": "14669",
    "name": "Dellacasa",
    "opening_hours": "16:00+",
    "phone": "+44 1603 453444",
    "source": "Bing",
    "takeaway": "yes",
    "website": "http://dellacasa-norwich.co.uk/",
    "id": "way/116820658"
   },
   "geometry": {
    "type": "Point",
    "coordinates": [
     1.2514112,
     52.6218774
    ]
   }
  },
  {
   "type": "Feature",
   "id": "way/118612266",
   "properties": {
    "addr:city": "Norwich",
    "addr:country": "GB",
    "addr:housenumber": "562",
    "addr:postcode": "NR5 8TU",
    "addr:street": "Dereham Road",
    "amenity": "fast_food",
    "building": "shop",
    "cuisine": "fish_and_chips",
    "delivery": "yes",
    "fhrs:id": "1110501",
    "name": "Trawlers Fish & Chips",
    "old_name": "Mr Cod & Fried Chicken",
    "old_name2": "The Codfather",
    "phone": "+44 1603 507777",
    "source": "Bing",
    "takeaway": "yes",
    "website": "https://www.facebook.com/trawlersfishandchips/",
    "id": "way/118612266"
   },
   "geometry": {
    "type": "Point",
    "coordinates": [
     1.2422883,
     52.6388347
    ]
   }
  },
  {
   "type": "Feature",
   "id": "way/118612373",
   "properties": {
    "addr:city": "Norwich",
    "addr:country": "GB",
    "addr:housenumber": "560b",
    "addr:postcode": "NR5 8TU",
    "addr:street": "Dereham Road",
    "amenity": "fast_food",
    "building": "shop",
    "cuisine": "kebab;pizza",
    "fhrs:id": "14330",
    "name": "O'Yes",
    "phone": "+44 1603 455255",
    "source": "Bing",
    "strapline": "Kebab & Pizza House",
    "id": "way/118612373"
   },
   "geometry": {
    "type": "Point",
    "coordinates": [
     1.2424066,
     52.6388213
    ]
   }
  },
  {
   "type": "Feature",
   "id": "way/119331011",
   "properties": {
    "addr:city": "Norwich",
    "addr:country": "GB",
    "addr:housenumber": "15",
    "addr:postcode": "NR1 3SP",
    "addr:street": "Saint Stephens Road",
    "amenity": "fast_food",
    "building": "shop",
    "cuisine": "indian",
    "delivery": "yes",
    "fhrs:id": "69974",
    "name": "Good Food Tandoori",
    "opening_hours": "Mo-Su 17:00-23:00",
    "phone": "+44 1603 765119",
    "phone:2": "+44 1603 765218",
    "takeaway": "only",
    "website": "http://www.goodfoodnorwich.co.uk/",
    "id": "way/119331011"
   },
   "geometry": {
    "type": "Point",
    "coordinates": [
     1.2896786,
     52.6237055
    ]
   }
  },
  {
   "type": "Feature",
   "id": "way/119361735",
   "properties": {
    "addr:city": "Norwich",
    "addr:country": "GB",
    "addr:housenumber": "17",
    "addr:postcode": "NR4 6DB",
    "addr:street": "Friar Tuck Road",
    "amenity": "fast_food",
    "building": "house",
    "cuisine": "fish_and_chips",
    "fhrs:id": "20704",
    "name": "Ken's Fish Bar",
    "phone": "+44 1603 454557",
    "id": "way/119361735"
   },
   "geometry": {
    "type": "Point",
    "coordinates": [
     1.2831308,
     52.6084238
    ]
   }
  },
  {
   "type": "Feature",
   "id": "way/119364441",
   "properties": {
    "addr:city": "Norwich",
    "addr:country": "GB",
    "addr:housenumber": "74,82",
    "addr:postcode": "NR3 2NU",
    "addr:street": "Lefroy Road",
    "amenity": "fast_food",
    "building": "yes",
    "cuisine": "fish_and_chips",
    "name": "Atlantis Fish Shop",
    "phone": "+44 1603 419792",
    "id": "way/119364441"
   },
   "geometry": {
    "type": "Point",
    "coordinates": [
     1.2702761,
     52.6521265
    ]
   }
  },
  {
   "type": "Feature",
   "id": "way/119369024",
   "properties": {
    "addr:city": "Norwich",
    "addr:country": "GB",
    "addr:housenumber": "474,474a",
    "addr:postcode": "NR3 4DY",
    "addr:street": "Sprowston Road",
    "amenity": "fast_food",
    "cuisine": "fish_and_chips",
    "fhrs:id": "67956",
    "name": "Chip Stop",
    "phone": "+44 1603 424827",
    "id": "way/119369024"
   },
   "geometry": {
    "type": "Point",
    "coordinates": [
     1.3091186,
     52.6508393
    ]
   }
  },
  {
   "type": "Feature",
   "id": "way/119369539",
   "properties": {
    "addr:city": "Norwich",
    "addr:country": "GB",
    "addr:housenumber": "53",
    "addr:postcode": "NR3 3HR",
    "addr:street": "Angel Road",
    "amenity": "fast_food",
    "building": "house",
    "cuisine": "fish_and_chips",
    "fax": "+44 1536 723926",
    "fhrs:id": "1855",
    "name": "Chish & Fips",
    "opening_hours": "Su-Mo off; Tu-Fr 12:00-13:30,16:30-21:00; Sa 11:45-13:30,16:30-21:00",
    "phone": "+44 1603 475475",
    "id": "way/119369539"
   },
   "geometry": {
    "type": "Point",
    "coordinates": [
     1.2920996,
     52.6430394
    ]
   }
  },
  {
   "type": "Feature",
   "id": "way/119370217",
   "properties": {
    "FIXME": "Fill the opening_hours gaps",
    "addr:city": "Norwich",
    "addr:country": "GB",
    "addr:housenumber": "86,86a",
    "addr:postcode": "NR3 3AA",
    "addr:street": "Catton Grove Road",
    "amenity": "fast_food",
    "building": "house",
    "cuisine": "fish_and_chips",
    "fhrs:id": "515706",
    "name": "Happy Fish and Chips",
    "opening_hours": "Mo,We 16:00-20:00; Tu,Th 11:45-14:00,16:30-21:30; Fr 11:45-14:00,16:30+; Sa 11:45-14:00",
    "phone": "+44 1603 426501",
    "wheelchair": "yes",
    "id": "way/119370217"
   },
   "geometry": {
    "type": "Point",
    "coordinates": [
     1.2929605,
     52.6544353
    ]
   }
  },
  {
   "type": "Feature",
   "id": "way/119371672",
   "properties": {
    "addr:city": "Norwich",
    "addr:country": "GB",
    "addr:housenumber": "6,6a",
    "addr:postcode": "NR1 3HQ",
    "addr:street": "Hall Road",
    "amenity": "fast_food",
    "building": "yes",
    "cuisine": "fish_and_chips",
    "fhrs:id": "24238",
    "name": "Golden Fish Bar",
    "phone": "+44 1603 621168",
    "id": "way/119371672"
   },
   "geometry": {
    "type": "Point",
    "coordinates": [
     1.2989124,
     52.6207572
    ]
   }
  },
  {
   "type": "Feature",
   "id": "way/119371974",
   "properties": {
    "addr:city": "Norwich",
    "addr:country": "GB",
    "addr:housenumber": "2",
    "addr:postcode": "NR3 4TT",
    "addr:street": "Silver Street",
    "amenity": "fast_food",
    "building": "house",
    "cuisine": "fish_and_chips",
    "fhrs:id": "65905",
    "name": "Inn Plaice",
    "phone": "+44 1603 622487",
    "id": "way/119371974"
   },
   "geometry": {
    "type": "Point",
    "coordinates": [
     1.2989539,
     52.6379249
    ]
   }
  },
  {
   "type": "Feature",
   "id": "way/119372741",
   "properties": {
    "addr:city": "Norwich",
    "addr:country": "GB",
    "addr:housenumber": "193",
    "addr:postcode": "NR3 2PG",
    "addr:street": "Drayton Road",
    "amenity": "fast_food",
    "building": "house",
    "cuisine": "fish_and_chips",
    "delivery": "no",
    "fhrs:id": "18819",
    "name": "Lucky Fish Bar",
    "old_name": "The Codfather",
    "phone": "+44 1603 423259",
    "id": "way/119372741"
   },
   "geometry": {
    "type": "Point",
    "coordinates": [
     1.2759583,
     52.6456796
    ]
   }
  },
  {
   "type": "Feature",
   "id": "way/119373107",
   "properties": {
    "addr:city": "Norwich",
    "addr:country": "GB",
    "addr:housenumber": "291",
    "addr:postcode": "NR3 2RY",
    "addr:street": "Aylsham Road",
    "amenity": "fast_food",
    "building": "house",
    "cuisine": "fish_and_chips",
    "fhrs:id": "661402",
    "name": "The Plaice For Taste",
    "phone": "+44 1603 400810",
    "id": "way/119373107"
   },
   "geometry": {
    "type": "Point",
    "coordinates": [
     1.2811824,
     52.6497946
    ]
   }
  },
  {
   "type": "Feature",
   "id": "way/119377893",
   "properties": {
    "addr:city": "Norwich",
    "addr:country": "GB",
    "addr:housenumber": "123",
    "addr:postcode": "NR1 3EY",
    "addr:street": "Ber Street",
    "amenity": "fast_food",
    "building": "house",
    "cuisine": "australian",
    "fhrs:id": "586703",
    "name": "Flaming Galah's",
    "opening_hours": "Mo-Sa 11:00-20:00; Su off",
    "phone": "+44 7837 915375",
    "website": "https://www.facebook.com/FlamingGalahTheAussiePieStop/",
    "id": "way/119377893"
   },
   "geometry": {
    "type": "Point",
    "coordinates": [
     1.2983494,
     52.6231014
    ]
   }
  },
  {
   "type": "Feature",
   "id": "way/119378232",
   "properties": {
    "addr:city": "Norwich",
    "addr:country": "GB",
    "addr:housenumber": "1,1a",
    "addr:postcode": "NR7 9AA",
    "addr:street": "Clancy Road",
    "amenity": "fast_food",
    "building": "yes",
    "cuisine": "fish_and_chips",
    "name": "The Friars Inn",
    "phone": "+44 1603 435401",
    "id": "way/119378232"
   },
   "geometry": {
    "type": "Point",
    "coordinates": [
     1.330652,
     52.6446794
    ]
   }
  },
  {
   "type": "Feature",
   "id": "way/119378438",
   "properties": {
    "addr:city": "Norwich",
    "addr:country": "GB",
    "addr:housenumber": "84",
    "addr:postcode": "NR3 4PD",
    "addr:street": "Spencer Street",
    "amenity": "fast_food",
    "building": "house",
    "cuisine": "fish_and_chips",
    "fhrs:id": "67624",
    "name": "G M West",
    "note": "Owner Gerald West died aged 77 from lung cancer on 29th January 2013",
    "phone": "+44 1603 621606",
    "id": "way/119378438"
   },
   "geometry": {
    "type": "Point",
    "coordinates": [
     1.2995546,
     52.6404702
    ]
   }
  },
  {
   "type": "Feature",
   "id": "way/119378624",
   "properties": {
    "addr:city": "Norwich",
    "addr:country": "GB",
    "addr:housenumber": "224",
    "addr:postcode": "NR3 4HT",
    "addr:street": "Sprowston Road",
    "amenity": "fast_food",
    "cuisine": "fish_and_chips",
    "fhrs:id": "67955",
    "name": "Golden Chicken & Fish Bar",
    "phone": "+44 1603 427563",
    "id": "way/119378624"
   },
   "geometry": {
    "type": "Point",
    "coordinates": [
     1.3029887,
     52.6463111
    ]
   }
  },
  {
   "type": "Feature",
   "id": "way/119379007",
   "properties": {
    "addr:city": "Norwich",
    "addr:country": "GB",
    "addr:housenumber": "28",
    "addr:postcode": "NR2 2AY",
    "addr:street": "Chester Street",
    "amenity": "fast_food",
    "building": "house",
    "cuisine": "fish_and_chips",
    "fhrs:id": "9017",
    "name": "Lee's Fish & Chips",
    "phone": "+44 1603 611472",
    "id": "way/119379007"
   },
   "geometry": {
    "type": "Point",
    "coordinates": [
     1.2793357,
     52.6225108
    ]
   }
  },
  {
   "type": "Feature",
   "id": "way/119380490",
   "properties": {
    "addr:city": "Norwich",
    "addr:country": "GB",
    "addr:housenumber": "61",
    "addr:postcode": "NR1 2JJ",
    "addr:street": "Long John Hill",
    "amenity": "fast_food",
    "building": "yes",
    "cuisine": "fish_and_chips",
    "fhrs:id": "937012",
    "name": "Long John Hill Fish Bar",
    "phone": "+44 1603 620932",
    "id": "way/119380490"
   },
   "geometry": {
    "type": "Point",
    "coordinates": [
     1.301683,
     52.6104694
    ]
   }
  },
  {
   "type": "Feature",
   "id": "way/119384838",
   "properties": {
    "addr:city": "Norwich",
    "addr:country": "GB",
    "addr:housenumber": "3",
    "addr:postcode": "NR1 2AD",
    "addr:street": "Saint Johns Close",
    "amenity": "fast_food",
    "building": "house",
    "cuisine": "fish_and_chips",
    "fhrs:id": "22023",
    "name": "Rish and Chips",
    "operator": "Nick McLaren",
    "phone": "+44 1603 624713",
    "wheelchair": "yes",
    "id": "way/119384838"
   },
   "geometry": {
    "type": "Point",
    "coordinates": [
     1.294411,
     52.614423
    ]
   }
  },
  {
   "type": "Feature",
   "id": "way/119385438",
   "properties": {
    "addr:city": "Norwich",
    "addr:country": "GB",
    "addr:housenumber": "141",
    "addr:postcode": "NR3 2AD",
    "addr:street": "Aylsham Road",
    "amenity": "fast_food",
    "building": "shop",
    "cuisine": "chicken;kebab;pizza;burger;fish_and_chips",
    "delivery": "yes",
    "fhrs:id": "1098603",
    "name": "Happy Fresh Fryer",
    "opening_hours": "Su-We 12:00-23:00; Th closed; Fr 16:00-23:00",
    "phone": "+44 1603 928690",
    "id": "way/119385438"
   },
   "geometry": {
    "type": "Point",
    "coordinates": [
     1.2841069,
     52.6457751
    ]
   }
  },
  {
   "type": "Feature",
   "id": "way/119388908",
   "properties": {
    "addr:city": "Norwich",
    "addr:country": "GB",
    "addr:housenumber": "59",
    "addr:postcode": "NR3 3TH",
    "addr:street": "Woodcock Road",
    "amenity": "fast_food",
    "building": "shop",
    "cuisine": "fish_and_chips",
    "fhrs:id": "46936",
    "name": "Woodcock Fish Bar",
    "phone": "+44 1603 427239",
    "id": "way/119388908"
   },
   "geometry": {
    "type": "Point",
    "coordinates": [
     1.284653,
     52.6531289
    ]
   }
  },
  {
   "type": "Feature",
   "id": "way/119389360",
   "properties": {
    "addr:city": "Norwich",
    "addr:country": "GB",
    "addr:housenumber": "26",
    "addr:postcode": "NR2 3BB",
    "addr:street": "Stafford Street",
    "amenity": "fast_food",
    "building": "shop",
    "cuisine": "fish_and_chips",
    "fhrs:id": "70290",
    "name": "The Chip Shop",
    "note": "Flat above shop",
    "opening_hours": "Tu,Th 12:00-13:30; Tu-Sa 16:30-23:00; Fr,Sa 12:00-13:45",
    "phone": "+44 1603 627885",
    "id": "way/119389360"
   },
   "geometry": {
    "type": "Point",
    "coordinates": [
     1.275401,
     52.632479
    ]
   }
  },
  {
   "type": "Feature",
   "id": "way/119389652",
   "properties": {
    "addr:city": "Norwich",
    "addr:country": "GB",
    "addr:housenumber": "28",
    "addr:postcode": "NR2 1EL",
    "addr:street": "Lower Goat Lane",
    "alt_name": "F'SH at the grosvenor",
    "amenity": "fast_food",
    "building": "shop",
    "cuisine": "fish_and_chips",
    "diet:pescetarian": "no",
    "email": "fshshop@gmail.com",
    "fhrs:id": "447484",
    "name": "Grosvenor Fish Bar",
    "opening_hours": "Mo-Sa 11:00-19:00",
    "phone": "+44 1603 625855",
    "toilets:wheelchair": "no",
    "website": "http://www.fshshop.com/",
    "wheelchair": "limited",
    "id": "way/119389652"
   },
   "geometry": {
    "type": "Point",
    "coordinates": [
     1.2915919,
     52.6299362
    ]
   }
  },
  {
   "type": "Feature",
   "id": "way/119390126",
   "properties": {
    "addr:city": "Norwich",
    "addr:country": "GB",
    "addr:housenumber": "131,131a,131b",
    "addr:postcode": "NR2 2PE",
    "addr:street": "Unthank Road",
    "amenity": "fast_food",
    "building": "yes",
    "cuisine": "fish_and_chips",
    "fhrs:id": "861574",
    "name": "Unthank Fish & Chips",
    "outdoor_seating": "yes",
    "phone": "+44 1508 520825",
    "smoking": "outside",
    "id": "way/119390126"
   },
   "geometry": {
    "type": "Point",
    "coordinates": [
     1.2769194,
     52.6239812
    ]
   }
  },
  {
   "type": "Feature",
   "id": "way/119390978",
   "properties": {
    "addr:city": "Norwich",
    "addr:country": "GB",
    "addr:housenumber": "53",
    "addr:postcode": "NR1 4JW",
    "addr:street": "Saint Leonards Road",
    "amenity": "fast_food",
    "building": "shop",
    "cuisine": "fish_and_chips",
    "fhrs:id": "69373",
    "name": "Massingham's Fish and Chip Shop",
    "phone": "+44 1603 620868",
    "id": "way/119390978"
   },
   "geometry": {
    "type": "Point",
    "coordinates": [
     1.3121873,
     52.6298266
    ]
   }
  },
  {
   "type": "Feature",
   "id": "way/119442559",
   "properties": {
    "addr:city": "Norwich",
    "addr:country": "GB",
    "addr:housenumber": "142",
    "addr:postcode": "NR3 4TG",
    "addr:street": "Silver Road",
    "amenity": "fast_food",
    "building": "shop",
    "cuisine": "fish_and_chips",
    "fhrs:id": "65736",
    "name": "Silver Road Fish Bar",
    "phone": "+44 1603 423340",
    "id": "way/119442559"
   },
   "geometry": {
    "type": "Point",
    "coordinates": [
     1.3024326,
     52.6413588
    ]
   }
  },
  {
   "type": "Feature",
   "id": "way/119443396",
   "properties": {
    "addr:city": "Norwich",
    "addr:country": "GB",
    "addr:housenumber": "100",
    "addr:postcode": "NR7 0AQ",
    "addr:street": "Harvey Lane",
    "amenity": "fast_food",
    "building": "shop",
    "cuisine": "indian",
    "fhrs:id": "572252",
    "name": "Quality Indian Takeaway",
    "operator": "17:00-23:00",
    "phone": "+44 1603 300002; +44 1603 700766",
    "website": "http://qualityindian.co.uk/",
    "id": "way/119443396"
   },
   "geometry": {
    "type": "Point",
    "coordinates": [
     1.3289899,
     52.6367658
    ]
   }
  },
  {
   "type": "Feature",
   "id": "way/119443696",
   "properties": {
    "addr:city": "Norwich",
    "addr:country": "GB",
    "addr:housenumber": "130",
    "addr:postcode": "NR2 3AF",
    "addr:street": "Dereham Road",
    "amenity": "fast_food",
    "building": "shop",
    "cuisine": "thai",
    "fhrs:id": "732907",
    "name": "Take Thai",
    "opening_hours": "Tu-Su 17:00-22:30",
    "phone": "+44 1603 464646",
    "website": "http://www.takethai.co.uk/",
    "id": "way/119443696"
   },
   "geometry": {
    "type": "Point",
    "coordinates": [
     1.2774506,
     52.633601
    ]
   }
  },
  {
   "type": "Feature",
   "id": "way/119455709",
   "properties": {
    "addr:city": "Norwich",
    "addr:country": "GB",
    "addr:housenumber": "144",
    "addr:postcode": "NR3 4BB",
    "addr:street": "Constitution Hill",
    "amenity": "fast_food",
    "building": "shop",
    "cuisine": "chinese",
    "fhrs:id": "511304",
    "name": "Good World Chinese Takeaway",
    "phone": "+44 1603 408394",
    "id": "way/119455709"
   },
   "geometry": {
    "type": "Point",
    "coordinates": [
     1.3007614,
     52.6495066
    ]
   }
  },
  {
   "type": "Feature",
   "id": "way/119456019",
   "properties": {
    "addr:city": "Norwich",
    "addr:country": "GB",
    "addr:housenumber": "166a",
    "addr:postcode": "NR2 2AB",
    "addr:street": "Unthank Road",
    "amenity": "fast_food",
    "building": "shop",
    "cuisine": "chinese;takeaway",
    "fhrs:id": "661387",
    "name": "Hong Kong Fusion Takeaway",
    "phone": "+44 1603 622851",
    "takeaway": "yes",
    "id": "way/119456019"
   },
   "geometry": {
    "type": "Point",
    "coordinates": [
     1.276019,
     52.6227846
    ]
   }
  },
  {
   "type": "Feature",
   "id": "way/119456438",
   "properties": {
    "addr:city": "Norwich",
    "addr:country": "GB",
    "addr:housenumber": "282",
    "addr:postcode": "NR3 2RG",
    "addr:street": "Aylsham Road",
    "amenity": "fast_food",
    "building": "shop",
    "cuisine": "chinese",
    "fhrs:id": "10471",
    "name": "Jin Gong",
    "phone": "+44 1603 427903",
    "id": "way/119456438"
   },
   "geometry": {
    "type": "Point",
    "coordinates": [
     1.2807791,
     52.6490606
    ]
   }
  },
  {
   "type": "Feature",
   "id": "way/119456590",
   "properties": {
    "addr:city": "Norwich",
    "addr:country": "GB",
    "addr:housenumber": "189",
    "addr:postcode": "NR3 2PG",
    "addr:street": "Drayton Road",
    "amenity": "fast_food",
    "building": "house",
    "cuisine": "chinese",
    "fhrs:id": "16736",
    "name": "Kam Lee Chinese Take Away",
    "phone": "+44 1603 484052",
    "id": "way/119456590"
   },
   "geometry": {
    "type": "Point",
    "coordinates": [
     1.2761075,
     52.6457432
    ]
   }
  },
  {
   "type": "Feature",
   "id": "way/119457845",
   "properties": {
    "addr:city": "Norwich",
    "addr:country": "GB",
    "addr:housenumber": "217a",
    "addr:postcode": "NR3 2RE",
    "addr:street": "Aylsham Road",
    "amenity": "fast_food",
    "building": "shop",
    "cuisine": "chinese",
    "fhrs:id": "941453",
    "name": "Wok China",
    "opening_hours": "Mo-Su,PH 16:30-23:00",
    "phone": "+44 1603 788300",
    "website": "http://www.wokchina.co.uk/",
    "id": "way/119457845"
   },
   "geometry": {
    "type": "Point",
    "coordinates": [
     1.2826078,
     52.6477136
    ]
   }
  },
  {
   "type": "Feature",
   "id": "way/119463433",
   "properties": {
    "addr:city": "Norwich",
    "addr:country": "GB",
    "addr:housenumber": "8",
    "addr:postcode": "NR3 3NS",
    "addr:street": "Woodgrove Parade",
    "amenity": "fast_food",
    "building": "shop",
    "cuisine": "chinese",
    "fhrs:id": "8711",
    "name": "Golden Place",
    "phone": "+44 1603 419945",
    "id": "way/119463433"
   },
   "geometry": {
    "type": "Point",
    "coordinates": [
     1.2917238,
     52.651539
    ]
   }
  },
  {
   "type": "Feature",
   "id": "way/119469630",
   "properties": {
    "addr:city": "Norwich",
    "addr:country": "GB",
    "addr:housenumber": "107",
    "addr:postcode": "NR3 4DT",
    "addr:street": "Shipfield",
    "amenity": "fast_food",
    "building": "shop",
    "cuisine": "chinese",
    "fhrs:id": "65568",
    "name": "Kam Hon Take Away",
    "phone": "+44 1603 429460",
    "id": "way/119469630"
   },
   "geometry": {
    "type": "Point",
    "coordinates": [
     1.3083042,
     52.6506897
    ]
   }
  },
  {
   "type": "Feature",
   "id": "way/119471060",
   "properties": {
    "addr:city": "Norwich",
    "addr:country": "GB",
    "addr:housenumber": "193",
    "addr:postcode": "NR3 4QQ",
    "addr:street": "Sprowston Road",
    "amenity": "fast_food",
    "building": "shop",
    "cuisine": "chinese",
    "fhrs:id": "67951",
    "name": "China Star",
    "old_name": "King Wah",
    "opening_hours": "We-Mo 17:00-00:00",
    "phone": "+44 1603 424663",
    "website": "https://chinastarnorwich.wixsite.com/2019",
    "id": "way/119471060"
   },
   "geometry": {
    "type": "Point",
    "coordinates": [
     1.3019893,
     52.6444189
    ]
   }
  },
  {
   "type": "Feature",
   "id": "way/119472515",
   "properties": {
    "addr:city": "Norwich",
    "addr:country": "GB",
    "addr:housenumber": "57",
    "addr:postcode": "NR3 3TH",
    "addr:street": "Woodcock Road",
    "amenity": "fast_food",
    "building": "shop",
    "cuisine": "chinese",
    "fhrs:id": "18793",
    "name": "Royal Dynasty",
    "phone": "+44 1603 411281",
    "id": "way/119472515"
   },
   "geometry": {
    "type": "Point",
    "coordinates": [
     1.2845283,
     52.6531287
    ]
   }
  },
  {
   "type": "Feature",
   "id": "way/119476455",
   "properties": {
    "addr:city": "Norwich",
    "addr:country": "GB",
    "addr:housenumber": "97",
    "addr:postcode": "NR2 2PE",
    "addr:street": "Unthank Road",
    "amenity": "fast_food",
    "building": "shop",
    "cuisine": "chinese",
    "fhrs:id": "74968",
    "name": "Cantonese Kitchen",
    "phone": "+44 1603 614605",
    "id": "way/119476455"
   },
   "geometry": {
    "type": "Point",
    "coordinates": [
     1.2776969,
     52.6249569
    ]
   }
  },
  {
   "type": "Feature",
   "id": "way/119476680",
   "properties": {
    "addr:city": "Norwich",
    "addr:country": "GB",
    "addr:housenumber": "12",
    "addr:postcode": "NR1 3HQ",
    "addr:street": "Hall Road",
    "amenity": "fast_food",
    "building": "shop",
    "cuisine": "chinese",
    "fhrs:id": "605927",
    "name": "Dragon Chinese Takeaway",
    "phone": "+44 1603 501188",
    "id": "way/119476680"
   },
   "geometry": {
    "type": "Point",
    "coordinates": [
     1.2986777,
     52.6206392
    ]
   }
  },
  {
   "type": "Feature",
   "id": "way/119555440",
   "properties": {
    "addr:city": "Norwich",
    "addr:country": "GB",
    "addr:housenumber": "315",
    "addr:postcode": "NR3 2AB",
    "addr:street": "Aylsham Road",
    "amenity": "fast_food",
    "building": "shop",
    "cuisine": "chinese;thai",
    "fhrs:id": "851580",
    "name": "Evergreen",
    "phone": "+44 1603 400780",
    "id": "way/119555440"
   },
   "geometry": {
    "type": "Point",
    "coordinates": [
     1.2797889,
     52.6525134
    ]
   }
  },
  {
   "type": "Feature",
   "id": "way/119556658",
   "properties": {
    "addr:city": "Norwich",
    "addr:country": "GB",
    "addr:housenumber": "14",
    "addr:postcode": "NR2 4BH",
    "addr:street": "Distillery Square",
    "amenity": "fast_food",
    "building": "shop",
    "cuisine": "chinese",
    "fhrs:id": "14406",
    "name": "Golden City",
    "opening_hours": "Tu-Th,Su,PH 17:00-23:30; Fr,Sa 17:00-24:00",
    "phone": "+44 1603 620489",
    "id": "way/119556658"
   },
   "geometry": {
    "type": "Point",
    "coordinates": [
     1.2814403,
     52.6325936
    ]
   }
  },
  {
   "type": "Feature",
   "id": "way/119557178",
   "properties": {
    "addr:city": "Norwich",
    "addr:country": "GB",
    "addr:housename": "Happy View Chinese Takeaway",
    "addr:housenumber": "69a",
    "addr:postcode": "NR1 4EX",
    "addr:street": "Ketts Hill",
    "amenity": "fast_food",
    "building": "house",
    "cuisine": "chinese",
    "delivery": "yes",
    "fhrs:id": "32248",
    "name": "Happy View",
    "opening_hours": "We-Mo,PH 17:00-23:00; Tu off",
    "phone": "+44 1603 618025",
    "takeaway": "yes",
    "website": "http://www.happyviewchinese.co.uk/",
    "id": "way/119557178"
   },
   "geometry": {
    "type": "Point",
    "coordinates": [
     1.3125545,
     52.6341357
    ]
   }
  },
  {
   "type": "Feature",
   "id": "way/119557432",
   "properties": {
    "addr:city": "Norwich",
    "addr:country": "GB",
    "addr:housenumber": "67",
    "addr:postcode": "NR1 4NS",
    "addr:street": "Borrowdale Drive",
    "amenity": "fast_food",
    "building": "shop",
    "cuisine": "chinese",
    "fhrs:id": "878405",
    "name": "Ken Tong Take-Away",
    "phone": "+44 1603 439818",
    "id": "way/119557432"
   },
   "geometry": {
    "type": "Point",
    "coordinates": [
     1.3227255,
     52.6396416
    ]
   }
  },
  {
   "type": "Feature",
   "id": "way/119557982",
   "properties": {
    "addr:city": "Norwich",
    "addr:country": "GB",
    "addr:housenumber": "361",
    "addr:postcode": "NR3 2RX",
    "addr:street": "Aylsham Road",
    "amenity": "fast_food",
    "building": "shop",
    "cuisine": "chinese",
    "fhrs:id": "852370",
    "name": "New World Chinese",
    "phone": "+44 1603 484716",
    "id": "way/119557982"
   },
   "geometry": {
    "type": "Point",
    "coordinates": [
     1.2778122,
     52.6561734
    ]
   }
  },
  {
   "type": "Feature",
   "id": "way/119559471",
   "properties": {
    "addr:city": "Norwich",
    "addr:country": "GB",
    "addr:housenumber": "89",
    "addr:postcode": "NR2 2BD",
    "addr:street": "Cambridge Street",
    "amenity": "fast_food",
    "building": "shop",
    "cuisine": "chinese",
    "fhrs:id": "962119",
    "name": "China Express",
    "opening_hours": "17:00-23:00",
    "phone": "+44 1603 661177; +44 1603 665913",
    "id": "way/119559471"
   },
   "geometry": {
    "type": "Point",
    "coordinates": [
     1.2822113,
     52.6232105
    ]
   }
  },
  {
   "type": "Feature",
   "id": "way/119563267",
   "properties": {
    "addr:city": "Norwich",
    "addr:country": "GB",
    "addr:housenumber": "170",
    "addr:postcode": "NR2 4DS",
    "addr:street": "Nelson Street",
    "amenity": "fast_food",
    "building": "shop",
    "cuisine": "chinese;thai",
    "fhrs:id": "846084",
    "name": "Zen",
    "website": "http://www.zentakeaway.co.uk/",
    "id": "way/119563267"
   },
   "geometry": {
    "type": "Point",
    "coordinates": [
     1.2762667,
     52.6390252
    ]
   }
  },
  {
   "type": "Feature",
   "id": "way/119564363",
   "properties": {
    "addr:city": "Norwich",
    "addr:country": "GB",
    "addr:housenumber": "85",
    "addr:postcode": "NR3 4PE",
    "addr:street": "Spencer Street",
    "amenity": "fast_food",
    "building": "shop",
    "cuisine": "chinese",
    "fhrs:id": "67625",
    "name": "Great Wall",
    "phone": "+44 1603 627907",
    "id": "way/119564363"
   },
   "geometry": {
    "type": "Point",
    "coordinates": [
     1.3000062,
     52.6406675
    ]
   }
  },
  {
   "type": "Feature",
   "id": "way/119566558",
   "properties": {
    "addr:city": "Norwich",
    "addr:country": "GB",
    "addr:housenumber": "16",
    "addr:postcode": "NR1 4ET",
    "addr:street": "Bishop Bridge Road",
    "amenity": "fast_food",
    "building": "shop",
    "cuisine": "chinese",
    "fhrs:id": "1100556",
    "name": "Lotus House",
    "phone": "+44 1603 624888",
    "id": "way/119566558"
   },
   "geometry": {
    "type": "Point",
    "coordinates": [
     1.3094229,
     52.6336237
    ]
   }
  },
  {
   "type": "Feature",
   "id": "way/119566559",
   "properties": {
    "addr:city": "Norwich",
    "addr:country": "GB",
    "addr:housenumber": "18",
    "addr:postcode": "NR1 4ET",
    "addr:street": "Bishop Bridge Road",
    "amenity": "fast_food",
    "building": "yes",
    "cuisine": "fish_and_chips",
    "fhrs:id": "1019486",
    "name": "Fish & Chips",
    "phone": "+44 1603 395593",
    "id": "way/119566559"
   },
   "geometry": {
    "type": "Point",
    "coordinates": [
     1.3094318,
     52.6336746
    ]
   }
  },
  {
   "type": "Feature",
   "id": "way/119566561",
   "properties": {
    "addr:city": "Norwich",
    "addr:country": "GB",
    "addr:housenumber": "28",
    "addr:postcode": "NR1 4ET",
    "addr:street": "Bishop Bridge Road",
    "amenity": "fast_food",
    "building": "shop",
    "cuisine": "indian",
    "name": "Tandoori Express",
    "opening_hours": "17:00-00:00",
    "phone": "+44 1603 219994",
    "phone:2": "+44 1603 219997",
    "website": "http://www.tandoori-express.net/",
    "id": "way/119566561"
   },
   "geometry": {
    "type": "Point",
    "coordinates": [
     1.3094585,
     52.6338779
    ]
   }
  },
  {
   "type": "Feature",
   "id": "way/119567334",
   "properties": {
    "addr:city": "Norwich",
    "addr:country": "GB",
    "addr:housenumber": "105",
    "addr:postcode": "NR3 1NY",
    "addr:street": "Bull Close Road",
    "amenity": "fast_food",
    "building": "shop",
    "cuisine": "chinese",
    "fhrs:id": "6919",
    "name": "Welcome Chinese Takeaway",
    "phone": "+44 1603 630932",
    "id": "way/119567334"
   },
   "geometry": {
    "type": "Point",
    "coordinates": [
     1.3002302,
     52.6373795
    ]
   }
  },
  {
   "type": "Feature",
   "id": "way/119568650",
   "properties": {
    "addr:city": "Norwich",
    "addr:country": "GB",
    "addr:housenumber": "117b,117e",
    "addr:postcode": "NR4 6LD",
    "addr:street": "Ipswich Road",
    "amenity": "fast_food",
    "building": "house",
    "building:levels": "2",
    "cuisine": "chinese",
    "fhrs:id": "22775",
    "name": "Yuan Feng",
    "opening_hours": "Su,Mo,We,Th 17:00-23:00; Fr,Sa 17:00-23:30",
    "phone": "+44 1603 502277",
    "id": "way/119568650"
   },
   "geometry": {
    "type": "Point",
    "coordinates": [
     1.2795656,
     52.6057691
    ]
   }
  },
  {
   "type": "Feature",
   "id": "way/119569108",
   "properties": {
    "addr:city": "Norwich",
    "addr:country": "GB",
    "addr:housenumber": "299",
    "addr:postcode": "NR3 2RY",
    "addr:street": "Aylsham Road",
    "amenity": "fast_food",
    "building": "shop",
    "cuisine": "chinese",
    "fhrs:id": "48009",
    "name": "Lucky Star Chinese Take Away",
    "phone": "+44 1603 483889",
    "id": "way/119569108"
   },
   "geometry": {
    "type": "Point",
    "coordinates": [
     1.2805124,
     52.6511261
    ]
   }
  },
  {
   "type": "Feature",
   "id": "way/119569259",
   "properties": {
    "addr:city": "Norwich",
    "addr:country": "GB",
    "addr:housenumber": "60",
    "addr:postcode": "NR1 2NR",
    "addr:street": "Sandy Lane",
    "amenity": "fast_food",
    "building": "retail",
    "cuisine": "chinese",
    "fhrs:id": "1108812",
    "name": "New Island",
    "phone": "+44 1603 622621",
    "id": "way/119569259"
   },
   "geometry": {
    "type": "Point",
    "coordinates": [
     1.2968731,
     52.6052147
    ]
   }
  },
  {
   "type": "Feature",
   "id": "way/119725975",
   "properties": {
    "addr:city": "Norwich",
    "addr:country": "GB",
    "addr:housenumber": "131",
    "addr:postcode": "NR3 1NF",
    "addr:street": "Magdalen Street",
    "amenity": "fast_food",
    "building": "shop",
    "building:levels": "2",
    "cuisine": "thai",
    "delivery": "yes",
    "email": "info@thaistreet.uk",
    "name": "THAI Street",
    "opening_hours": "Tu-Su 17:00-22:30; Mo closed",
    "phone": "+44 1603 474747",
    "start_date": "2019-02-07",
    "takeaway": "yes",
    "website": "https://www.thaistreet.uk/",
    "id": "way/119725975"
   },
   "geometry": {
    "type": "Point",
    "coordinates": [
     1.2969543,
     52.6376934
    ]
   }
  },
  {
   "type": "Feature",
   "id": "way/119731889",
   "properties": {
    "addr:city": "Norwich",
    "addr:country": "GB",
    "addr:housenumber": "229",
    "addr:postcode": "NR1 3AE",
    "addr:street": "Queens Road",
    "amenity": "fast_food",
    "building": "shop",
    "cuisine": "indian",
    "fhrs:id": "61504",
    "name": "Mumbai Kitchen",
    "phone": "+44 1603 629898",
    "website": "http://www.mumbaikitchennorwich.co.uk/",
    "id": "way/119731889"
   },
   "geometry": {
    "type": "Point",
    "coordinates": [
     1.3005812,
     52.6207495
    ]
   }
  },
  {
   "type": "Feature",
   "id": "way/119741841",
   "properties": {
    "addr:city": "Norwich",
    "addr:country": "GB",
    "addr:housenumber": "61",
    "addr:postcode": "NR3 1JG",
    "addr:street": "Magpie Road",
    "alt_phone": "+44 1603 496356",
    "amenity": "fast_food",
    "building": "shop",
    "cuisine": "indian;bangladeshi",
    "fhrs:id": "915746",
    "name": "Bengal Palace",
    "opening_hours": "Su-Th 17:00-22:30; Tu off; Fr-Sa 17:00-23:00",
    "phone": "+44 1603 496355",
    "website": "http://bengalpalacenorwich.co.uk/",
    "id": "way/119741841"
   },
   "geometry": {
    "type": "Point",
    "coordinates": [
     1.2945201,
     52.6389981
    ]
   }
  },
  {
   "type": "Feature",
   "id": "way/119743826",
   "properties": {
    "addr:city": "Norwich",
    "addr:country": "GB",
    "addr:housenumber": "101",
    "addr:postcode": "NR2 4HT",
    "addr:street": "Dereham Road",
    "amenity": "fast_food",
    "building": "shop",
    "cuisine": "chinese",
    "fhrs:id": "974179",
    "name": "Furama",
    "opening_hours": "17:00-23:30",
    "phone": "+44 1603 662333",
    "id": "way/119743826"
   },
   "geometry": {
    "type": "Point",
    "coordinates": [
     1.2801171,
     52.63348
    ]
   }
  },
  {
   "type": "Feature",
   "id": "way/119743827",
   "properties": {
    "addr:city": "Norwich",
    "addr:country": "GB",
    "addr:housenumber": "105",
    "addr:postcode": "NR2 4HT",
    "addr:street": "Dereham Road",
    "amenity": "fast_food",
    "building": "shop",
    "cuisine": "indian",
    "delivery": "yes",
    "email": "enquiry@luckytandoori.co.uk",
    "fhrs:id": "14326",
    "name": "Lucky Tandoori",
    "opening_hours": "Mo-Su 17:00-23:00",
    "phone": "+44 1603 762555;+44 1603 762700",
    "takeaway": "only",
    "website": "https://www.luckytandoori.co.uk/",
    "id": "way/119743827"
   },
   "geometry": {
    "type": "Point",
    "coordinates": [
     1.2799759,
     52.6335112
    ]
   }
  },
  {
   "type": "Feature",
   "id": "way/119745260",
   "properties": {
    "addr:city": "Norwich",
    "addr:country": "GB",
    "addr:housenumber": "84",
    "addr:postcode": "NR3 1EW",
    "addr:street": "Waterloo Road",
    "amenity": "fast_food",
    "building": "shop",
    "cuisine": "indian",
    "fhrs:id": "76176",
    "name": "Shah Zahan",
    "phone": "+44 1603 425 984",
    "id": "way/119745260"
   },
   "geometry": {
    "type": "Point",
    "coordinates": [
     1.2937171,
     52.6416817
    ]
   }
  },
  {
   "type": "Feature",
   "id": "way/119745504",
   "properties": {
    "addr:city": "Norwich",
    "addr:country": "GB",
    "addr:housenumber": "319",
    "addr:postcode": "NR3 2AB",
    "addr:street": "Aylsham Road",
    "amenity": "fast_food",
    "building": "shop",
    "cuisine": "indian",
    "fhrs:id": "836839",
    "name": "Taj Mahal Indian Take Away",
    "opening_hours": "17:00-23:00",
    "phone": "+44 1603 419252",
    "website": "http://www.tajmahal-norwich.co.uk/",
    "id": "way/119745504"
   },
   "geometry": {
    "type": "Point",
    "coordinates": [
     1.2797072,
     52.6527628
    ]
   }
  },
  {
   "type": "Feature",
   "id": "way/119747839",
   "properties": {
    "addr:city": "Norwich",
    "addr:country": "GB",
    "addr:housenumber": "105",
    "addr:postcode": "NR2 2PE",
    "addr:street": "Unthank Road",
    "amenity": "fast_food",
    "building": "shop",
    "fhrs:id": "1089534",
    "name": "Yummies",
    "id": "way/119747839"
   },
   "geometry": {
    "type": "Point",
    "coordinates": [
     1.2776056,
     52.624739
    ]
   }
  },
  {
   "type": "Feature",
   "id": "way/120679322",
   "properties": {
    "addr:city": "Norwich",
    "addr:country": "GB",
    "addr:housenumber": "478",
    "addr:postcode": "NR3 4DY",
    "addr:street": "Sprowston Road",
    "amenity": "fast_food",
    "building": "shop",
    "cuisine": "kebab",
    "fhrs:id": "67957",
    "name": "Baba's",
    "phone": "+44 1603 487820",
    "id": "way/120679322"
   },
   "geometry": {
    "type": "Point",
    "coordinates": [
     1.3092902,
     52.6509758
    ]
   }
  },
  {
   "type": "Feature",
   "id": "way/120680606",
   "properties": {
    "addr:city": "Norwich",
    "addr:country": "GB",
    "addr:housenumber": "6",
    "addr:postcode": "NR1 1BT",
    "addr:street": "Saint Vedast Street",
    "amenity": "fast_food",
    "building": "shop",
    "cuisine": "pizza",
    "name": "Munchies",
    "phone": "+44 1603 625825",
    "id": "way/120680606"
   },
   "geometry": {
    "type": "Point",
    "coordinates": [
     1.3019601,
     52.6289575
    ]
   }
  },
  {
   "type": "Feature",
   "id": "way/120680610",
   "properties": {
    "addr:city": "Norwich",
    "addr:country": "GB",
    "addr:housenumber": "69-71",
    "addr:interpolation": "odd",
    "addr:postcode": "NR1 1DG",
    "addr:street": "Prince of Wales Road",
    "amenity": "fast_food",
    "building": "shop",
    "cuisine": "kebab",
    "fhrs:id": "60923",
    "name": "The Best Turkish Kebab & Pizza",
    "phone": "+44 1603 617517",
    "id": "way/120680610"
   },
   "geometry": {
    "type": "Point",
    "coordinates": [
     1.3025695,
     52.6288953
    ]
   }
  },
  {
   "type": "Feature",
   "id": "way/120680940",
   "properties": {
    "addr:city": "Norwich",
    "addr:country": "GB",
    "addr:housenumber": "44",
    "addr:postcode": "NR1 1PD",
    "addr:street": "King Street",
    "amenity": "fast_food",
    "building": "yes",
    "cuisine": "kebab;pizza",
    "fhrs:id": "915742",
    "name": "Caspian Kebab & Pizza",
    "opening_hours": "Mo-Th 16:00-01:00, Fr,Sa 16:00-04:00",
    "phone": "+44 1603 620015",
    "id": "way/120680940"
   },
   "geometry": {
    "type": "Point",
    "coordinates": [
     1.2993068,
     52.6283073
    ]
   }
  },
  {
   "type": "Feature",
   "id": "way/120682119",
   "properties": {
    "addr:city": "Norwich",
    "addr:country": "GB",
    "addr:housenumber": "88",
    "addr:postcode": "NR4 7EH",
    "addr:street": "Colman Road",
    "amenity": "fast_food",
    "building": "shop",
    "cuisine": "pizza",
    "fhrs:id": "30266",
    "name": "Domino's",
    "opening_hours": "11:00-23:00",
    "phone": "+44 1603 455666",
    "website": "http://www.dominos.co.uk/",
    "id": "way/120682119"
   },
   "geometry": {
    "type": "Point",
    "coordinates": [
     1.2622783,
     52.621896
    ]
   }
  },
  {
   "type": "Feature",
   "id": "way/120682123",
   "properties": {
    "addr:city": "Norwich",
    "addr:country": "GB",
    "addr:housenumber": "86",
    "addr:postcode": "NR4 7EH",
    "addr:street": "Colman Road",
    "amenity": "fast_food",
    "building": "shop",
    "cuisine": "chinese;asian",
    "delivery": "yes",
    "description": "Opened by local brothers Ping and Hing Lau in August 2010",
    "fhrs:id": "47821",
    "name": "East Chinese Takeaway",
    "opening_hours": "Tu-Su,PH 17:00-23:00",
    "phone": "+44 1603 501188",
    "website": "http://www.eastchinesetakeaway.com/",
    "id": "way/120682123"
   },
   "geometry": {
    "type": "Point",
    "coordinates": [
     1.2623306,
     52.621862
    ]
   }
  },
  {
   "type": "Feature",
   "id": "way/120682127",
   "properties": {
    "addr:city": "Norwich",
    "addr:country": "GB",
    "addr:housenumber": "96",
    "addr:postcode": "NR4 7EH",
    "addr:street": "Colman Road",
    "amenity": "fast_food",
    "building": "shop",
    "cuisine": "pizza",
    "fhrs:id": "747643",
    "name": "Papa John's",
    "note": "Pizza sizes S,M,L,XL are 6 slice/9.5-inch up in 2 slice, 2-inch increments",
    "opening_hours": "Mo-Fr 16:30-23:00; Sa 11:30-23:00; Su 16:00-23:00",
    "operator": "Papa John's (GB) Ltd",
    "phone": "+44 1603 504433",
    "website": "https://www.papajohns.co.uk/",
    "id": "way/120682127"
   },
   "geometry": {
    "type": "Point",
    "coordinates": [
     1.2620628,
     52.6220361
    ]
   }
  },
  {
   "type": "Feature",
   "id": "way/120696138",
   "properties": {
    "addr:city": "Norwich",
    "addr:country": "GB",
    "addr:housenumber": "291a",
    "addr:postcode": "NR3 2RY",
    "addr:street": "Aylsham Road",
    "amenity": "fast_food",
    "building": "house",
    "cuisine": "pizza",
    "fhrs:id": "1087104",
    "name": "Star Grill",
    "opening_hours": "Su-Th 16:30-23:45; Fr-Sa 16:30-00:45",
    "phone": "+44 1603 400709",
    "id": "way/120696138"
   },
   "geometry": {
    "type": "Point",
    "coordinates": [
     1.2810506,
     52.649831
    ]
   }
  },
  {
   "type": "Feature",
   "id": "way/120698291",
   "properties": {
    "addr:city": "Norwich",
    "addr:country": "GB",
    "addr:housenumber": "87",
    "addr:postcode": "NR1 1DG",
    "addr:street": "Prince of Wales Road",
    "amenity": "fast_food",
    "building": "shop",
    "cuisine": "kebab;pizza",
    "fhrs:id": "60924",
    "name": "Master Chef",
    "opening_hours": "Su 17:00-01:00; Mo-Sa 17:00-03:30",
    "phone": "+44 1603 765555",
    "id": "way/120698291"
   },
   "geometry": {
    "type": "Point",
    "coordinates": [
     1.303323,
     52.628645
    ]
   }
  },
  {
   "type": "Feature",
   "id": "way/120699131",
   "properties": {
    "addr:city": "Norwich",
    "addr:country": "GB",
    "addr:housenumber": "181",
    "addr:postcode": "NR1 4AB",
    "addr:street": "Plumstead Road",
    "amenity": "fast_food",
    "building": "shop",
    "cuisine": "pizza",
    "delivery": "yes",
    "fhrs:id": "735928",
    "name": "Domino's",
    "opening_hours": "11:00-05:00",
    "phone": "+44 1603 700400",
    "website": "https://www.dominos.co.uk/norwich-east",
    "id": "way/120699131"
   },
   "geometry": {
    "type": "Point",
    "coordinates": [
     1.3260247,
     52.6366075
    ]
   }
  },
  {
   "type": "Feature",
   "id": "way/121286440",
   "properties": {
    "addr:city": "Norwich",
    "addr:country": "GB",
    "addr:housenumber": "133;133a",
    "addr:postcode": "NR4 7HA",
    "addr:street": "Colman Road",
    "amenity": "fast_food",
    "building": "shop",
    "fhrs:id": "878409",
    "gambling": "betting",
    "name": "Pizza XS",
    "source": "Bing",
    "id": "way/121286440"
   },
   "geometry": {
    "type": "Point",
    "coordinates": [
     1.2605294,
     52.6250312
    ]
   }
  },
  {
   "type": "Feature",
   "id": "way/121499362",
   "properties": {
    "addr:city": "Norwich",
    "addr:country": "GB",
    "addr:housenumber": "67",
    "addr:postcode": "NR2 4HU",
    "addr:street": "Dereham Road",
    "amenity": "fast_food",
    "building": "shop",
    "cuisine": "vietnamese",
    "fhrs:id": "1051875",
    "name": "Vietnam Pho",
    "phone": "+44 1603 667788",
    "website": "http://vietnampho.co.uk/",
    "id": "way/121499362"
   },
   "geometry": {
    "type": "Point",
    "coordinates": [
     1.281445,
     52.633195
    ]
   }
  },
  {
   "type": "Feature",
   "id": "way/121499366",
   "properties": {
    "addr:city": "Norwich",
    "addr:country": "GB",
    "addr:housenumber": "81",
    "addr:postcode": "NR2 4HT",
    "addr:street": "Dereham Road",
    "amenity": "fast_food",
    "building": "yes",
    "cuisine": "pizza;kebab",
    "fhrs:id": "696530",
    "name": "Caesar's",
    "source": "Bing",
    "id": "way/121499366"
   },
   "geometry": {
    "type": "Point",
    "coordinates": [
     1.2808447,
     52.6333887
    ]
   }
  },
  {
   "type": "Feature",
   "id": "way/121499373",
   "properties": {
    "addr:city": "Norwich",
    "addr:country": "GB",
    "addr:housenumber": "28",
    "addr:postcode": "NR2 4AZ",
    "addr:street": "Dereham Road",
    "amenity": "fast_food",
    "building": "shop",
    "cuisine": "chinese",
    "fhrs:id": "1070667",
    "name": "Wokaholic",
    "phone": "+44 1603 886001",
    "website": "http://www.newwokaholic.co.uk/",
    "id": "way/121499373"
   },
   "geometry": {
    "type": "Point",
    "coordinates": [
     1.2826021,
     52.6325054
    ]
   }
  },
  {
   "type": "Feature",
   "id": "way/121499468",
   "properties": {
    "addr:city": "Norwich",
    "addr:country": "GB",
    "addr:housenumber": "71",
    "addr:postcode": "NR2 4HU",
    "addr:street": "Dereham Road",
    "amenity": "fast_food",
    "building": "yes",
    "cuisine": "pizza; chicken",
    "fhrs:id": "951801",
    "name": "Crown Pizza & Chicken",
    "takeaway": "yes",
    "id": "way/121499468"
   },
   "geometry": {
    "type": "Point",
    "coordinates": [
     1.2813036,
     52.6332304
    ]
   }
  },
  {
   "type": "Feature",
   "id": "way/122398673",
   "properties": {
    "addr:city": "Norwich",
    "addr:country": "GB",
    "addr:housename": "KFC",
    "addr:postcode": "NR6 6SD",
    "addr:street": "Mile Cross Lane",
    "amenity": "fast_food",
    "building": "retail",
    "cuisine": "chicken",
    "fhrs:id": "358803",
    "name": "KFC Mile Cross",
    "note": "Opening hours for drive thru from website",
    "opening_hours": "Mo-Su 10:30-23:00",
    "payment:card": "yes",
    "payment:cash": "yes",
    "smoking": "outside",
    "takeaway": "yes",
    "website": "https://www.kfc.co.uk/find-us?postcode=NR6%206SD&lat=52.65760604831675&lng=1.284327507019043&zoom=18",
    "id": "way/122398673"
   },
   "geometry": {
    "type": "Point",
    "coordinates": [
     1.2838912,
     52.6578784
    ]
   }
  },
  {
   "type": "Feature",
   "id": "way/122819592",
   "properties": {
    "addr:city": "Norwich",
    "addr:country": "GB",
    "addr:housenumber": "11",
    "addr:parentstreet": "Earlham Road",
    "addr:postcode": "NR2 3PF",
    "addr:street": "Earlham House Shops",
    "amenity": "fast_food",
    "building": "yes",
    "name": "Mona Kebab & Pizza",
    "source": "survey",
    "id": "way/122819592"
   },
   "geometry": {
    "type": "Point",
    "coordinates": [
     1.2686619,
     52.6289288
    ]
   }
  },
  {
   "type": "Feature",
   "id": "way/122819601",
   "properties": {
    "addr:city": "Norwich",
    "addr:country": "GB",
    "addr:housenumber": "16c",
    "addr:parentstreet": "Earlham Road",
    "addr:postcode": "NR2 3PD",
    "addr:street": "Earlham House Shops",
    "amenity": "fast_food",
    "building": "yes",
    "cuisine": "indian",
    "fhrs:id": "1070673",
    "name": "Rice & Spice",
    "opening_hours": "Mo-Th,PH 17:00-23:30; Fr,Sa 17:00-24:00; Su 17:00-22:30",
    "phone": "+44 1603 503080; +44 1603 504020",
    "source": "survey",
    "website": "https://www.rice-and-spice.co.uk/",
    "id": "way/122819601"
   },
   "geometry": {
    "type": "Point",
    "coordinates": [
     1.2687357,
     52.6292952
    ]
   }
  },
  {
   "type": "Feature",
   "id": "way/122819604",
   "properties": {
    "addr:city": "Norwich",
    "addr:country": "GB",
    "addr:housenumber": "9",
    "addr:parentstreet": "Earlham Road",
    "addr:postcode": "NR2 3PD",
    "addr:street": "Earlham House Shops",
    "amenity": "fast_food",
    "building": "shop",
    "cuisine": "chinese",
    "fhrs:id": "666572",
    "name": "Royal Plaza",
    "phone": "+44 1603 506888",
    "source": "survey",
    "website": "https://www.royal-plaza.uk/",
    "id": "way/122819604"
   },
   "geometry": {
    "type": "Point",
    "coordinates": [
     1.2687526,
     52.6287392
    ]
   }
  },
  {
   "type": "Feature",
   "id": "way/123011784",
   "properties": {
    "addr:city": "Norwich",
    "addr:country": "GB",
    "addr:housename": "Unit 10",
    "addr:housenumber": "10",
    "addr:postcode": "NR5 9HA",
    "addr:street": "Bowthorpe Main Centre",
    "amenity": "fast_food",
    "building": "shop",
    "cuisine": "chinese",
    "fhrs:id": "1087106",
    "name": "Happy House",
    "phone": "+44 1603 740011",
    "source": "Bing",
    "id": "way/123011784"
   },
   "geometry": {
    "type": "Point",
    "coordinates": [
     1.2171201,
     52.637203
    ]
   }
  },
  {
   "type": "Feature",
   "id": "way/123011786",
   "properties": {
    "addr:city": "Norwich",
    "addr:country": "GB",
    "addr:housename": "Unit 9",
    "addr:housenumber": "9",
    "addr:postcode": "NR5 9HA",
    "addr:street": "Bowthorpe Main Centre",
    "amenity": "fast_food",
    "building": "shop",
    "cuisine": "fish_and_chips;kebab;pizza",
    "fhrs:id": "796473",
    "name": "Simply The Best Fish Kebab and Pizza",
    "phone": "+44 1603 748855",
    "source": "Bing",
    "id": "way/123011786"
   },
   "geometry": {
    "type": "Point",
    "coordinates": [
     1.2170118,
     52.6371867
    ]
   }
  },
  {
   "type": "Feature",
   "id": "way/123077954",
   "properties": {
    "addr:postcode": "NR6 5JB",
    "amenity": "fast_food",
    "building": "yes",
    "cuisine": "burger",
    "name": "McDonald's",
    "source": "Bing",
    "id": "way/123077954"
   },
   "geometry": {
    "type": "Point",
    "coordinates": [
     1.2692304,
     52.6544802
    ]
   }
  },
  {
   "type": "Feature",
   "id": "way/128807401",
   "properties": {
    "addr:city": "Norwich",
    "addr:country": "GB",
    "addr:housenumber": "198",
    "addr:postcode": "NR5 0EX",
    "addr:street": "Norwich Road",
    "amenity": "fast_food",
    "building": "yes",
    "cuisine": "peking;cantonese",
    "name": "Jade Garden",
    "phone": "+44 1603 748246",
    "source": "Bing",
    "takeaway": "yes",
    "website": "https://ratings.food.gov.uk/business/en-GB/930079/Jade-Garden-Norfolk",
    "id": "way/128807401"
   },
   "geometry": {
    "type": "Point",
    "coordinates": [
     1.2349054,
     52.6476132
    ]
   }
  },
  {
   "type": "Feature",
   "id": "way/135964029",
   "properties": {
    "access:disabled": "yes",
    "addr:city": "Norwich",
    "addr:country": "GB",
    "addr:housenumber": "17,27",
    "addr:postcode": "NR1 3QA",
    "addr:street": "Orford Place",
    "amenity": "fast_food",
    "brand": "Five Guys",
    "brand:wikidata": "Q1131810",
    "brand:wikipedia": "en:Five Guys",
    "building": "retail",
    "cuisine": "burger",
    "fhrs:id": "915738",
    "name": "Five Guys",
    "official_name": "Five Guys Burgers and Fries",
    "old_name": "Pizza Hut",
    "opening_hours": "Su-Th 11:00-23:00; Fr-Sa 11:00-00:00",
    "phone": "+44 1603 620763",
    "start_date": "2016-10-17T11:00:00+01:00",
    "takeaway": "yes",
    "toilets:access": "customers",
    "toilets:description": "1 disabled accessible toilet with easy access rails",
    "website": "https://www.fiveguys.co.uk/",
    "wheelchair": "yes",
    "wheelchair:description:en": "Push Manual doors from Red Lion Street;staff door hosts to provide assistance.",
    "id": "way/135964029"
   },
   "geometry": {
    "type": "Point",
    "coordinates": [
     1.2943556,
     52.6270504
    ]
   }
  },
  {
   "type": "Feature",
   "id": "way/136090716",
   "properties": {
    "addr:postcode": "NR1 3QN",
    "amenity": "fast_food",
    "brand": "Subway",
    "brand:wikidata": "Q244457",
    "brand:wikipedia": "en:Subway (restaurant)",
    "building": "yes",
    "cuisine": "sandwich",
    "name": "Subway",
    "source": "Bing",
    "takeaway": "yes",
    "id": "way/136090716"
   },
   "geometry": {
    "type": "Point",
    "coordinates": [
     1.2928486,
     52.6252238
    ]
   }
  },
  {
   "type": "Feature",
   "id": "way/137846577",
   "properties": {
    "amenity": "fast_food",
    "building": "shop",
    "cuisine": "chinese",
    "name": "Sun Rise",
    "phone": "+44 1603 811387",
    "source:outline": "Bing",
    "id": "way/137846577"
   },
   "geometry": {
    "type": "Point",
    "coordinates": [
     1.1761728,
     52.6005497
    ]
   }
  },
  {
   "type": "Feature",
   "id": "way/138439034",
   "properties": {
    "addr:city": "Norwich",
    "addr:housenumber": "161",
    "addr:postcode": "NR7 0JG",
    "addr:street": "Thunder Lane",
    "addr:suburb": "Thorpe St Andrew",
    "amenity": "fast_food",
    "building": "yes",
    "cuisine": "chinese",
    "fhrs:id": "94354",
    "name": "Top Chef",
    "phone": "+44 1603 437772",
    "source": "Bing",
    "source:addr": "FHRS Open Data",
    "id": "way/138439034"
   },
   "geometry": {
    "type": "Point",
    "coordinates": [
     1.3431134,
     52.6347273
    ]
   }
  },
  {
   "type": "Feature",
   "id": "way/165811179",
   "properties": {
    "addr:city": "Norwich",
    "addr:country": "GB",
    "addr:housenumber": "26,26a,26b",
    "addr:postcode": "NR4 7LD",
    "addr:street": "Eaton Street",
    "amenity": "fast_food",
    "building": "shop",
    "cuisine": "fish_and_chips",
    "delivery": "no",
    "fhrs:id": "564465",
    "name": "Eaton Fish Bar",
    "opening_hours": "Su-Mo off; Tu-Th 17:00-20:45; Fr 17:00-21:30; Sa 17:00-21:00",
    "payment:cash": "yes",
    "payment:credit_cards": "no",
    "payment:cryptocurrencies": "no",
    "payment:debit_cards": "no",
    "payment:electronic_purses": "no",
    "phone": "+44 1603 455222",
    "source:building": "OS_OpenData_StreetView",
    "start_date": "2014 Mar 5 11:30",
    "takeaway": "only",
    "id": "way/165811179"
   },
   "geometry": {
    "type": "Point",
    "coordinates": [
     1.2511765,
     52.6083717
    ]
   }
  },
  {
   "type": "Feature",
   "id": "way/167577804",
   "properties": {
    "addr:city": "Norwich",
    "addr:country": "GB",
    "addr:housenumber": "95",
    "addr:postcode": "NR2 2PE",
    "addr:street": "Unthank Road",
    "amenity": "fast_food",
    "brand": "Co-op",
    "building": "yes",
    "cuisine": "coffee_shop",
    "fhrs:id": "932632",
    "name": "Caffè Nero",
    "opening_hours": "Mo-Sa 09:00-23:00; Su 10:00-22:00",
    "phone": "+44 1603 633729",
    "website": "https://caffenero.com/uk/stores/norwich-unthank-road-703/",
    "id": "way/167577804"
   },
   "geometry": {
    "type": "Point",
    "coordinates": [
     1.2777175,
     52.6250133
    ]
   }
  },
  {
   "type": "Feature",
   "id": "way/168880548",
   "properties": {
    "addr:city": "Norwich",
    "addr:country": "GB",
    "addr:housenumber": "27",
    "addr:postcode": "NR2 2AA",
    "addr:street": "Suffolk Square",
    "amenity": "fast_food",
    "building": "yes",
    "cuisine": "fish_and_chips",
    "delivery": "no",
    "drive_through": "no",
    "fhrs:id": "739692",
    "name": "New Sole Plaice",
    "opening_hours": "Tu-Sa 11:45-14:00,16:30-20:00; Su-Mo off",
    "phone": "+44 1603 620826",
    "source": "Bing",
    "source:addr": "FHRS Open Data",
    "takeaway": "yes",
    "website": "https://en-gb.facebook.com/pg/Newsoleplaice/",
    "id": "way/168880548"
   },
   "geometry": {
    "type": "Point",
    "coordinates": [
     1.2829014,
     52.6251375
    ]
   }
  },
  {
   "type": "Feature",
   "id": "way/171360586",
   "properties": {
    "addr:city": "Norwich",
    "addr:country": "GB",
    "addr:housenumber": "21",
    "addr:postcode": "NR1 1BG",
    "addr:street": "Prince of Wales Road",
    "amenity": "fast_food",
    "building": "yes",
    "fhrs:id": "18689",
    "name": "Tastebuds",
    "source:addr:postcode": "FHRS Open Data",
    "source:name": "FSA Food Hygiene Ratings Database",
    "id": "way/171360586"
   },
   "geometry": {
    "type": "Point",
    "coordinates": [
     1.300448,
     52.6293252
    ]
   }
  },
  {
   "type": "Feature",
   "id": "way/171366877",
   "properties": {
    "addr:city": "Norwich",
    "addr:country": "GB",
    "addr:housenumber": "55",
    "addr:postcode": "NR1 1BL",
    "addr:street": "Prince of Wales Road",
    "amenity": "fast_food",
    "building": "yes",
    "cuisine": "turkish",
    "fhrs:id": "666573",
    "fixme": "Check if still open",
    "name": "Vine Leaves",
    "website": "https://www.facebook.com/Vine-Leaves-707061915981655/",
    "id": "way/171366877"
   },
   "geometry": {
    "type": "Point",
    "coordinates": [
     1.3018245,
     52.6290911
    ]
   }
  },
  {
   "type": "Feature",
   "id": "way/181274728",
   "properties": {
    "addr:city": "Norwich",
    "addr:country": "GB",
    "addr:housename": "Happy View Chinese Takeaway",
    "addr:housenumber": "173",
    "addr:postcode": "NR5 8RF",
    "addr:street": "Earlham Green Lane",
    "amenity": "fast_food",
    "building": "yes",
    "cuisine": "chinese",
    "delivery": "yes",
    "fhrs:id": "977295",
    "name": "Happy View",
    "opening_hours": "We-Mo,PH 17:00-23:00; Tu off",
    "payment:cash": "yes",
    "payment:cheque": "no",
    "payment:mastercard": "yes",
    "payment:visa": "yes",
    "payment:visa_debit": "yes",
    "payment:visa_electron": "yes",
    "phone": "+44 1603 928688",
    "source": "Bing",
    "takeaway": "yes",
    "website": "http://www.happyviewchinese.co.uk/",
    "id": "way/181274728"
   },
   "geometry": {
    "type": "Point",
    "coordinates": [
     1.2344941,
     52.6368594
    ]
   }
  },
  {
   "type": "Feature",
   "id": "way/202664402",
   "properties": {
    "addr:city": "Norwich",
    "addr:country": "GB",
    "addr:housenumber": "43",
    "addr:postcode": "NR1 1BL",
    "addr:street": "Prince of Wales Road",
    "amenity": "fast_food",
    "building": "yes",
    "cuisine": "kebab",
    "fhrs:id": "19292",
    "name": "Siciliano",
    "opening_hours": "Su-Th 16:00-03:00; Fr-Sa 16:00-04:00",
    "phone": "+44 1603 763355",
    "phone_alt": "+44 1603 616045",
    "website": "https://sicilianoonline.co.uk/",
    "id": "way/202664402"
   },
   "geometry": {
    "type": "Point",
    "coordinates": [
     1.3014021,
     52.629252
    ]
   }
  },
  {
   "type": "Feature",
   "id": "way/205593730",
   "properties": {
    "addr:city": "Norwich",
    "addr:housenumber": "21",
    "addr:postcode": "NR2 1QE",
    "addr:street": "Haymarket",
    "amenity": "fast_food",
    "building": "yes",
    "cuisine": "regional",
    "drive_through": "no",
    "fhrs:id": "27481",
    "name": "West Cornwall Pasty Co",
    "phone": "+44 1844 205135",
    "takeaway": "yes",
    "website": "http://westcornwallpasty.co.uk",
    "id": "way/205593730"
   },
   "geometry": {
    "type": "Point",
    "coordinates": [
     1.2931175,
     52.6277185
    ]
   }
  },
  {
   "type": "Feature",
   "id": "way/240855184",
   "properties": {
    "addr:city": "Norwich",
    "addr:country": "GB",
    "addr:housenumber": "1",
    "addr:postcode": "NR1 3PY",
    "addr:street": "Castle Meadow",
    "amenity": "fast_food",
    "building": "yes",
    "cuisine": "sandwich",
    "delivery": "no",
    "drive_through": "no",
    "fhrs:id": "30713",
    "name": "Urban Munch",
    "opening_hours": "Mo-Fr 09:30-16:00",
    "outdoor_seating": "yes",
    "smoking": "no",
    "takeaway": "yes",
    "id": "way/240855184"
   },
   "geometry": {
    "type": "Point",
    "coordinates": [
     1.2947807,
     52.6273992
    ]
   }
  },
  {
   "type": "Feature",
   "id": "way/253360635",
   "properties": {
    "addr:city": "Norwich",
    "addr:country": "GB",
    "addr:housenumber": "75",
    "addr:postcode": "NR3 1AA",
    "addr:street": "Magdalen Street",
    "amenity": "fast_food",
    "brand": "Subway",
    "brand:wikidata": "Q244457",
    "brand:wikipedia": "en:Subway (restaurant)",
    "building": "yes",
    "cuisine": "sandwich",
    "fhrs:id": "457280",
    "name": "Subway",
    "opening_hours": "Mo-Fr 07:00-20:00; Sa 09:00-20:00; Su 10:00-20:00",
    "phone": "+44 1603 664477",
    "ref": "57010",
    "takeaway": "yes",
    "website": "http://www.subway.co.uk/",
    "wikidata": "Q26653891",
    "id": "way/253360635"
   },
   "geometry": {
    "type": "Point",
    "coordinates": [
     1.2967243,
     52.6360972
    ]
   }
  },
  {
   "type": "Feature",
   "id": "way/277622213",
   "properties": {
    "addr:housenumber": "14",
    "addr:postcode": "NR9 3AB",
    "addr:street": "Great Melton Road",
    "addr:village": "Hethersett",
    "amenity": "fast_food",
    "building": "yes",
    "cuisine": "fish_and_chips",
    "fhrs:id": "648592",
    "name": "Tasty Bites",
    "phone": "+44 1603 811333",
    "source:addr": "FHRS Open Data",
    "id": "way/277622213"
   },
   "geometry": {
    "type": "Point",
    "coordinates": [
     1.1763092,
     52.6008746
    ]
   }
  },
  {
   "type": "Feature",
   "id": "way/314264580",
   "properties": {
    "addr:city": "Norwich",
    "addr:country": "GB",
    "addr:housename": "Wensum House",
    "addr:housenumber": "101a",
    "addr:postcode": "NR1 1DW",
    "addr:street": "Prince of Wales Road",
    "amenity": "fast_food",
    "building": "yes",
    "cuisine": "sandwich",
    "fhrs:id": "682955",
    "name": "Subway",
    "opening_hours": "Mo-Th 07:00-20:00; Fr 07:00-23:00; Sa 09:00-23:00; Su 10:00-20:00",
    "phone": "+44 1603 666116",
    "website": "http://www.subway.co.uk/store-finder/store-detail.aspx?sid=453055469",
    "id": "way/314264580"
   },
   "geometry": {
    "type": "Point",
    "coordinates": [
     1.3044051,
     52.6281507
    ]
   }
  },
  {
   "type": "Feature",
   "id": "way/322932514",
   "properties": {
    "addr:city": "Norwich",
    "addr:country": "GB",
    "addr:housenumber": "297a",
    "addr:postcode": "NR8 6LE",
    "addr:street": "Fakenham Road",
    "amenity": "fast_food",
    "building": "yes",
    "cuisine": "chinese",
    "fhrs:id": "94556",
    "name": "Dragon Palace",
    "note": "Cash payment only",
    "opening_hours": "Su-We,PH 17:00-22:30; Th-Sa 17:00-23:00; Tu off",
    "phone": "+44 1603 861199",
    "id": "way/322932514"
   },
   "geometry": {
    "type": "Point",
    "coordinates": [
     1.1973982,
     52.686065
    ]
   }
  },
  {
   "type": "Feature",
   "id": "way/322932517",
   "properties": {
    "addr:city": "Norwich",
    "addr:country": "GB",
    "addr:housenumber": "295",
    "addr:postcode": "NR8 6LE",
    "addr:street": "Fakenham Road",
    "amenity": "fast_food",
    "building": "yes",
    "cuisine": "fish_and_chips",
    "fhrs:id": "94551",
    "name": "Ocean Fish Bar",
    "phone": "+44 1603 867279",
    "id": "way/322932517"
   },
   "geometry": {
    "type": "Point",
    "coordinates": [
     1.1975386,
     52.6860379
    ]
   }
  },
  {
   "type": "Feature",
   "id": "way/329618461",
   "properties": {
    "addr:city": "Norwich",
    "addr:country": "GB",
    "addr:housenumber": "29",
    "addr:parentstreet": "Waterloo Road",
    "addr:postcode": "NR3 3BE",
    "addr:street": "Saint Augustine's Gate",
    "amenity": "fast_food",
    "brand": "Domino's Pizza",
    "brand:wikidata": "Q839466",
    "brand:wikipedia": "en:Domino's Pizza",
    "building": "shop",
    "cuisine": "pizza",
    "fhrs:id": "26370",
    "name": "Domino's Pizza",
    "opening_hours": "11:00-23:00",
    "phone": "+44 1603 622977",
    "takeaway": "yes",
    "id": "way/329618461"
   },
   "geometry": {
    "type": "Point",
    "coordinates": [
     1.2908723,
     52.6392947
    ]
   }
  },
  {
   "type": "Feature",
   "id": "way/329618462",
   "properties": {
    "addr:city": "Norwich",
    "addr:country": "GB",
    "addr:housenumber": "30",
    "addr:parentstreet": "Waterloo Road",
    "addr:postcode": "NR3 3BE",
    "addr:street": "Saint Augustine's Gate",
    "amenity": "fast_food",
    "building": "shop",
    "cuisine": "fish_and_chips",
    "fhrs:id": "35705",
    "name": "Star Fish Bar",
    "opening_hours": "Mo-Tu 17:00-22:00; We 11:30-13:30,17:00-22:00; Th 11:30-13:30,16:30-22:00; Fr 11:00-13:00,16:30-22:30; Sa 11:30-14:00,16:30-22:30; Su 17:00-22:00",
    "phone": "+44 1603 663880",
    "source:addr": "FHRS Open Data",
    "website": "https://www.starfishbar.co.uk/",
    "id": "way/329618462"
   },
   "geometry": {
    "type": "Point",
    "coordinates": [
     1.290804,
     52.6393495
    ]
   }
  },
  {
   "type": "Feature",
   "id": "way/329618463",
   "properties": {
    "addr:city": "Norwich",
    "addr:country": "GB",
    "addr:housename": "Unit 1",
    "addr:housenumber": "1",
    "addr:postcode": "NR3 3BE",
    "addr:street": "Saint Augustine's Gate",
    "amenity": "fast_food",
    "building": "shop",
    "cuisine": "chinese;thai",
    "name": "Wokaholic",
    "opening_hours": "Su-Th 16:00-23:00; Fr,Sa 16:00-00:00",
    "website": "http://www.wokaholicnorwich.co.uk/",
    "id": "way/329618463"
   },
   "geometry": {
    "type": "Point",
    "coordinates": [
     1.2907359,
     52.6394044
    ]
   }
  },
  {
   "type": "Feature",
   "id": "way/330356549",
   "properties": {
    "addr:city": "Norwich",
    "addr:country": "GB",
    "addr:housenumber": "68",
    "addr:postcode": "NR1 1LT",
    "addr:street": "Prince of Wales Road",
    "amenity": "fast_food",
    "cuisine": "charcoal_grill",
    "fhrs:id": "48140",
    "name": "Ossi's",
    "opening_hours": "Mo,We-Fr 17:00-02:45; Tu,Su 17:00-00:45; Sa 17:00-01:45",
    "takeaway": "yes",
    "id": "way/330356549"
   },
   "geometry": {
    "type": "Point",
    "coordinates": [
     1.3023476,
     52.6292969
    ]
   }
  },
  {
   "type": "Feature",
   "id": "way/330651023",
   "properties": {
    "addr:city": "Norwich",
    "addr:country": "GB",
    "addr:housenumber": "98",
    "addr:postcode": "NR1 1NJ",
    "addr:street": "Prince of Wales Road",
    "amenity": "fast_food",
    "building": "yes",
    "cuisine": "chicken",
    "name": "DFChicken",
    "note": "Southern Fried Chicken",
    "id": "way/330651023"
   },
   "geometry": {
    "type": "Point",
    "coordinates": [
     1.3034769,
     52.6289028
    ]
   }
  },
  {
   "type": "Feature",
   "id": "way/330651026",
   "properties": {
    "addr:city": "Norwich",
    "addr:country": "GB",
    "addr:housenumber": "74",
    "addr:postcode": "NR1 1NJ",
    "addr:street": "Prince of Wales Road",
    "amenity": "fast_food",
    "building": "yes",
    "cuisine": "pizza;kebab;chicken",
    "fhrs:id": "661383",
    "name": "Piccolos",
    "opening_hours": "Su-Fr 16:30-13:00; Sa 16:30-00:00",
    "phone": "+44 1603 761076",
    "id": "way/330651026"
   },
   "geometry": {
    "type": "Point",
    "coordinates": [
     1.3026683,
     52.6291601
    ]
   }
  },
  {
   "type": "Feature",
   "id": "way/338043918",
   "properties": {
    "addr:city": "Norwich",
    "addr:country": "GB",
    "addr:housenumber": "110",
    "addr:postcode": "NR6 5JE",
    "addr:street": "Boundary Road",
    "amenity": "fast_food",
    "building": "yes",
    "cuisine": "sandwich",
    "email": "rai_ec99@yahoo.co.uk",
    "fhrs:id": "708899",
    "name": "Subway",
    "opening_hours": "Mo-Th 07:00-21:00; Fr-Sa 07:00-22:00; Su 09:00-20:00",
    "phone": "+44 1603 400212",
    "ref": "58759",
    "website": "http://www.subway.co.uk/",
    "id": "way/338043918"
   },
   "geometry": {
    "type": "Point",
    "coordinates": [
     1.268017,
     52.6541637
    ]
   }
  },
  {
   "type": "Feature",
   "id": "way/346912107",
   "properties": {
    "addr:city": "Norwich",
    "addr:country": "GB",
    "addr:housenumber": "13a",
    "addr:postcode": "NR8 6NU",
    "addr:street": "Victoria Road",
    "amenity": "fast_food",
    "building": "yes",
    "cuisine": "chinese;thai",
    "fhrs:id": "110581",
    "name": "Lucky House Chinese & Thai",
    "opening_hours": "17:00-21:00",
    "phone": "+44 1603 866662",
    "id": "way/346912107"
   },
   "geometry": {
    "type": "Point",
    "coordinates": [
     1.2015545,
     52.6807685
    ]
   }
  },
  {
   "type": "Feature",
   "id": "way/346912110",
   "properties": {
    "addr:city": "Norwich",
    "addr:country": "GB",
    "addr:housenumber": "13b",
    "addr:postcode": "NR8 6NU",
    "addr:street": "Victoria Road",
    "amenity": "fast_food",
    "building": "yes",
    "cuisine": "fish_and_chips",
    "fhrs:id": "747059",
    "name": "Taverham Fish Bar",
    "opening_hours": "Mo-Sa 11:30-14:00,16:30-21:00; Su off",
    "phone": "+44 1603 260271",
    "id": "way/346912110"
   },
   "geometry": {
    "type": "Point",
    "coordinates": [
     1.2015136,
     52.6807214
    ]
   }
  },
  {
   "type": "Feature",
   "id": "way/348670674",
   "properties": {
    "addr:city": "Norwich",
    "addr:country": "GB",
    "addr:housenumber": "19",
    "addr:postcode": "NR3 1LA",
    "addr:street": "Wensum Street",
    "amenity": "fast_food",
    "building": "yes",
    "cuisine": "pizza",
    "fhrs:id": "457282",
    "name": "Pizza GoGo",
    "phone": "+44 1603 760056",
    "source": "survey",
    "website": "http://www.pizzagogo.co.uk/",
    "id": "way/348670674"
   },
   "geometry": {
    "type": "Point",
    "coordinates": [
     1.2977464,
     52.6325656
    ]
   }
  },
  {
   "type": "Feature",
   "id": "way/378027110",
   "properties": {
    "addr:city": "Norwich",
    "addr:country": "GB",
    "addr:housenumber": "20",
    "addr:postcode": "NR8 5AG",
    "addr:street": "West End",
    "amenity": "fast_food",
    "building": "yes",
    "cuisine": "chinese;thai",
    "fhrs:id": "799234",
    "name": "Happy Valley",
    "note": "Cash only",
    "opening_hours": "Su-Th 17:00-22:00; Fr-Sa 17:00-23:00",
    "phone": "+44 1603 731199",
    "start_date": "2015-08-03",
    "strapline": "Chinese & Thai Food",
    "website": "https://www.facebook.com/Happyvalley.cotessey/",
    "id": "way/378027110"
   },
   "geometry": {
    "type": "Point",
    "coordinates": [
     1.208088,
     52.6592444
    ]
   }
  },
  {
   "type": "Feature",
   "id": "way/384406555",
   "properties": {
    "addr:city": "Norwich",
    "addr:country": "GB",
    "addr:postcode": "NR13 5AR",
    "addr:street": "Yarmouth Road",
    "addr:village": "Blofield",
    "amenity": "fast_food",
    "building": "yes",
    "cuisine": "burger",
    "fhrs:id": "142396",
    "internet_access": "wlan",
    "internet_access:fee": "no",
    "name": "McDonald's",
    "opening_hours": "24/7",
    "phone": "+44 1603 211466",
    "source": "OS_OpenData_VectorMapLocal",
    "source:addr": "FHRS Open Data",
    "website": "https://www.mcdonalds.co.uk/",
    "id": "way/384406555"
   },
   "geometry": {
    "type": "Point",
    "coordinates": [
     1.4281366,
     52.6319588
    ]
   }
  },
  {
   "type": "Feature",
   "id": "way/384408370",
   "properties": {
    "addr:city": "Norwich",
    "addr:housenumber": "72",
    "addr:postcode": "NR13 5LH",
    "addr:street": "The Street",
    "addr:village": "Brundall",
    "amenity": "fast_food",
    "building": "yes",
    "fhrs:id": "95902",
    "name": "New World",
    "source": "OS_OpenData_VectorMapLocal",
    "source:addr": "FHRS Open Data",
    "id": "way/384408370"
   },
   "geometry": {
    "type": "Point",
    "coordinates": [
     1.4332067,
     52.6244975
    ]
   }
  },
  {
   "type": "Feature",
   "id": "way/384419214",
   "properties": {
    "addr:city": "Norwich",
    "addr:postcode": "NR13 4BH",
    "addr:street": "Norwich Road",
    "addr:village": "Lingwood",
    "amenity": "fast_food",
    "building": "yes",
    "cuisine": "fish_and_chips",
    "fhrs:id": "94457",
    "name": "Lingwood Chippie",
    "source": "OS_OpenData_VectorMapLocal",
    "source:addr": "FHRS Open Data",
    "id": "way/384419214"
   },
   "geometry": {
    "type": "Point",
    "coordinates": [
     1.482673,
     52.6188665
    ]
   }
  },
  {
   "type": "Feature",
   "id": "way/457392362",
   "properties": {
    "addr:city": "Norwich",
    "addr:country": "GB",
    "addr:housenumber": "207",
    "addr:postcode": "NR1 4AB",
    "addr:street": "Plumstead Road",
    "amenity": "fast_food",
    "building": "house",
    "cuisine": "pizza",
    "fhrs:id": "582627",
    "name": "Papa John's",
    "phone": "+44 1603 709090",
    "website": "https://www.papajohns.co.uk/",
    "id": "way/457392362"
   },
   "geometry": {
    "type": "Point",
    "coordinates": [
     1.3279593,
     52.6372107
    ]
   }
  },
  {
   "type": "Feature",
   "id": "way/484357150",
   "properties": {
    "addr:city": "Norwich",
    "addr:country": "GB",
    "addr:housename": "Unit 2",
    "addr:housenumber": "2",
    "addr:postcode": "NR4 7FF",
    "addr:street": "Dragonfly Lane",
    "alt_name": "EnjoyEat Pizza",
    "amenity": "fast_food",
    "building": "retail",
    "cuisine": "pizza;burger;kebab;doner",
    "delivery": "yes",
    "delivery:min_payment": "£10 GBP",
    "fhrs:id": "1110780",
    "name": "Enjoy Eat",
    "opening_hours": "Mo-Su 12:00-23:00",
    "payment:cash": "yes",
    "payment:maestro": "yes",
    "payment:mastercard": "yes",
    "payment:notes": "no",
    "payment:solo": "yes",
    "payment:visa": "yes",
    "payment:visa_debit": "yes",
    "payment:visa_electron": "yes",
    "phone": "+44 1603 503722",
    "takeaway": "yes",
    "website": "http://www.enjoyeatpizza.co.uk/",
    "id": "way/484357150"
   },
   "geometry": {
    "type": "Point",
    "coordinates": [
     1.2303532,
     52.6100437
    ]
   }
  },
  {
   "type": "Feature",
   "id": "way/484357157",
   "properties": {
    "addr:city": "Norwich",
    "addr:country": "GB",
    "addr:housename": "Unit 3",
    "addr:housenumber": "3",
    "addr:postcode": "NR4 7FF",
    "addr:street": "Dragonfly Lane",
    "amenity": "fast_food",
    "building": "retail",
    "cuisine": "fish_and_chips",
    "email": "eat@gofish.menu",
    "fhrs:id": "950043",
    "name": "Go Fish",
    "opening_hours": "Mo-Fr 11:45-14:30,16:30-20:45; Sa 11:45-20:45; Su off",
    "operator": "Jimmy Demetriou",
    "phone": "+44 1603 453858",
    "start_date": "2017-03-20",
    "takeaway": "only",
    "website": "http://gofish.menu/",
    "id": "way/484357157"
   },
   "geometry": {
    "type": "Point",
    "coordinates": [
     1.2304406,
     52.6099978
    ]
   }
  },
  {
   "type": "Feature",
   "id": "way/494282180",
   "properties": {
    "addr:city": "Norwich",
    "addr:housenumber": "47",
    "addr:postcode": "NR2 3JU",
    "addr:street": "Portersfield Road",
    "amenity": "fast_food",
    "building": "yes",
    "fhrs:id": "896814",
    "name": "Mr Pizza",
    "source:addr": "FHRS Open Data",
    "id": "way/494282180"
   },
   "geometry": {
    "type": "Point",
    "coordinates": [
     1.2753946,
     52.6251727
    ]
   }
  },
  {
   "type": "Feature",
   "id": "way/498396556",
   "properties": {
    "addr:city": "Norwich",
    "addr:housename": "Costa Coffee",
    "addr:housenumber": "5",
    "addr:postcode": "NR6 5DH",
    "addr:street": "Blackberry Court",
    "amenity": "fast_food",
    "building": "commercial",
    "building:levels": "0",
    "cuisine": "coffee_shop",
    "fhrs:id": "836846",
    "name": "Costa Coffee",
    "smoking": "outside",
    "start_date": "2017",
    "website": "https://www.costa.co.uk/",
    "id": "way/498396556"
   },
   "geometry": {
    "type": "Point",
    "coordinates": [
     1.2593202,
     52.650824
    ]
   }
  },
  {
   "type": "Feature",
   "id": "way/543475950",
   "properties": {
    "addr:city": "Norwich",
    "addr:country": "GB",
    "addr:postcode": "NR9 3AU",
    "addr:street": "Norwich Road",
    "amenity": "fast_food",
    "building": "yes",
    "cuisine": "burger",
    "email": "01518@uk.mcd.com",
    "internet_access": "wlan",
    "internet_access:fee": "no",
    "name": "McDonald's",
    "opening_hours": "24/7",
    "outdoor_seating": "yes",
    "phone": "+44 1603 503594",
    "ref": "SO140",
    "start_date": "2017-11-29 01:31",
    "website": "https://en-gb.facebook.com/pg/Thickthorn-McDonalds-118419662195679",
    "id": "way/543475950"
   },
   "geometry": {
    "type": "Point",
    "coordinates": [
     1.2225575,
     52.6036873
    ]
   }
  },
  {
   "type": "Feature",
   "id": "way/550087932",
   "properties": {
    "addr:city": "Norwich",
    "addr:country": "GB",
    "addr:housenumber": "4",
    "addr:postcode": "NR8 6PW",
    "addr:street": "Fakenham Road",
    "addr:village": "Drayton",
    "amenity": "fast_food",
    "building": "yes",
    "cuisine": "pizza",
    "fhrs:id": "1024033",
    "name": "Domino's Pizza",
    "opening_hours": "Mo-Su 11:00-23:00",
    "operator": "Domino's Pizza",
    "ref:pol_id": "931",
    "website": "https://www.dominos.co.uk/norwich-drayton",
    "id": "way/550087932"
   },
   "geometry": {
    "type": "Point",
    "coordinates": [
     1.2232275,
     52.6762889
    ]
   }
  },
  {
   "type": "Feature",
   "id": "way/569561408",
   "properties": {
    "addr:housenumber": "213",
    "addr:postcode": "NR1 3AE",
    "addr:street": "Queens Road",
    "amenity": "fast_food",
    "building": "yes",
    "cuisine": "caribbean",
    "fhrs:id": "1098602",
    "name": "Mystic River",
    "source": "Bing",
    "source:addr:postcode": "FSA Food Hygiene Ratings Database",
    "id": "way/569561408"
   },
   "geometry": {
    "type": "Point",
    "coordinates": [
     1.299892,
     52.6208057
    ]
   }
  },
  {
   "type": "Feature",
   "id": "way/661743307",
   "properties": {
    "addr:city": "Norwich",
    "addr:housenumber": "2",
    "addr:postcode": "NR2 1QP",
    "addr:street": "Rampant Horse Street",
    "amenity": "fast_food",
    "brand": "Subway",
    "brand:wikidata": "Q244457",
    "brand:wikipedia": "en:Subway (restaurant)",
    "building": "yes",
    "cuisine": "sandwich",
    "fhrs:id": "22345",
    "name": "Subway",
    "source:addr": "FHRS Open Data",
    "takeaway": "yes",
    "id": "way/661743307"
   },
   "geometry": {
    "type": "Point",
    "coordinates": [
     1.2925585,
     52.6268985
    ]
   }
  },
  {
   "type": "Feature",
   "id": "way/661752353",
   "properties": {
    "addr:city": "Norwich",
    "addr:housenumber": "78",
    "addr:postcode": "NR3 3AA",
    "addr:street": "Catton Grove Road",
    "amenity": "fast_food",
    "building": "yes",
    "fhrs:id": "1101980",
    "name": "Ali Andos Peri Peri Chicken",
    "id": "way/661752353"
   },
   "geometry": {
    "type": "Point",
    "coordinates": [
     1.2929857,
     52.6542561
    ]
   }
  },
  {
   "type": "Feature",
   "id": "way/689433091",
   "properties": {
    "addr:city": "Norwich",
    "addr:housename": "Norwich Railway Station",
    "addr:postcode": "NR1 1EF",
    "addr:street": "Station Approach",
    "amenity": "fast_food",
    "brand": "Subway",
    "brand:wikidata": "Q244457",
    "brand:wikipedia": "en:Subway (restaurant)",
    "building": "unit",
    "cuisine": "sandwich",
    "fhrs:id": "1070666",
    "name": "Subway",
    "source:addr": "FHRS Open Data",
    "id": "way/689433091"
   },
   "geometry": {
    "type": "Point",
    "coordinates": [
     1.3064068,
     52.6266279
    ]
   }
  },
  {
   "type": "Feature",
   "id": "way/693886521",
   "properties": {
    "addr:housenumber": "33",
    "addr:postcode": "NR1 3QA",
    "addr:street": "Orford Place",
    "amenity": "fast_food",
    "building": "yes",
    "fhrs:id": "878426",
    "name": "Chopstix",
    "source:addr": "FHRS Open Data",
    "id": "way/693886521"
   },
   "geometry": {
    "type": "Point",
    "coordinates": [
     1.2944265,
     52.6271828
    ]
   }
  },
  {
   "type": "Feature",
   "id": "way/700132762",
   "properties": {
    "addr:city": "Norwich",
    "addr:housenumber": "32",
    "addr:postcode": "NR5 8AD",
    "addr:street": "Earlham West Centre",
    "amenity": "fast_food",
    "building": "yes",
    "cuisine": "pizza",
    "fhrs:id": "1035003",
    "level": "0",
    "name": "Earlham Pizza",
    "source:addr": "FHRS Open Data",
    "id": "way/700132762"
   },
   "geometry": {
    "type": "Point",
    "coordinates": [
     1.2408265,
     52.6321961
    ]
   }
  },
  {
   "type": "Feature",
   "id": "way/700132767",
   "properties": {
    "addr:city": "Norwich",
    "addr:housenumber": "28",
    "addr:postcode": "NR5 8AD",
    "addr:street": "Earlham West Centre",
    "amenity": "fast_food",
    "building": "retail",
    "cuisine": "chinese",
    "fhrs:id": "937007",
    "level": "0",
    "name": "BBQ",
    "source:addr": "FHRS Open Data",
    "id": "way/700132767"
   },
   "geometry": {
    "type": "Point",
    "coordinates": [
     1.2408787,
     52.6320278
    ]
   }
  },
  {
   "type": "Feature",
   "id": "way/700938334",
   "properties": {
    "addr:city": "Norwich",
    "addr:housenumber": "17",
    "addr:postcode": "NR1 1BD",
    "addr:street": "Prince Of Wales Road",
    "amenity": "fast_food",
    "building": "yes",
    "fhrs:id": "998635",
    "name": "Krasadis Taverna",
    "source": "Bing",
    "source:addr": "FHRS Open Data",
    "id": "way/700938334"
   },
   "geometry": {
    "type": "Point",
    "coordinates": [
     1.3002137,
     52.629356
    ]
   }
  },
  {
   "type": "Feature",
   "id": "relation/2180494",
   "properties": {
    "addr:city": "Norwich",
    "addr:housenumber": "92-93",
    "addr:postcode": "NR2 1ND",
    "addr:street": "Market Place",
    "amenity": "fast_food",
    "cuisine": "chinese",
    "fhrs:id": "915749",
    "name": "The China Wok & Curry Stop",
    "source:name": "FSA Food Hygiene Ratings Database",
    "type": "multipolygon",
    "id": "relation/2180494"
   },
   "geometry": {
    "type": "Point",
    "coordinates": [
     1.2928677,
     52.6284804
    ]
   }
  },
  {
   "type": "Feature",
   "id": "relation/2180495",
   "properties": {
    "addr:city": "Norwich",
    "addr:housenumber": "Stalls 94-95",
    "addr:postcode": "NR2 1ND",
    "addr:street": "Market Place",
    "amenity": "fast_food",
    "cuisine": "fish_and_chips",
    "fhrs:id": "17813",
    "name": "Rons Fish & Chips",
    "source:addr": "FHRS Open Data",
    "type": "multipolygon",
    "id": "relation/2180495"
   },
   "geometry": {
    "type": "Point",
    "coordinates": [
     1.2927329,
     52.6284869
    ]
   }
  },
  {
   "type": "Feature",
   "id": "relation/3152343",
   "properties": {
    "addr:city": "Norwich",
    "addr:country": "GB",
    "addr:housenumber": "120",
    "addr:postcode": "NR2 1ND",
    "addr:street": "Market Place",
    "amenity": "fast_food",
    "building": "stall",
    "cuisine": "jacket_potato",
    "fhrs:id": "1063149",
    "name": "George's Jacket Spuds",
    "operator": "George's",
    "ref": "120",
    "strapline": "and Sandwiches",
    "type": "multipolygon",
    "id": "relation/3152343"
   },
   "geometry": {
    "type": "Point",
    "coordinates": [
     1.2927142,
     52.6285705
    ]
   }
  },
  {
   "type": "Feature",
   "id": "relation/3152344",
   "properties": {
    "addr:city": "Norwich",
    "addr:country": "GB",
    "addr:housenumber": "81",
    "addr:postcode": "NR2 1ND",
    "addr:street": "Market Place",
    "amenity": "fast_food",
    "building": "stall",
    "cuisine": "roast",
    "fhrs:id": "15646",
    "name": "Henry's Hog Roast",
    "operator": "Henry's",
    "type": "multipolygon",
    "id": "relation/3152344"
   },
   "geometry": {
    "type": "Point",
    "coordinates": [
     1.2927425,
     52.6284452
    ]
   }
  },
  {
   "type": "Feature",
   "id": "relation/3152352",
   "properties": {
    "addr:city": "Norwich",
    "addr:country": "GB",
    "addr:housenumber": "175",
    "addr:postcode": "NR2 1NE",
    "addr:street": "Market Place",
    "amenity": "fast_food",
    "building": "stall",
    "fhrs:id": "928650",
    "name": "Lasagneria",
    "ref": "175",
    "type": "multipolygon",
    "website": "https://www.facebook.com/lasagnerianorwich/",
    "id": "relation/3152352"
   },
   "geometry": {
    "type": "Point",
    "coordinates": [
     1.2927301,
     52.6287337
    ]
   }
  },
  {
   "type": "Feature",
   "id": "relation/3152354",
   "properties": {
    "addr:city": "Norwich",
    "addr:country": "GB",
    "addr:housenumber": "114",
    "addr:postcode": "NR2 1ND",
    "addr:street": "Market Place",
    "amenity": "fast_food",
    "building": "stall",
    "cuisine": "chips",
    "fhrs:id": "932631",
    "name": "Lucy's Chips",
    "operator": "Lucy's",
    "ref": "114",
    "type": "multipolygon",
    "id": "relation/3152354"
   },
   "geometry": {
    "type": "Point",
    "coordinates": [
     1.2927524,
     52.6285485
    ]
   }
  },
  {
   "type": "Feature",
   "id": "relation/3152360",
   "properties": {
    "addr:city": "Norwich",
    "addr:country": "GB",
    "addr:housenumber": "80",
    "addr:postcode": "NR2 1ND",
    "addr:street": "Market Place",
    "amenity": "fast_food",
    "building": "stall",
    "fhrs:id": "1080666",
    "name": "The All Electric Banger Stop",
    "operator": "Banger Stop",
    "start_date": "1979",
    "type": "multipolygon",
    "id": "relation/3152360"
   },
   "geometry": {
    "type": "Point",
    "coordinates": [
     1.2927025,
     52.6284464
    ]
   }
  },
  {
   "type": "Feature",
   "id": "relation/3152361",
   "properties": {
    "addr:city": "Norwich",
    "addr:country": "GB",
    "addr:housenumber": "61",
    "addr:postcode": "NR2 1ND",
    "addr:street": "Market Place",
    "amenity": "fast_food",
    "building": "stall",
    "cuisine": "chips",
    "fhrs:id": "932630",
    "name": "The Chip Stall",
    "operator": "North's",
    "ref": "61",
    "type": "multipolygon",
    "id": "relation/3152361"
   },
   "geometry": {
    "type": "Point",
    "coordinates": [
     1.2927391,
     52.6283861
    ]
   }
  },
  {
   "type": "Feature",
   "id": "relation/3152363",
   "properties": {
    "addr:city": "Norwich",
    "addr:country": "GB",
    "addr:housenumber": "180",
    "addr:postcode": "NR2 1NE",
    "addr:street": "Market Place",
    "amenity": "fast_food",
    "building": "stall",
    "cuisine": "ice_cream",
    "fhrs:id": "690201",
    "name": "The Ice Cream Parlour",
    "operator": "Ice Cream Parlour",
    "ref": "180",
    "strapline": "Whippy & Local Dairy Ice Cream",
    "type": "multipolygon",
    "id": "relation/3152363"
   },
   "geometry": {
    "type": "Point",
    "coordinates": [
     1.2927319,
     52.6287545
    ]
   }
  },
  {
   "type": "Feature",
   "id": "relation/3152364",
   "properties": {
    "addr:city": "Norwich",
    "addr:country": "GB",
    "addr:housenumber": "115",
    "addr:postcode": "NR2 1ND",
    "addr:street": "Market Place",
    "amenity": "fast_food",
    "building": "stall",
    "cuisine": "mushy_peas",
    "fhrs:id": "15634",
    "name": "The Mushy Pea Stall",
    "ref": "115",
    "type": "multipolygon",
    "id": "relation/3152364"
   },
   "geometry": {
    "type": "Point",
    "coordinates": [
     1.2927123,
     52.6285498
    ]
   }
  }
 ]
}