{
 "type": "FeatureCollection",
 "features": [
  {
   "type": "Feature",
   "id": "node/355536540",
   "properties": {
    "addr:city": "Norwich",
    "addr:country": "GB",
    "addr:housename": "Forum Building",
    "addr:postcode": "NR2 1TF",
    "addr:street": "Millennium Plain",
    "amenity": "cafe",
    "fhrs:id": "84112",
    "kitchen_hours": "Mo-Sa 08:30-23:00; Su 09:30-22:30",
    "name": "Café Bar Marzano",
    "not:addr:postcode": "NR2 1BH",
    "opening_hours": "Mo-Th 08:30-22:00; Fr-Sa 08:30-23:00; Su 09:30-22:00",
    "outdoor_seating": "yes",
    "phone": "+44 1603 665504",
    "real_ale": "yes",
    "toilets:wheelchair": "yes",
    "website": "https://www.facebook.com/cafebarmarzano",
    "wheelchair": "yes",
    "id": "node/355536540"
   },
   "geometry": {
    "type": "Point",
    "coordinates": [
     1.2914672,
     52.6278151
    ]
   }
  },
  {
   "type": "Feature",
   "id": "node/1188157138",
   "properties": {
    "addr:city": "Norwich",
    "addr:country": "GB",
    "addr:housename": "Unit 2c",
    "addr:housenumber": "2c",
    "addr:postcode": "NR1 1WR",
    "addr:street": "Albion Way",
    "amenity": "cafe",
    "cuisine": "coffee",
    "fhrs:id": "22923",
    "name": "Costa Coffee",
    "phone": "+44 1603 613441",
    "id": "node/1188157138"
   },
   "geometry": {
    "type": "Point",
    "coordinates": [
     1.3072015,
     52.6226441
    ]
   }
  },
  {
   "type": "Feature",
   "id": "node/1248122810",
   "properties": {
    "addr:city": "Norwich",
    "addr:country": "GB",
    "addr:housename": "c/o House of Fraser",
    "addr:postcode": "NR2 1SH",
    "addr:street": "Merchants' Hall",
    "amenity": "cafe",
    "brand": "Caffè Nero",
    "brand:wikidata": "Q675808",
    "brand:wikipedia": "en:Caffè Nero",
    "cuisine": "coffee_shop",
    "fhrs:id": "15505",
    "name": "Caffè Nero",
    "opening_hours": "Mo-We 09:00-18:00; Th 09:00-20:00; Fr-Sa 09:00-19:00; Su 11:00-17:00; PH 10:00-18:00",
    "phone": "+44 1603 764111",
    "takeaway": "yes",
    "website": "https://caffenero.com/",
    "id": "node/1248122810"
   },
   "geometry": {
    "type": "Point",
    "coordinates": [
     1.2884701,
     52.6263446
    ]
   }
  },
  {
   "type": "Feature",
   "id": "node/1295110758",
   "properties": {
    "addr:city": "Norwich",
    "addr:housenumber": "42-46",
    "addr:postcode": "NR2 1NR",
    "addr:street": "Bethel Street",
    "amenity": "cafe",
    "contact:website": "http://greenhousetrust.co.uk/",
    "cuisine": "coffee_shop",
    "diet:gluten_free": "yes",
    "diet:vegan": "yes",
    "diet:vegetarian": "only",
    "fhrs:id": "5045",
    "gay": "welcome",
    "name": "The Greenhouse Trust",
    "smoking": "no",
    "id": "node/1295110758"
   },
   "geometry": {
    "type": "Point",
    "coordinates": [
     1.289322,
     52.6283953
    ]
   }
  },
  {
   "type": "Feature",
   "id": "node/1365424876",
   "properties": {
    "addr:housename": "Tesco Supermarket",
    "addr:postcode": "NR4 6DZ",
    "addr:street": "Main Road",
    "addr:village": "Caistor St Edmund",
    "amenity": "cafe",
    "fhrs:id": "648697",
    "name": "Costa Coffee",
    "opening_hours": "Mo-We,Sa 08:00-18:00; Th-Fr 08:00-20:00; Su 10:00-16:00",
    "source:addr": "FHRS Open Data",
    "id": "node/1365424876"
   },
   "geometry": {
    "type": "Point",
    "coordinates": [
     1.2770326,
     52.5952878
    ]
   }
  },
  {
   "type": "Feature",
   "id": "node/1631947640",
   "properties": {
    "amenity": "cafe",
    "name": "Decafe",
    "id": "node/1631947640"
   },
   "geometry": {
    "type": "Point",
    "coordinates": [
     1.2655089,
     52.6629851
    ]
   }
  },
  {
   "type": "Feature",
   "id": "node/1709852312",
   "properties": {
    "amenity": "cafe",
    "name": "Inspirations Cafe",
    "id": "node/1709852312"
   },
   "geometry": {
    "type": "Point",
    "coordinates": [
     1.2850342,
     52.6172482
    ]
   }
  },
  {
   "type": "Feature",
   "id": "node/1819470087",
   "properties": {
    "amenity": "cafe",
    "name": "Café Oasis",
    "wheelchair": "yes",
    "id": "node/1819470087"
   },
   "geometry": {
    "type": "Point",
    "coordinates": [
     1.2771615,
     52.6699781
    ]
   }
  },
  {
   "type": "Feature",
   "id": "node/1819470088",
   "properties": {
    "amenity": "cafe",
    "name": "Costa Coffee",
    "wheelchair": "yes",
    "id": "node/1819470088"
   },
   "geometry": {
    "type": "Point",
    "coordinates": [
     1.277388,
     52.6697373
    ]
   }
  },
  {
   "type": "Feature",
   "id": "node/1898832591",
   "properties": {
    "amenity": "cafe",
    "name": "cafe 6",
    "id": "node/1898832591"
   },
   "geometry": {
    "type": "Point",
    "coordinates": [
     1.2910809,
     52.6124956
    ]
   }
  },
  {
   "type": "Feature",
   "id": "node/2328161598",
   "properties": {
    "addr:city": "Norwich",
    "addr:country": "GB",
    "addr:housename": "Sainsbury Centre For Visual Arts",
    "addr:place": "University Of East Anglia",
    "addr:postcode": "NR4 7TJ",
    "addr:street": "Norfolk Road",
    "amenity": "cafe",
    "fhrs:id": "847491",
    "kitchen_hours": "09:00-11:00,12:00-14:00",
    "name": "Modern Life Café",
    "opening_hours": "Mo-Fr 09:00-18:00; Sa-Su 10:00-17:00",
    "operator": "BaxterStorey",
    "phone": "+44 1603 593202",
    "id": "node/2328161598"
   },
   "geometry": {
    "type": "Point",
    "coordinates": [
     1.2340861,
     52.6206746
    ]
   }
  },
  {
   "type": "Feature",
   "id": "node/2381422615",
   "properties": {
    "addr:city": "Norwich",
    "addr:housename": "Bus Station",
    "addr:postcode": "NR1 3NX",
    "addr:street": "Surrey Street",
    "amenity": "cafe",
    "fhrs:id": "15599",
    "name": "Refresh Express",
    "source:addr": "FHRS Open Data",
    "id": "node/2381422615"
   },
   "geometry": {
    "type": "Point",
    "coordinates": [
     1.2930942,
     52.6244259
    ]
   }
  },
  {
   "type": "Feature",
   "id": "node/2744407130",
   "properties": {
    "addr:housename": "Julian Study Centre",
    "addr:place": "University Of East Anglia",
    "addr:postcode": "NR4 7TJ",
    "addr:street": "Chancellors Drive",
    "amenity": "cafe",
    "fhrs:id": "661391",
    "name": "Costa @ Cafe 57",
    "operator": "UEA",
    "website": "https://portal.uea.ac.uk/campus-kitchen/cafes-and-restaurants/cafe-57",
    "id": "node/2744407130"
   },
   "geometry": {
    "type": "Point",
    "coordinates": [
     1.2340437,
     52.6221728
    ]
   }
  },
  {
   "type": "Feature",
   "id": "node/3141765957",
   "properties": {
    "FIXME": "Survey to position",
    "amenity": "cafe",
    "name": "Morrisons café",
    "opening_hours": "Mo-Th,Sa 08:00-19:00; Fr 08:00-20:00; Su 09:30-15:00",
    "id": "node/3141765957"
   },
   "geometry": {
    "type": "Point",
    "coordinates": [
     1.3089266,
     52.6238151
    ]
   }
  },
  {
   "type": "Feature",
   "id": "node/3491809093",
   "properties": {
    "addr:city": "Norwich",
    "addr:housename": "Sainsbury Centre For Visual Arts",
    "addr:place": "University of East Anglia",
    "addr:postcode": "NR4 7TJ",
    "addr:street": "Norfolk Road",
    "amenity": "cafe",
    "fhrs:id": "816417",
    "name": "Kofra",
    "opening_hours": "Tu-Fr 09:00-17:30; Sa-Su 10:00-16:30",
    "website": "https://scva.ac.uk/visit/modern-life-cafe",
    "id": "node/3491809093"
   },
   "geometry": {
    "type": "Point",
    "coordinates": [
     1.235307,
     52.6199765
    ]
   }
  },
  {
   "type": "Feature",
   "id": "node/3577019001",
   "properties": {
    "addr:city": "Norwich",
    "addr:housename": "Central Catering Building",
    "addr:place": "University Of East Anglia",
    "addr:postcode": "NR4 7TJ",
    "addr:street": "The Square",
    "amenity": "cafe",
    "fhrs:id": "14621",
    "indoor": "yes",
    "level": "1",
    "name": "Blend",
    "opening_hours": "Sep 21-Jun 7: Mo-Fr 10:00-16:00; Jun 8-Sep 20: off",
    "source:addr": "FHRS Open Data",
    "website": "https://portal.uea.ac.uk/campus-kitchen/cafes-and-restaurants/blend",
    "id": "node/3577019001"
   },
   "geometry": {
    "type": "Point",
    "coordinates": [
     1.2404417,
     52.6216374
    ]
   }
  },
  {
   "type": "Feature",
   "id": "node/3577021480",
   "properties": {
    "addr:housename": "Biomedical Research Centre",
    "addr:place": "University Of East Anglia",
    "addr:postcode": "NR4 7TJ",
    "addr:street": "Norfolk Road",
    "amenity": "cafe",
    "fhrs:id": "212562",
    "indoor": "yes",
    "level": "0",
    "name": "Atrium Cafe",
    "old_name": "Bio Café",
    "opening_hours": "Apr 13-Sep 20: Mo-Fr 09:00-16:00",
    "source:addr": "FHRS Open Data",
    "id": "node/3577021480"
   },
   "geometry": {
    "type": "Point",
    "coordinates": [
     1.2363488,
     52.6208152
    ]
   }
  },
  {
   "type": "Feature",
   "id": "node/3577025505",
   "properties": {
    "addr:city": "Norwich",
    "addr:housename": "Sportspark",
    "addr:place": "University Of East Anglia",
    "addr:postcode": "NR4 7TJ",
    "addr:street": "University Drive",
    "amenity": "cafe",
    "fhrs:id": "724480",
    "kitchen_hours": "Mo-Th 08:00-21:30; Fr-Su 08:00-21:00",
    "name": "Sportscafe",
    "opening_hours": "Mo-Th 08:00-22:00; Fr-Su 08:00-21:30",
    "source:addr": "FHRS Open Data",
    "website": "https://portal.uea.ac.uk/campus-kitchen/cafes-and-restaurants/sports-park-cafe",
    "wheelchair": "yes",
    "id": "node/3577025505"
   },
   "geometry": {
    "type": "Point",
    "coordinates": [
     1.2409994,
     52.6242167
    ]
   }
  },
  {
   "type": "Feature",
   "id": "node/3709817672",
   "properties": {
    "addr:city": "Norwich",
    "addr:postcode": "NR4 7AU",
    "addr:site": "Eaton Park",
    "addr:street": "South Park Avenue",
    "amenity": "cafe",
    "fhrs:id": "878419",
    "name": "Eaton Park Café",
    "source:addr": "FHRS Open Data",
    "url": "http://friendsofeatonpark.co.uk/cafe/",
    "id": "node/3709817672"
   },
   "geometry": {
    "type": "Point",
    "coordinates": [
     1.2573178,
     52.6202795
    ]
   }
  },
  {
   "type": "Feature",
   "id": "node/3721471907",
   "properties": {
    "addr:city": "Norwich",
    "addr:housename": "Sainsbury's",
    "addr:housenumber": "1",
    "addr:postcode": "NR1 3RB",
    "addr:street": "Brazen Gate",
    "amenity": "cafe",
    "fhrs:id": "97277",
    "name": "Sainsbury's Cafe",
    "opening_hours": "Mo-Sa 08:00-19:00; Su 09:30-15:30",
    "source:addr": "FHRS Open Data",
    "id": "node/3721471907"
   },
   "geometry": {
    "type": "Point",
    "coordinates": [
     1.2932938,
     52.6216541
    ]
   }
  },
  {
   "type": "Feature",
   "id": "node/3782213550",
   "properties": {
    "addr:city": "Norwich",
    "addr:housename": "Centrum",
    "addr:parentstreet": "Colney Lane",
    "addr:place": "Norwich Research Park",
    "addr:postcode": "NR4 7UG",
    "addr:suburb": "Colney",
    "amenity": "cafe",
    "fhrs:id": "691751",
    "name": "The Cafe at Centrum",
    "operator": "Genuine Dining",
    "source:addr": "FHRS Open Data",
    "website": "https://www.norwichresearchpark.com/property-and-park/amenities/cafe",
    "id": "node/3782213550"
   },
   "geometry": {
    "type": "Point",
    "coordinates": [
     1.2199393,
     52.6227134
    ]
   }
  },
  {
   "type": "Feature",
   "id": "node/4207837430",
   "properties": {
    "addr:city": "Norwich",
    "addr:housename": "Abc Wharf",
    "addr:postcode": "NR1 1QH",
    "addr:street": "King Street",
    "addr:unit": "Unit 1",
    "amenity": "cafe",
    "cuisine": "coffee_shop",
    "fhrs:id": "638066",
    "name": "Smokey Barn",
    "source:addr": "FHRS Open Data",
    "id": "node/4207837430"
   },
   "geometry": {
    "type": "Point",
    "coordinates": [
     1.3023634,
     52.6242551
    ]
   }
  },
  {
   "type": "Feature",
   "id": "node/4853525623",
   "properties": {
    "addr:city": "Norwich",
    "addr:housenumber": "23",
    "addr:postcode": "NR2 1DN",
    "addr:street": "Saint John Maddermarket",
    "amenity": "cafe",
    "cuisine": "cake;coffee_shop",
    "fhrs:id": "905156",
    "name": "Figbar",
    "website": "http://www.figbarnorwich.com",
    "id": "node/4853525623"
   },
   "geometry": {
    "type": "Point",
    "coordinates": [
     1.2930456,
     52.6305655
    ]
   }
  },
  {
   "type": "Feature",
   "id": "node/5073370280",
   "properties": {
    "addr:city": "Norwich",
    "addr:housename": "St Michael At Plea Church",
    "addr:postcode": "NR2 4SN",
    "addr:street": "Redwell Street",
    "amenity": "cafe",
    "fhrs:id": "62360",
    "name": "Revelation Café",
    "opening_hours": "Mo-Sa 09:30-15:30; Su off",
    "source:addr": "FHRS Open Data",
    "id": "node/5073370280"
   },
   "geometry": {
    "type": "Point",
    "coordinates": [
     1.2971216,
     52.6304932
    ]
   }
  },
  {
   "type": "Feature",
   "id": "node/5167531554",
   "properties": {
    "addr:city": "Norwich",
    "addr:housenumber": "41",
    "addr:postcode": "NR1 1PH",
    "addr:street": "King Street",
    "amenity": "cafe",
    "fhrs:id": "915711",
    "name": "The cafe club",
    "source:addr": "FHRS Open Data",
    "id": "node/5167531554"
   },
   "geometry": {
    "type": "Point",
    "coordinates": [
     1.2995929,
     52.6279832
    ]
   }
  },
  {
   "type": "Feature",
   "id": "node/5223683340",
   "properties": {
    "addr:city": "Norwich",
    "addr:housenumber": "27-29",
    "addr:postcode": "NR1 3LA",
    "addr:street": "Timberhill",
    "amenity": "cafe",
    "fhrs:id": "878411",
    "name": "Timberhill Bakery",
    "opening_hours": "Tu-Fr 08:00-15:00; Sa 08:00-16:00; Su-Mo off",
    "phone": "+44 1603 613 172",
    "shop": "bakery",
    "source:addr": "FHRS Open Data",
    "website": "https://timberhillbakery.com/",
    "id": "node/5223683340"
   },
   "geometry": {
    "type": "Point",
    "coordinates": [
     1.2954472,
     52.6262387
    ]
   }
  },
  {
   "type": "Feature",
   "id": "node/5308591324",
   "properties": {
    "addr:city": "Norwich",
    "addr:housenumber": "33",
    "addr:postcode": "NR2 1DP",
    "addr:street": "Exchange Street",
    "amenity": "cafe",
    "fhrs:id": "18083",
    "name": "No 33 Cafe Bar",
    "source:addr": "FHRS Open Data",
    "id": "node/5308591324"
   },
   "geometry": {
    "type": "Point",
    "coordinates": [
     1.2938036,
     52.6300789
    ]
   }
  },
  {
   "type": "Feature",
   "id": "node/5308705221",
   "properties": {
    "amenity": "cafe",
    "name": "Cafe 67",
    "id": "node/5308705221"
   },
   "geometry": {
    "type": "Point",
    "coordinates": [
     1.2922896,
     52.6340175
    ]
   }
  },
  {
   "type": "Feature",
   "id": "node/5456045474",
   "properties": {
    "addr:housenumber": "6",
    "addr:postcode": "NR8 6AF",
    "addr:street": "Drayton High Road",
    "addr:village": "Drayton",
    "amenity": "cafe",
    "cuisine": "regional",
    "fhrs:id": "124819",
    "name": "The Willows",
    "source:addr": "FHRS Open Data",
    "id": "node/5456045474"
   },
   "geometry": {
    "type": "Point",
    "coordinates": [
     1.2252865,
     52.6754167
    ]
   }
  },
  {
   "type": "Feature",
   "id": "node/5828954533",
   "properties": {
    "addr:housenumber": "27",
    "addr:postcode": "NR3 1LE",
    "addr:street": "Magdalene Street",
    "amenity": "cafe",
    "cuisine": "coffee_shop",
    "diet:vegan": "only",
    "facebook": "https://www.facebook.com/Ancestorscoffee/",
    "fhrs:id": "991861",
    "instagram": "https://www.instagram.com/ancestorscoffee/",
    "name": "Ancestors Coffee",
    "opening_hours": "Mo 09:30-15:00; Tu-Fr 08:00-17:00; Sa 09:00-18:00; Su 10:00-16:00",
    "source:addr:postcode": "FHRS Open Data",
    "id": "node/5828954533"
   },
   "geometry": {
    "type": "Point",
    "coordinates": [
     1.2967796,
     52.6343261
    ]
   }
  },
  {
   "type": "Feature",
   "id": "node/5829166586",
   "properties": {
    "addr:city": "Norwich",
    "addr:housename": "39",
    "addr:postcode": "NR3 1LQ",
    "addr:street": "Magdalen Street",
    "amenity": "cafe",
    "cuisine": "moroccan;coffee_shop;deli",
    "fhrs:id": "720256",
    "internet_access": "wlan",
    "name": "Ruth’s Kitchen",
    "source:addr": "FHRS Open Data",
    "id": "node/5829166586"
   },
   "geometry": {
    "type": "Point",
    "coordinates": [
     1.2966624,
     52.6346604
    ]
   }
  },
  {
   "type": "Feature",
   "id": "node/5835963849",
   "properties": {
    "addr:city": "Norwich",
    "addr:housename": "Guildhall",
    "addr:postcode": "NR2 1JP",
    "addr:street": "Gaol Hill",
    "amenity": "cafe",
    "email": "hello@cafebritannia.co.uk",
    "fhrs:id": "855618",
    "indoor": "yes",
    "name": "Guildhall Britannica",
    "opening_hours": "Mo-Su 08:00-16:00",
    "phone": "+44 1603 629364",
    "source:addr": "FHRS Open Data",
    "id": "node/5835963849"
   },
   "geometry": {
    "type": "Point",
    "coordinates": [
     1.2925215,
     52.6289884
    ]
   }
  },
  {
   "type": "Feature",
   "id": "node/5926595685",
   "properties": {
    "addr:city": "Norwich",
    "addr:housename": "The Enterprise Centre",
    "addr:place": "University of East Anglia",
    "addr:postcode": "NR4 7TJ",
    "alt_name": "Mustard Cafe",
    "alt_url": "https://www.uea.ac.uk/adapt/the-enterprise-centre/namaste-hut-cafe",
    "amenity": "cafe",
    "cuisine": "coffee_shop",
    "diet:vegan": "yes",
    "diet:vegetarian": "only",
    "fhrs:id": "840060;1149938",
    "name": "Namaste Hut",
    "opening_hours": "Mo-Fr 08:30-15:30",
    "url": "http://www.namastehutcafe.com/",
    "id": "node/5926595685"
   },
   "geometry": {
    "type": "Point",
    "coordinates": [
     1.2395215,
     52.6255858
    ]
   }
  },
  {
   "type": "Feature",
   "id": "node/6313256185",
   "properties": {
    "addr:city": "Norwich",
    "addr:housenumber": "117",
    "addr:postcode": "NR2 2PE",
    "addr:street": "Unthank Road",
    "amenity": "cafe",
    "fhrs:id": "15164",
    "name": "Unthank Kitchen",
    "source:addr": "FHRS Open Data",
    "id": "node/6313256185"
   },
   "geometry": {
    "type": "Point",
    "coordinates": [
     1.2772047,
     52.6242138
    ]
   }
  },
  {
   "type": "Feature",
   "id": "node/6327334540",
   "properties": {
    "addr:city": "Norwich",
    "addr:postcode": "NR13 4AZ",
    "addr:street": "Station Road",
    "addr:village": "Lingwood",
    "amenity": "cafe",
    "fhrs:id": "844345",
    "name": "Hug a Mug Cafe",
    "opening_hours": "Mo-Th 08:45-15:00; Fr 07:00-12:00; Sa 08:30-12:00",
    "source:addr": "FHRS Open Data",
    "url": "http://www.lingwoodvh.co.uk/hug-a-mug-cafe",
    "id": "node/6327334540"
   },
   "geometry": {
    "type": "Point",
    "coordinates": [
     1.4907909,
     52.6189301
    ]
   }
  },
  {
   "type": "Feature",
   "id": "node/6458472085",
   "properties": {
    "addr:city": "Norwich",
    "addr:housename": "Union House",
    "addr:place": "University of East Anglia",
    "addr:postcode": "NR4 7TJ",
    "addr:street": "The Street",
    "amenity": "cafe",
    "fhrs:id": "861575",
    "level": "1",
    "name": "Unio",
    "source:addr": "FSA Food Hygiene Ratings Database",
    "id": "node/6458472085"
   },
   "geometry": {
    "type": "Point",
    "coordinates": [
     1.241243,
     52.6214779
    ]
   }
  },
  {
   "type": "Feature",
   "id": "node/6466626786",
   "properties": {
    "addr:city": "Norwich",
    "addr:housenumber": "2",
    "addr:postcode": "NR2 1JH",
    "addr:street": "Guildhall Hill",
    "amenity": "cafe",
    "fhrs:id": "48621",
    "name": "Ground",
    "source:addr": "FHRS Open Data",
    "id": "node/6466626786"
   },
   "geometry": {
    "type": "Point",
    "coordinates": [
     1.2922112,
     52.629175
    ]
   }
  },
  {
   "type": "Feature",
   "id": "node/6469370766",
   "properties": {
    "addr:city": "Norwich",
    "addr:housename": "Waterstones",
    "addr:housenumber": "11-17",
    "addr:postcode": "NR2 1PB",
    "addr:street": "Castle Street",
    "amenity": "cafe",
    "fhrs:id": "457277",
    "name": "Cafe W",
    "source:addr": "FSA Food Hygiene Ratings Database",
    "id": "node/6469370766"
   },
   "geometry": {
    "type": "Point",
    "coordinates": [
     1.2950402,
     52.6286459
    ]
   }
  },
  {
   "type": "Feature",
   "id": "node/6545308134",
   "properties": {
    "addr:city": "Norwich",
    "addr:housename": "Union House",
    "addr:locality": "University Of East Anglia",
    "addr:postcode": "NR4 7TJ",
    "addr:street": "The Street",
    "amenity": "cafe",
    "fhrs:id": "915692",
    "level": "2",
    "name": "Scholars",
    "source:addr": "FSA Food Hygiene Ratings Database",
    "id": "node/6545308134"
   },
   "geometry": {
    "type": "Point",
    "coordinates": [
     1.241506,
     52.6213256
    ]
   }
  },
  {
   "type": "Feature",
   "id": "node/6565981555",
   "properties": {
    "addr:city": "Norwich",
    "addr:housename": "John Lewis",
    "addr:postcode": "NR1 3LX",
    "addr:street": "All Saints Green",
    "amenity": "cafe",
    "fhrs:id": "958567",
    "level": "1",
    "name": "Benugo",
    "operator": "John Lewis & Partners",
    "source:addr": "FHRS Open Data",
    "id": "node/6565981555"
   },
   "geometry": {
    "type": "Point",
    "coordinates": [
     1.29629,
     52.6253993
    ]
   }
  },
  {
   "type": "Feature",
   "id": "node/6567754517",
   "properties": {
    "addr:city": "Norwich",
    "addr:housenumber": "18-19",
    "addr:postcode": "NR2 1NQ",
    "addr:street": "Royal Arcade",
    "amenity": "cafe",
    "fhrs:id": "4910",
    "name": "Marmalades",
    "source:addr:postcode": "FSA Food Hygiene Ratings Database",
    "website": "https://www.facebook.com/marmaladescafe/",
    "id": "node/6567754517"
   },
   "geometry": {
    "type": "Point",
    "coordinates": [
     1.2940534,
     52.6280787
    ]
   }
  },
  {
   "type": "Feature",
   "id": "node/6568273969",
   "properties": {
    "addr:city": "Norwich",
    "addr:housenumber": "48",
    "addr:postcode": "NR2 1LA",
    "addr:street": "London Street",
    "amenity": "cafe",
    "cuisine": "coffee_shop",
    "fhrs:id": "632122",
    "name": "Costa",
    "source:addr": "FHRS Open Data",
    "id": "node/6568273969"
   },
   "geometry": {
    "type": "Point",
    "coordinates": [
     1.2958599,
     52.6295193
    ]
   }
  },
  {
   "type": "Feature",
   "id": "node/6568273972",
   "properties": {
    "addr:city": "Norwich",
    "addr:housenumber": "50",
    "addr:postcode": "NR2 1LA",
    "addr:street": "London Street",
    "amenity": "cafe",
    "fhrs:id": "41579",
    "name": "Greggs",
    "shop": "bakery",
    "source:addr": "FHRS Open Data",
    "id": "node/6568273972"
   },
   "geometry": {
    "type": "Point",
    "coordinates": [
     1.295935,
     52.6295664
    ]
   }
  },
  {
   "type": "Feature",
   "id": "node/6568299050",
   "properties": {
    "addr:city": "Norwich",
    "addr:housenumber": "21-23",
    "addr:postcode": "NR1 3DH",
    "addr:street": "Castle Meadow",
    "amenity": "cafe",
    "fhrs:id": "1038203",
    "name": "Kinda Kafe",
    "website": "https://www.missingkind.org/kindakafe-norwich",
    "id": "node/6568299050"
   },
   "geometry": {
    "type": "Point",
    "coordinates": [
     1.2961925,
     52.6294037
    ]
   }
  },
  {
   "type": "Feature",
   "id": "node/6570241119",
   "properties": {
    "addr:city": "Norwich",
    "addr:housename": "Norwich Cathedral",
    "addr:postcode": "NR1 4DH",
    "addr:street": "The Close",
    "amenity": "cafe",
    "fhrs:id": "10454",
    "name": "The Refectory",
    "opening_hours": "Mo-Sa 10:00-17:00; Su 11:00-17:00",
    "operator": "Norwich Cathedral",
    "source:addr": "FSA Food Hygiene Ratings Database",
    "website": "https://www.cathedral.org.uk/visit/food-drink",
    "id": "node/6570241119"
   },
   "geometry": {
    "type": "Point",
    "coordinates": [
     1.3010267,
     52.6312333
    ]
   }
  },
  {
   "type": "Feature",
   "id": "node/6573544539",
   "properties": {
    "addr:city": "Norwich",
    "addr:housename": "St Elizabeth Church",
    "addr:postcode": "NR5 8DG",
    "addr:street": "Cadge Road",
    "amenity": "cafe",
    "fhrs:id": "740994",
    "name": "The Beacon Cafe",
    "source:addr": "FHRS Open Data",
    "website": "https://www.facebook.com/The-Beacon-Cafe-360026354201734/",
    "id": "node/6573544539"
   },
   "geometry": {
    "type": "Point",
    "coordinates": [
     1.2475619,
     52.6337734
    ]
   }
  },
  {
   "type": "Feature",
   "id": "node/6573547229",
   "properties": {
    "addr:city": "Norwich",
    "addr:housename": "INTO",
    "addr:place": "University of East Anglia",
    "addr:postcode": "NR4 7TJ",
    "addr:street": "University Drive",
    "amenity": "cafe",
    "cuisine": "coffee_shop",
    "fhrs:id": "26530",
    "level": "0",
    "id": "node/6573547229"
   },
   "geometry": {
    "type": "Point",
    "coordinates": [
     1.2453732,
     52.6233035
    ]
   }
  },
  {
   "type": "Feature",
   "id": "node/6574767225",
   "properties": {
    "addr:city": "Norwich",
    "addr:housename": "Cadge Road Community Centre",
    "addr:postcode": "NR5 8DG",
    "addr:street": "Cadge Road",
    "amenity": "cafe",
    "fhrs:id": "1027453",
    "name": "Silver Diners Lunch Club",
    "opening_hours": "Tu 12:00-14:00",
    "source:addr": "FHRS Open Data",
    "id": "node/6574767225"
   },
   "geometry": {
    "type": "Point",
    "coordinates": [
     1.2465463,
     52.6346144
    ]
   }
  },
  {
   "type": "Feature",
   "id": "node/6582537700",
   "properties": {
    "addr:city": "Norwich",
    "addr:housename": "Premier Inn",
    "addr:postcode": "NR1 1DX",
    "addr:street": "Prince Of Wales Road",
    "amenity": "cafe",
    "cuisine": "coffee_shop",
    "fhrs:id": "924810",
    "name": "Costa",
    "source:addr": "FHRS Open Data",
    "id": "node/6582537700"
   },
   "geometry": {
    "type": "Point",
    "coordinates": [
     1.3053333,
     52.6278686
    ]
   }
  },
  {
   "type": "Feature",
   "id": "node/6585366688",
   "properties": {
    "addr:city": "Norwich",
    "addr:housename": "St Stephen's",
    "addr:postcode": "NR2 1QP",
    "addr:street": "Rampant Horse Street",
    "amenity": "cafe",
    "fhrs:id": "764776",
    "name": "St Stephen's Café",
    "opening_hours": "Mo-Sa 10:00-15:30",
    "website": "http://www.ststephensnorwich.org/cafe/",
    "id": "node/6585366688"
   },
   "geometry": {
    "type": "Point",
    "coordinates": [
     1.2921435,
     52.6265987
    ]
   }
  },
  {
   "type": "Feature",
   "id": "way/40507574",
   "properties": {
    "addr:city": "Norwich",
    "addr:housename": "The Pavillion",
    "addr:postcode": "NR3 3HX",
    "addr:site": "Waterloo Park",
    "addr:street": "Angel Road",
    "amenity": "cafe",
    "building": "yes",
    "fhrs:id": "991860",
    "listed_status": "Grade II",
    "name": "Café Britannia",
    "source:addr": "FHRS Open Data",
    "website": "https://www.cafebritannia.co.uk/waterloo-park",
    "id": "way/40507574"
   },
   "geometry": {
    "type": "Point",
    "coordinates": [
     1.288344,
     52.6448424
    ]
   }
  },
  {
   "type": "Feature",
   "id": "way/60439094",
   "properties": {
    "addr:city": "Norwich",
    "addr:place": "The Gardens",
    "addr:postcode": "NR4 7TQ",
    "addr:street": "Earlham Road",
    "amenity": "cafe",
    "building": "cafe",
    "fhrs:id": "16969",
    "name": "Earlham Park Café",
    "opening_hours": "Tu-We,Fr-Su 09:30-16:30; Mo off",
    "source:addr": "FHRS Open Data",
    "id": "way/60439094"
   },
   "geometry": {
    "type": "Point",
    "coordinates": [
     1.2353275,
     52.6260738
    ]
   }
  },
  {
   "type": "Feature",
   "id": "way/104310135",
   "properties": {
    "addr:city": "Norwich",
    "addr:housenumber": "118",
    "addr:postcode": "NR1 3HP",
    "addr:street": "Hall Road",
    "amenity": "cafe",
    "building": "yes",
    "fhrs:id": "719145",
    "name": "Sunny Side Up",
    "url": "http://www.sunnysideupnorwich.co.uk/",
    "id": "way/104310135"
   },
   "geometry": {
    "type": "Point",
    "coordinates": [
     1.2970882,
     52.6178503
    ]
   }
  },
  {
   "type": "Feature",
   "id": "way/107045733",
   "properties": {
    "addr:city": "Norwich",
    "addr:country": "GB",
    "addr:housename": "LU06",
    "addr:housenumber": "48",
    "addr:place": "Castle Mall",
    "addr:postcode": "NR1 3DD",
    "amenity": "cafe",
    "building": "unit",
    "covered": "yes",
    "fhrs:id": "816426",
    "layer": "-4",
    "level": "1",
    "name": "Muffin Break",
    "id": "way/107045733"
   },
   "geometry": {
    "type": "Point",
    "coordinates": [
     1.2953215,
     52.6276508
    ]
   }
  },
  {
   "type": "Feature",
   "id": "way/107045745",
   "properties": {
    "addr:city": "Norwich",
    "addr:country": "GB",
    "addr:housename": "LU36",
    "addr:housenumber": "10-11",
    "addr:place": "Castle Mall",
    "addr:postcode": "NR1 3DD",
    "amenity": "cafe",
    "brand": "Starbucks",
    "brand:wikidata": "Q37158",
    "brand:wikipedia": "en:Starbucks",
    "building": "unit",
    "covered": "yes",
    "cuisine": "coffee_shop",
    "fhrs:id": "924812",
    "layer": "-4",
    "level": "1",
    "name": "Starbucks",
    "opening_hours": "Mo-We,Fr 08:30-17:30; Th 08:30-19:00; Sa 08:30-18:00; Su 10:00-16:30",
    "phone": "+44 1603 617256",
    "ref": "2974",
    "takeaway": "yes",
    "website": "https://starbucks.co.uk/",
    "id": "way/107045745"
   },
   "geometry": {
    "type": "Point",
    "coordinates": [
     1.2958558,
     52.6277015
    ]
   }
  },
  {
   "type": "Feature",
   "id": "way/107046090",
   "properties": {
    "addr:city": "Norwich",
    "addr:country": "GB",
    "addr:housenumber": "76",
    "addr:postcode": "NR1 3DD",
    "amenity": "cafe",
    "building": "unit",
    "covered": "yes",
    "fhrs:id": "1125681",
    "layer": "-3",
    "level": "2",
    "name": "Delightful Desserts",
    "website": "https://www.delightfuldesserts.co.uk/locations/norwich/",
    "id": "way/107046090"
   },
   "geometry": {
    "type": "Point",
    "coordinates": [
     1.2964385,
     52.6269483
    ]
   }
  },
  {
   "type": "Feature",
   "id": "way/108609308",
   "properties": {
    "addr:city": "Norwich",
    "addr:country": "GB",
    "addr:housenumber": "21-23",
    "addr:interpolation": "odd",
    "addr:postcode": "NR2 4DS",
    "addr:street": "Nelson Street",
    "amenity": "cafe",
    "building": "yes",
    "cuisine": "international",
    "fhrs:id": "889697",
    "internet_access": "wlan",
    "name": "Woolf & Social",
    "opening_hours": "Tu-Th 18:00-23:00; Fr,Sa 10:00-24:00; Su 10:00-16:00",
    "source": "Bing",
    "wheelchair": "yes",
    "id": "way/108609308"
   },
   "geometry": {
    "type": "Point",
    "coordinates": [
     1.2752682,
     52.6353801
    ]
   }
  },
  {
   "type": "Feature",
   "id": "way/108865901",
   "properties": {
    "addr:city": "Norwich",
    "addr:country": "GB",
    "addr:housename": "LG 01",
    "addr:housenumber": "101-104",
    "addr:postcode": "NR2 1SB",
    "addr:street": "Saint Stephen's Arcade",
    "amenity": "cafe",
    "brand": "Caffè Nero",
    "brand:wikidata": "Q675808",
    "brand:wikipedia": "en:Caffè Nero",
    "building": "unit",
    "cuisine": "coffee_shop",
    "fhrs:id": "915737",
    "leasing_number": "1",
    "level": "0",
    "name": "Caffè Nero",
    "not:addr:postcode": "NR1 3SH",
    "opening_hours": "Tu-We 09:00-18:00; Th 09:00-20:00; Fr-Sa 09:00-19:00; Su 11:00-17:00; PH 10:00-18:00",
    "phone": "+44 1603 753344",
    "takeaway": "yes",
    "website": "http://www.caffenero.co.uk/",
    "id": "way/108865901"
   },
   "geometry": {
    "type": "Point",
    "coordinates": [
     1.2914093,
     52.625118
    ]
   }
  },
  {
   "type": "Feature",
   "id": "way/108865994",
   "properties": {
    "addr:city": "Norwich",
    "addr:country": "GB",
    "addr:housename": "FF C8",
    "addr:housenumber": "306",
    "addr:postcode": "NR2 1SY",
    "addr:street": "The Dining Terrace",
    "amenity": "cafe",
    "brand": "Costa",
    "brand:wikidata": "Q608845",
    "brand:wikipedia": "en:Costa Coffee",
    "building": "unit",
    "cuisine": "coffee_shop",
    "fhrs:id": "15528",
    "layer": "2",
    "leasing_number": "103",
    "level": "2",
    "name": "Costa",
    "opening_hours": "Mo-We 09:00-18:00; Th 09:00-20:00; Fr-Sa 09:00-19:00; Su 11:00-17:00; PH 10:00-18:00",
    "phone": "+44 1603 766326",
    "takeaway": "yes",
    "website": "https://www.costa.co.uk/",
    "id": "way/108865994"
   },
   "geometry": {
    "type": "Point",
    "coordinates": [
     1.2897651,
     52.6261016
    ]
   }
  },
  {
   "type": "Feature",
   "id": "way/117007233",
   "properties": {
    "addr:city": "Norwich",
    "addr:housenumber": "61-63",
    "addr:postcode": "NR2 4TG",
    "addr:street": "Heigham Street",
    "amenity": "cafe",
    "building": "yes",
    "fhrs:id": "27755",
    "name": "Harty's Diner",
    "source": "Bing",
    "source:addr": "FHRS Open Data",
    "id": "way/117007233"
   },
   "geometry": {
    "type": "Point",
    "coordinates": [
     1.2845576,
     52.635329
    ]
   }
  },
  {
   "type": "Feature",
   "id": "way/118848697",
   "properties": {
    "amenity": "cafe",
    "building": "yes",
    "name": "Kingfisher Tearoom",
    "id": "way/118848697"
   },
   "geometry": {
    "type": "Point",
    "coordinates": [
     1.501524,
     52.6658357
    ]
   }
  },
  {
   "type": "Feature",
   "id": "way/118872859",
   "properties": {
    "addr:city": "Norwich",
    "addr:country": "GB",
    "addr:housenumber": "47",
    "addr:postcode": "NR2 3TS",
    "addr:street": "Bond Street",
    "amenity": "cafe",
    "building": "house",
    "fhrs:id": "5499",
    "name": "Bond Street Cafe",
    "source:addr": "FHRS Open Data",
    "source:postcode": "Codepoint",
    "id": "way/118872859"
   },
   "geometry": {
    "type": "Point",
    "coordinates": [
     1.2666168,
     52.6342394
    ]
   }
  },
  {
   "type": "Feature",
   "id": "way/119331017",
   "properties": {
    "addr:city": "Norwich",
    "addr:country": "GB",
    "addr:housenumber": "13",
    "addr:postcode": "NR1 3SP",
    "addr:street": "Saint Stephens Road",
    "amenity": "cafe",
    "building": "yes",
    "cuisine": "coffee_shop",
    "fhrs:id": "1070664",
    "name": "Juniper",
    "phone": "+44 1603 629560",
    "website": "https://www.facebook.com/JuniperCoffeeShop/",
    "id": "way/119331017"
   },
   "geometry": {
    "type": "Point",
    "coordinates": [
     1.2897652,
     52.6237094
    ]
   }
  },
  {
   "type": "Feature",
   "id": "way/119596353",
   "properties": {
    "addr:city": "Norwich",
    "addr:country": "GB",
    "addr:postcode": "NR1 1EE",
    "addr:street": "Riverside",
    "amenity": "cafe",
    "building": "boat",
    "cuisine": "italian",
    "description": "Coffee and pasta house",
    "name": "The Vagabond",
    "id": "way/119596353"
   },
   "geometry": {
    "type": "Point",
    "coordinates": [
     1.3051252,
     52.6270036
    ]
   }
  },
  {
   "type": "Feature",
   "id": "way/119607348",
   "properties": {
    "addr:city": "Norwich",
    "addr:country": "GB",
    "addr:housenumber": "6",
    "addr:postcode": "NR1 3DN",
    "addr:street": "Opie Street",
    "amenity": "cafe",
    "building": "yes",
    "cuisine": "italian",
    "fhrs:id": "915756",
    "name": "Café Gelato",
    "shop": "confectionery",
    "start_date": "2016-10-08",
    "id": "way/119607348"
   },
   "geometry": {
    "type": "Point",
    "coordinates": [
     1.2961255,
     52.6295494
    ]
   }
  },
  {
   "type": "Feature",
   "id": "way/120820126",
   "properties": {
    "addr:city": "Norwich",
    "addr:postcode": "NR7 0HS",
    "addr:street": "Central Avenue",
    "addr:suburb": "Thorpe St Andrew",
    "amenity": "cafe",
    "building": "yes",
    "fhrs:id": "64752",
    "internet_access": "wlan",
    "internet_access:fee": "no",
    "name": "The Terrace",
    "outdoor_seating": "yes",
    "source:addr": "FHRS Open Data",
    "id": "way/120820126"
   },
   "geometry": {
    "type": "Point",
    "coordinates": [
     1.3659152,
     52.6296787
    ]
   }
  },
  {
   "type": "Feature",
   "id": "way/121499370",
   "properties": {
    "addr:city": "Norwich",
    "addr:country": "GB",
    "addr:housenumber": "75",
    "addr:postcode": "NR2 4HT",
    "addr:street": "Dereham Road",
    "amenity": "cafe",
    "building": "yes",
    "fhrs:id": "451315",
    "name": "Bakalya",
    "id": "way/121499370"
   },
   "geometry": {
    "type": "Point",
    "coordinates": [
     1.2810833,
     52.6333163
    ]
   }
  },
  {
   "type": "Feature",
   "id": "way/121499386",
   "properties": {
    "addr:city": "Norwich",
    "addr:country": "GB",
    "addr:housenumber": "12",
    "addr:postcode": "NR2 4BH",
    "addr:street": "Distillery Square",
    "amenity": "cafe",
    "building": "shop",
    "fhrs:id": "816430",
    "name": "The Muddy Cup",
    "source:name": "FSA Food Hygiene Ratings Database",
    "twitter": "@themuddycup",
    "id": "way/121499386"
   },
   "geometry": {
    "type": "Point",
    "coordinates": [
     1.2814143,
     52.6324969
    ]
   }
  },
  {
   "type": "Feature",
   "id": "way/121499489",
   "properties": {
    "addr:city": "Norwich",
    "addr:country": "GB",
    "addr:housenumber": "128",
    "addr:postcode": "NR2 3AF",
    "addr:street": "Dereham Road",
    "amenity": "cafe",
    "building": "house",
    "cuisine": "mediterranean",
    "fhrs:id": "1046365",
    "name": "Aroma Lounge",
    "opening_hours": "Mo-Fr 09:00-23:00; Sa-Su off",
    "outdoor_seating": "yes",
    "phone": "+44 1603 305143",
    "source": "Bing",
    "start_date": "2018-05-04",
    "strapline": "Dine · Drink · Shisha",
    "website": "https://www.instagram.com/aromaloungenorwich/",
    "id": "way/121499489"
   },
   "geometry": {
    "type": "Point",
    "coordinates": [
     1.2775559,
     52.6336101
    ]
   }
  },
  {
   "type": "Feature",
   "id": "way/122819588",
   "properties": {
    "addr:city": "Norwich",
    "addr:country": "GB",
    "addr:housenumber": "6",
    "addr:parentstreet": "Earlham Road",
    "addr:street": "Earlham House Shops",
    "amenity": "cafe",
    "building": "yes",
    "name": "Mundy's Beds & Furnishings",
    "shop": "furniture",
    "source": "survey",
    "website": "http://mundysbeds.co.uk/",
    "id": "way/122819588"
   },
   "geometry": {
    "type": "Point",
    "coordinates": [
     1.2689797,
     52.6287223
    ]
   }
  },
  {
   "type": "Feature",
   "id": "way/122819605",
   "properties": {
    "addr:city": "Norwich",
    "addr:country": "GB",
    "addr:housenumber": "16a",
    "addr:parentstreet": "Earlham Road",
    "addr:postcode": "NR2 3PD",
    "addr:street": "Earlham House Shops",
    "amenity": "cafe",
    "building": "yes",
    "fhrs:id": "1108810",
    "name": "Dyrrah Coffee",
    "source": "survey",
    "website": "https://www.facebook.com/dyrrahcoffee/",
    "id": "way/122819605"
   },
   "geometry": {
    "type": "Point",
    "coordinates": [
     1.2687146,
     52.6291905
    ]
   }
  },
  {
   "type": "Feature",
   "id": "way/122819611",
   "properties": {
    "addr:city": "Norwich",
    "addr:country": "GB",
    "addr:housenumber": "2",
    "addr:parentstreet": "Earlham Road",
    "addr:postcode": "NR2 3PD",
    "addr:street": "Earlham House Shops",
    "amenity": "cafe",
    "building": "yes",
    "fhrs:id": "29646",
    "name": "The Green Grocers",
    "source": "survey",
    "source:addr": "FHRS Open Data",
    "website": "http://www.thegreengrocers.co.uk/cafe.html",
    "id": "way/122819611"
   },
   "geometry": {
    "type": "Point",
    "coordinates": [
     1.2692826,
     52.6286998
    ]
   }
  },
  {
   "type": "Feature",
   "id": "way/123011783",
   "properties": {
    "addr:city": "Norwich",
    "addr:country": "GB",
    "addr:housename": "Unit 11",
    "addr:postcode": "NR5 9HA",
    "addr:street": "Bowthorpe Main Centre",
    "amenity": "cafe",
    "building": "yes",
    "fhrs:id": "836840",
    "name": "Roys Cafe",
    "source": "Survey",
    "id": "way/123011783"
   },
   "geometry": {
    "type": "Point",
    "coordinates": [
     1.2172544,
     52.6372061
    ]
   }
  },
  {
   "type": "Feature",
   "id": "way/123011785",
   "properties": {
    "addr:city": "Norwich",
    "addr:country": "GB",
    "addr:housenumber": "15",
    "addr:postcode": "NR5 9HA",
    "addr:street": "Bowthorpe Main Centre",
    "amenity": "cafe",
    "building": "yes",
    "email": "hr@zatu.co.uk",
    "end_date": "2017-12-01",
    "name": "Zatu Board Game Café",
    "opening_hours": "Mo 12:00-22:00; Tu-Fr 10:00-22:00; Sa 10:00-18:00; Su 10:00-16:00",
    "shop": "toys",
    "source": "Bing",
    "wheelchair": "yes",
    "id": "way/123011785"
   },
   "geometry": {
    "type": "Point",
    "coordinates": [
     1.2173455,
     52.6369425
    ]
   }
  },
  {
   "type": "Feature",
   "id": "way/123035168",
   "properties": {
    "addr:city": "Norwich",
    "addr:country": "GB",
    "addr:housenumber": "12",
    "addr:postcode": "NR3 1BA",
    "addr:street": "Saint Georges Street",
    "amenity": "cafe",
    "building": "yes",
    "email": "orders@expresso-online.co.uk",
    "name": "Expresso Café",
    "opening_hours": "Mo-Sa 07:00-17:00; Su 09:00-16:00",
    "outdoor_seating": "yes",
    "phone": "+44 1603 768881",
    "source": "Bing",
    "website": "http://expresso-online.co.uk/",
    "id": "way/123035168"
   },
   "geometry": {
    "type": "Point",
    "coordinates": [
     1.2953439,
     52.6308281
    ]
   }
  },
  {
   "type": "Feature",
   "id": "way/123525364",
   "properties": {
    "addr:city": "Norwich",
    "addr:housenumber": "52",
    "addr:postcode": "NR2 4AR",
    "addr:street": "Saint Benedicts Street",
    "amenity": "cafe",
    "building": "yes",
    "cuisine": "coffee_shop",
    "fhrs:id": "1092846",
    "internet_access": "wlan",
    "name": "House Cafe",
    "opening_hours": "Mo-Sa 08:00-17:00; Su 10:00-15:00",
    "phone": "+44 1603 920037",
    "source": "Bing",
    "toilets:wheelchair": "yes",
    "website": "https://housestbenedicts.co.uk/",
    "wheelchair": "yes",
    "id": "way/123525364"
   },
   "geometry": {
    "type": "Point",
    "coordinates": [
     1.2884393,
     52.6310359
    ]
   }
  },
  {
   "type": "Feature",
   "id": "way/123525378",
   "properties": {
    "amenity": "cafe",
    "building": "yes",
    "name": "Rumbling Tum",
    "source": "Bing",
    "id": "way/123525378"
   },
   "geometry": {
    "type": "Point",
    "coordinates": [
     1.288653,
     52.6309861
    ]
   }
  },
  {
   "type": "Feature",
   "id": "way/123525385",
   "properties": {
    "addr:city": "Norwich",
    "addr:housenumber": "60-62",
    "addr:postcode": "NR2 4AR",
    "addr:street": "Saint Benedicts Street",
    "amenity": "cafe",
    "building": "yes",
    "cuisine": "coffee_shop",
    "description": "100% plant based coffee shop, small but perfectly formed with a good selection of hot & cold drinks, cakes and more",
    "fhrs:id": "1065900",
    "name": "Unknown Coffee",
    "note": "Is actually called 'unknown coffee'",
    "source": "Bing,survey",
    "source:name": "FSA Food Hygiene Ratings Database",
    "id": "way/123525385"
   },
   "geometry": {
    "type": "Point",
    "coordinates": [
     1.2879701,
     52.6311411
    ]
   }
  },
  {
   "type": "Feature",
   "id": "way/123525387",
   "properties": {
    "addr:city": "Norwich",
    "addr:housenumber": "22-24",
    "addr:postcode": "NR2 4AQ",
    "addr:street": "St Benedicts Street",
    "amenity": "cafe",
    "building": "yes",
    "fhrs:id": "1072934",
    "name": "Sahara",
    "source": "Bing",
    "source:addr": "FHRS Open Data",
    "id": "way/123525387"
   },
   "geometry": {
    "type": "Point",
    "coordinates": [
     1.2900207,
     52.6307704
    ]
   }
  },
  {
   "type": "Feature",
   "id": "way/129538553",
   "properties": {
    "addr:city": "Norwich",
    "addr:country": "GB",
    "addr:housenumber": "61,65a",
    "addr:postcode": "NR1 3HL",
    "addr:street": "Hall Road",
    "amenity": "cafe",
    "building": "yes",
    "disused": "yes",
    "fhrs:id": "937011",
    "name": "The Cafe NR1",
    "source": "Bing",
    "id": "way/129538553"
   },
   "geometry": {
    "type": "Point",
    "coordinates": [
     1.2983565,
     52.6195024
    ]
   }
  },
  {
   "type": "Feature",
   "id": "way/131888484",
   "properties": {
    "addr:city": "Norwich",
    "addr:place": "University of East Anglia",
    "addr:postcode": "NR4 7TJ",
    "addr:street": "The Street",
    "amenity": "cafe",
    "building": "yes",
    "fhrs:id": "7457",
    "level": "0",
    "name": "Ziggy’s",
    "opening_hours": "Apr 13-Jun 5: Mo-Fr 08:00-19:00; Sa-Su 09:30-16:30; Jun 6-Sep 20: Mo-Fr 08:00-18:00; Sa-Su 09:30-16:30",
    "source": "Bing",
    "source:addr": "FHRS Open Data",
    "website": "https://portal.uea.ac.uk/campus-kitchen/cafes-and-restaurants/cafe-direct",
    "id": "way/131888484"
   },
   "geometry": {
    "type": "Point",
    "coordinates": [
     1.2414829,
     52.6210354
    ]
   }
  },
  {
   "type": "Feature",
   "id": "way/135806254",
   "properties": {
    "addr:city": "Norwich",
    "addr:country": "GB",
    "addr:housename": "The Old Fire Station Stables",
    "addr:housenumber": "3",
    "addr:postcode": "NR2 1JD",
    "addr:street": "Labour in Vain Yard",
    "amenity": "cafe",
    "building": "yes",
    "cuisine": "coffee_shop",
    "diet:gluten_free": "yes",
    "diet:raw": "yes",
    "diet:vegan": "yes",
    "diet:vegetarian": "only",
    "drink:coffee": "yes",
    "drink:tea": "yes",
    "drink:wine": "yes",
    "email": "pulsecafebar@talktalkbusiness.net",
    "fhrs:id": "1132555",
    "level": "1",
    "name": "Wild Thyme",
    "opened": "2004",
    "opening_hours": "Mo-We 10:00-17:00; Th-Sa 10:00-22:00; Su off",
    "operator": "Raffles Restaurants",
    "phone": "+44 1603 765562",
    "real_ale": "no",
    "website": "https://wildthymenorwich.co.uk/",
    "website:operator": "http://rafflesrestaurants.co.uk/",
    "id": "way/135806254"
   },
   "geometry": {
    "type": "Point",
    "coordinates": [
     1.2921548,
     52.6295368
    ]
   }
  },
  {
   "type": "Feature",
   "id": "way/136090710",
   "properties": {
    "addr:city": "Norwich",
    "addr:country": "GB",
    "addr:housenumber": "36-38",
    "addr:postcode": "NR1 3SH",
    "addr:street": "Saint Stephens Street",
    "amenity": "cafe",
    "brand": "Starbucks",
    "brand:wikidata": "Q37158",
    "brand:wikipedia": "en:Starbucks",
    "building": "yes",
    "cuisine": "coffee_shop",
    "fhrs:id": "924813",
    "internet_access": "wlan",
    "name": "Starbucks",
    "opening_hours": "Mo-Tu 07:00-18:30; We off; Th 09:00-16:30; Fr 07:00-18:30; Sa 08:00-18:30; Su 09:00-17:30",
    "source": "Bing",
    "takeaway": "yes",
    "id": "way/136090710"
   },
   "geometry": {
    "type": "Point",
    "coordinates": [
     1.2916654,
     52.6252054
    ]
   }
  },
  {
   "type": "Feature",
   "id": "way/136895234",
   "properties": {
    "addr:city": "Norwich",
    "addr:country": "GB",
    "addr:housenumber": "2",
    "addr:postcode": "NR1 3PR",
    "addr:street": "Queens Road",
    "amenity": "cafe",
    "building": "yes",
    "cuisine": "thai",
    "fhrs:id": "486801",
    "name": "The House",
    "phone": "+44 1603 631559",
    "id": "way/136895234"
   },
   "geometry": {
    "type": "Point",
    "coordinates": [
     1.2912587,
     52.6241546
    ]
   }
  },
  {
   "type": "Feature",
   "id": "way/136895336",
   "properties": {
    "addr:city": "Norwich",
    "addr:country": "GB",
    "addr:housenumber": "7",
    "addr:postcode": "NR1 3NX",
    "addr:street": "Surrey Street",
    "amenity": "cafe",
    "building": "yes",
    "fhrs:id": "71690",
    "name": "7 Surrey Street",
    "source:addr:postcode": "FHRS Open Data",
    "id": "way/136895336"
   },
   "geometry": {
    "type": "Point",
    "coordinates": [
     1.2933963,
     52.6252725
    ]
   }
  },
  {
   "type": "Feature",
   "id": "way/138428496",
   "properties": {
    "amenity": "cafe",
    "building": "yes",
    "name": "Longwater Cafe",
    "source": "Bing",
    "id": "way/138428496"
   },
   "geometry": {
    "type": "Point",
    "coordinates": [
     1.2065868,
     52.6512651
    ]
   }
  },
  {
   "type": "Feature",
   "id": "way/139286475",
   "properties": {
    "addr:city": "Norwich",
    "addr:housenumber": "50",
    "addr:postcode": "NR1 3NB",
    "addr:street": "All Saints Green",
    "amenity": "cafe",
    "building": "yes",
    "fhrs:id": "853730",
    "name": "Acorn Café",
    "source": "Bing",
    "source:addr": "FSA Food Hygiene Ratings Database",
    "website": "http://www.theyogatree.co.uk/tytmain/?page=acorn",
    "id": "way/139286475"
   },
   "geometry": {
    "type": "Point",
    "coordinates": [
     1.2940962,
     52.623796
    ]
   }
  },
  {
   "type": "Feature",
   "id": "way/144929194",
   "properties": {
    "addr:city": "Norwich",
    "addr:country": "GB",
    "addr:housenumber": "17",
    "addr:postcode": "NR2 1EL",
    "addr:street": "Lower Goat Lane",
    "amenity": "cafe",
    "building": "shop",
    "cuisine": "falafel",
    "diet:vegan": "yes",
    "diet:vegetarian": "only",
    "email": "moorishfalafelbar@gmail.com",
    "fhrs:id": "48477",
    "name": "moorish falafal bar",
    "opening_hours": "Mo-Sa 11:00-17:30; Su off",
    "phone": "+44 1603 622250",
    "id": "way/144929194"
   },
   "geometry": {
    "type": "Point",
    "coordinates": [
     1.2917718,
     52.6297307
    ]
   }
  },
  {
   "type": "Feature",
   "id": "way/150613631",
   "properties": {
    "addr:city": "Norwich",
    "addr:country": "GB",
    "addr:housenumber": "27",
    "addr:postcode": "NR3 3BY",
    "addr:street": "Saint Augustine's",
    "amenity": "cafe",
    "building": "yes",
    "fhrs:id": "1016500",
    "name": "That Cafe",
    "website": "https://thatcafenorwich.co.uk/",
    "id": "way/150613631"
   },
   "geometry": {
    "type": "Point",
    "coordinates": [
     1.292572,
     52.6377052
    ]
   }
  },
  {
   "type": "Feature",
   "id": "way/157250646",
   "properties": {
    "addr:city": "Norwich",
    "addr:country": "GB",
    "addr:housenumber": "114a",
    "addr:postcode": "NR1 1QE",
    "addr:street": "King Street",
    "amenity": "cafe",
    "building": "house",
    "contact:mobile": "+44 7828 937581",
    "contact:website": "http://www.butterflycafe.co.uk/",
    "fhrs:id": "19319",
    "name": "ButterflyCafé",
    "opening_hours": "Mo-Fr 08:30-16:00; Sa 10:00-15:00; Su off",
    "id": "way/157250646"
   },
   "geometry": {
    "type": "Point",
    "coordinates": [
     1.3011751,
     52.625398
    ]
   }
  },
  {
   "type": "Feature",
   "id": "way/158640590",
   "properties": {
    "amenity": "cafe",
    "building": "yes",
    "name": "The Old Granary",
    "id": "way/158640590"
   },
   "geometry": {
    "type": "Point",
    "coordinates": [
     1.4895208,
     52.6777259
    ]
   }
  },
  {
   "type": "Feature",
   "id": "way/160941196",
   "properties": {
    "addr:city": "Norwich",
    "addr:country": "GB",
    "addr:housenumber": "3",
    "addr:postcode": "NR2 1AQ",
    "addr:street": "Bridewell Alley",
    "amenity": "cafe",
    "building": "yes",
    "gay": "welcome",
    "name": "Mustard Coffee Bar",
    "opening_hours": "Mo-Sa 08:00-17:00",
    "phone": "+44 1603 630077",
    "website": "http://www.mustardcoffeebar.co.uk/",
    "id": "way/160941196"
   },
   "geometry": {
    "type": "Point",
    "coordinates": [
     1.2952875,
     52.629857
    ]
   }
  },
  {
   "type": "Feature",
   "id": "way/167039460",
   "properties": {
    "addr:city": "Norwich",
    "addr:country": "GB",
    "addr:housenumber": "5",
    "addr:postcode": "NR1 2AD",
    "addr:street": "Saint Johns Close",
    "amenity": "cafe",
    "building": "yes",
    "fhrs:id": "69230",
    "name": "Sweettree",
    "id": "way/167039460"
   },
   "geometry": {
    "type": "Point",
    "coordinates": [
     1.2945142,
     52.6145788
    ]
   }
  },
  {
   "type": "Feature",
   "id": "way/168159795",
   "properties": {
    "addr:city": "Norwich",
    "addr:country": "GB",
    "addr:housenumber": "9",
    "addr:postcode": "NR2 2RH",
    "addr:street": "Trory Street",
    "amenity": "cafe",
    "building": "house",
    "fhrs:id": "1035001",
    "name": "NR2",
    "old_name": "Kimberley Arms",
    "real_ale": "no",
    "real_cider": "no",
    "start_date": "2018-03-23",
    "id": "way/168159795"
   },
   "geometry": {
    "type": "Point",
    "coordinates": [
     1.2832049,
     52.6266874
    ]
   }
  },
  {
   "type": "Feature",
   "id": "way/168880550",
   "properties": {
    "addr:city": "Norwich",
    "addr:housenumber": "26",
    "addr:postcode": "NR2 2AA",
    "addr:street": "Suffolk Square",
    "amenity": "cafe",
    "building": "yes",
    "fhrs:id": "71341;977289",
    "name": "The People's Palace",
    "source": "Bing",
    "source:addr": "FHRS Open Data",
    "id": "way/168880550"
   },
   "geometry": {
    "type": "Point",
    "coordinates": [
     1.2828642,
     52.625091
    ]
   }
  },
  {
   "type": "Feature",
   "id": "way/171357352",
   "properties": {
    "addr:city": "Norwich",
    "addr:country": "GB",
    "addr:housenumber": "2A",
    "addr:postcode": "NR2 1AT",
    "addr:street": "Exchange Street",
    "amenity": "cafe",
    "building": "shop",
    "fhrs:id": "918745",
    "fixme:addr2": "Norwich",
    "name": "Jive Kitchen",
    "source:addr": "FHRS Open Data",
    "id": "way/171357352"
   },
   "geometry": {
    "type": "Point",
    "coordinates": [
     1.2933457,
     52.6291196
    ]
   }
  },
  {
   "type": "Feature",
   "id": "way/171404467",
   "properties": {
    "addr:city": "Norwich",
    "addr:country": "GB",
    "addr:housenumber": "53",
    "addr:postcode": "NR2 3AD",
    "addr:street": "Earlham Road",
    "amenity": "cafe",
    "building": "house",
    "fhrs:id": "17866",
    "name": "Workshop",
    "opening_hours": "Mo 17:00-23:00; Tu-Sa 10:00-23:00; Su 12:00-22:30",
    "phone": "+44 1603 615853",
    "real_ale": "no",
    "id": "way/171404467"
   },
   "geometry": {
    "type": "Point",
    "coordinates": [
     1.2788728,
     52.6309445
    ]
   }
  },
  {
   "type": "Feature",
   "id": "way/188860011",
   "properties": {
    "addr:city": "Norwich",
    "addr:housename": "YMCA",
    "addr:housenumber": "10",
    "addr:postcode": "NR1 3GX",
    "addr:street": "Winalls Yard",
    "amenity": "cafe",
    "fhrs:id": "28488",
    "layer": "-1",
    "name": "Stepping Stone Café",
    "opening_hours": "Mo-Sa 10:00-16:00",
    "operator": "YMCA Norfolk",
    "source:addr": "FHRS Open Data",
    "website": "http://www.steppingstonescafe.co.uk/",
    "id": "way/188860011"
   },
   "geometry": {
    "type": "Point",
    "coordinates": [
     1.293583,
     52.6241015
    ]
   }
  },
  {
   "type": "Feature",
   "id": "way/190708486",
   "properties": {
    "addr:city": "Norwich",
    "addr:country": "GB",
    "addr:housenumber": "99",
    "addr:postcode": "NR1 1DW",
    "addr:street": "Prince of Wales Road",
    "amenity": "cafe",
    "building": "yes",
    "fhrs:id": "878407",
    "name": "Departure Lounge",
    "opening_hours": "Mo-Fr 07:30-16:00",
    "shop": "hairdresser",
    "strapline": "Norwich · Norfolk",
    "id": "way/190708486"
   },
   "geometry": {
    "type": "Point",
    "coordinates": [
     1.3039569,
     52.6282576
    ]
   }
  },
  {
   "type": "Feature",
   "id": "way/202071136",
   "properties": {
    "addr:city": "Norwich",
    "addr:housenumber": "38",
    "addr:postcode": "NR2 1LD",
    "addr:street": "London Street",
    "amenity": "cafe",
    "building": "shop",
    "fhrs:id": "780999",
    "name": "Harriet's Café Tearooms",
    "source:addr": "FHRS Open Data",
    "id": "way/202071136"
   },
   "geometry": {
    "type": "Point",
    "coordinates": [
     1.2954847,
     52.6293045
    ]
   }
  },
  {
   "type": "Feature",
   "id": "way/205594932",
   "properties": {
    "addr:city": "Norwich",
    "addr:housenumber": "19-20",
    "addr:postcode": "NR2 1QE",
    "addr:street": "Haymarket",
    "amenity": "cafe",
    "brand": "Starbucks",
    "brand:wikidata": "Q37158",
    "brand:wikipedia": "en:Starbucks",
    "building": "shop",
    "cuisine": "coffee_shop",
    "fhrs:id": "918742",
    "internet_access": "wlan",
    "name": "Starbucks",
    "source:addr": "FHRS Open Data",
    "takeaway": "yes",
    "id": "way/205594932"
   },
   "geometry": {
    "type": "Point",
    "coordinates": [
     1.2931253,
     52.6276103
    ]
   }
  },
  {
   "type": "Feature",
   "id": "way/229497850",
   "properties": {
    "addr:city": "Norwich",
    "addr:country": "GB",
    "addr:housenumber": "20",
    "addr:postcode": "NR1 3LR",
    "addr:street": "Westlegate",
    "amenity": "cafe",
    "building": "house",
    "email": "shop@waringsathome.co.uk",
    "material:roof": "thatch",
    "name": "Warings Lifestore",
    "old_name": "Casaccio's",
    "opening_hours": "Mo-Fr 09:00-18:30; Sa-Su off",
    "phone": "+44 1603 613800",
    "shop": "furniture",
    "website": "https://www.waringsathome.co.uk/",
    "wikidata": "Q26303635",
    "id": "way/229497850"
   },
   "geometry": {
    "type": "Point",
    "coordinates": [
     1.2952069,
     52.6259516
    ]
   }
  },
  {
   "type": "Feature",
   "id": "way/231212350",
   "properties": {
    "addr:city": "Norwich",
    "addr:country": "GB",
    "addr:housenumber": "4",
    "addr:postcode": "NR2 2RA",
    "addr:street": "Unthank Road",
    "amenity": "cafe",
    "building": "yes",
    "fhrs:id": "661399",
    "name": "Kofra",
    "website": "https://www.kofra.co.uk/",
    "id": "way/231212350"
   },
   "geometry": {
    "type": "Point",
    "coordinates": [
     1.284675,
     52.6289469
    ]
   }
  },
  {
   "type": "Feature",
   "id": "way/246820289",
   "properties": {
    "addr:city": "Norwich",
    "addr:housenumber": "5",
    "addr:postcode": "NR2 1HZ",
    "addr:street": "Swan Lane",
    "amenity": "cafe",
    "building": "yes",
    "fhrs:id": "1016496",
    "fixme:addr2": "Norwich",
    "name": "Logans",
    "opening_hours": "Mo-Sa 08:00-17:00",
    "outdoor_seating": "no",
    "id": "way/246820289"
   },
   "geometry": {
    "type": "Point",
    "coordinates": [
     1.2950813,
     52.6295641
    ]
   }
  },
  {
   "type": "Feature",
   "id": "way/258695109",
   "properties": {
    "addr:city": "Norwich",
    "addr:country": "GB",
    "addr:housenumber": "45",
    "addr:postcode": "NR1 3SS",
    "addr:street": "St. Stephens Square",
    "amenity": "cafe",
    "building": "house",
    "cuisine": "coffee_shop",
    "fhrs:id": "48581",
    "name": "Littlehaven",
    "website": "https://www.facebook.com/littlehavencoffee/",
    "id": "way/258695109"
   },
   "geometry": {
    "type": "Point",
    "coordinates": [
     1.2887797,
     52.6233266
    ]
   }
  },
  {
   "type": "Feature",
   "id": "way/281801474",
   "properties": {
    "addr:city": "Norwich",
    "addr:place": "Broadland Business Park",
    "addr:postcode": "NR7 0WG",
    "addr:street": "Old Chapel Way",
    "addr:suburb": "Postwick",
    "amenity": "cafe",
    "building": "retail",
    "cuisine": "coffee_shop",
    "fhrs:id": "737518",
    "fixme": "now open but building shape needs to be checked",
    "name": "Costa Coffee",
    "source:addr": "FHRS Open Data",
    "id": "way/281801474"
   },
   "geometry": {
    "type": "Point",
    "coordinates": [
     1.3730194,
     52.6280443
    ]
   }
  },
  {
   "type": "Feature",
   "id": "way/296344311",
   "properties": {
    "access": "public",
    "amenity": "cafe",
    "building": "Visitors Center",
    "fee": "no",
    "information": "office",
    "name": "Whitlingham Visitor Centre",
    "operator": "Broads Authority",
    "toilets:position": "seated",
    "tourism": "information",
    "wheelchair": "yes",
    "id": "way/296344311"
   },
   "geometry": {
    "type": "Point",
    "coordinates": [
     1.32944,
     52.6210926
    ]
   }
  },
  {
   "type": "Feature",
   "id": "way/320200620",
   "properties": {
    "amenity": "cafe",
    "building": "yes",
    "id": "way/320200620"
   },
   "geometry": {
    "type": "Point",
    "coordinates": [
     1.4844794,
     52.6794499
    ]
   }
  },
  {
   "type": "Feature",
   "id": "way/338002245",
   "properties": {
    "addr:city": "Norwich",
    "addr:country": "GB",
    "addr:housenumber": "25",
    "addr:postcode": "NR3 1LA",
    "addr:street": "Wensum Street",
    "amenity": "cafe",
    "building": "yes",
    "contact:website": "https://www.fikanorwich.co.uk/",
    "cuisine": "coffee_shop",
    "fhrs:id": "1108807",
    "name": "Fika",
    "opening_hours": "Mo-Fr 08:00-15:30; Sa 10:00-16:00; Su off",
    "id": "way/338002245"
   },
   "geometry": {
    "type": "Point",
    "coordinates": [
     1.2975533,
     52.6326765
    ]
   }
  },
  {
   "type": "Feature",
   "id": "way/338963853",
   "properties": {
    "addr:city": "Norwich",
    "addr:country": "GB",
    "addr:housenumber": "4",
    "addr:postcode": "NR2 1EL",
    "addr:street": "Lower Goat Lane",
    "amenity": "cafe",
    "building": "shop",
    "fhrs:id": "705383",
    "name": "Copper Kettle Cafe",
    "phone": "+44 1603 626870",
    "website": "http://www.copperkettlenorwich.co.uk/",
    "id": "way/338963853"
   },
   "geometry": {
    "type": "Point",
    "coordinates": [
     1.2917697,
     52.6293713
    ]
   }
  },
  {
   "type": "Feature",
   "id": "way/368518294",
   "properties": {
    "addr:city": "Norwich",
    "addr:housenumber": "10",
    "addr:postcode": "NR2 1QA",
    "addr:street": "White Lion Street",
    "amenity": "cafe",
    "brand": "Costa",
    "brand:wikidata": "Q608845",
    "brand:wikipedia": "en:Costa Coffee",
    "building": "shop",
    "cuisine": "coffee_shop",
    "fhrs:id": "77787",
    "name": "Costa",
    "source:addr": "FSA Food Hygiene Ratings Database",
    "takeaway": "yes",
    "id": "way/368518294"
   },
   "geometry": {
    "type": "Point",
    "coordinates": [
     1.2940959,
     52.6278395
    ]
   }
  },
  {
   "type": "Feature",
   "id": "way/401790777",
   "properties": {
    "addr:city": "Norwich",
    "addr:country": "GB",
    "addr:housenumber": "11",
    "addr:postcode": "NR13 6LX",
    "addr:street": "Hill Road",
    "amenity": "cafe",
    "building": "yes",
    "email": "corneliahall@btinternet.com",
    "fhrs:id": "52103",
    "name": "Hill Top Cafe",
    "opening_hours": "Mo-Fr 06:30-14:00; Sa 08:00-14:00; Su 08:00-13:00",
    "phone": "+44 1603 720452",
    "website": "https://www.facebook.com/hilltopcafenorwich/",
    "id": "way/401790777"
   },
   "geometry": {
    "type": "Point",
    "coordinates": [
     1.3678106,
     52.6785864
    ]
   }
  },
  {
   "type": "Feature",
   "id": "way/430815314",
   "properties": {
    "addr:city": "Norwich",
    "addr:housename": "Norwich Railway Station",
    "addr:postcode": "NR1 1EF",
    "addr:street": "Station Approach",
    "amenity": "cafe",
    "brand": "Starbucks",
    "brand:wikidata": "Q37158",
    "brand:wikipedia": "en:Starbucks",
    "building": "yes",
    "cuisine": "coffee_shop",
    "fhrs:id": "1025827",
    "fixme": "location/footprint approx",
    "name": "Starbucks",
    "source:addr": "FHRS Open Data",
    "takeaway": "yes",
    "id": "way/430815314"
   },
   "geometry": {
    "type": "Point",
    "coordinates": [
     1.3068921,
     52.6267787
    ]
   }
  },
  {
   "type": "Feature",
   "id": "way/438423618",
   "properties": {
    "addr:city": "Norwich",
    "addr:country": "GB",
    "addr:housenumber": "73",
    "addr:postcode": "NR3 1AA",
    "addr:street": "Magdalen Street",
    "amenity": "cafe",
    "building": "yes",
    "name": "Moonlight Cafe",
    "id": "way/438423618"
   },
   "geometry": {
    "type": "Point",
    "coordinates": [
     1.2967701,
     52.636038
    ]
   }
  },
  {
   "type": "Feature",
   "id": "way/438423622",
   "properties": {
    "addr:city": "Norwich",
    "addr:housename": "67-69",
    "addr:postcode": "NR3 1AA",
    "addr:street": "Magdalen Street",
    "amenity": "cafe",
    "building": "yes",
    "fhrs:id": "667908",
    "name": "Sahara",
    "source:addr": "FHRS Open Data",
    "id": "way/438423622"
   },
   "geometry": {
    "type": "Point",
    "coordinates": [
     1.2968053,
     52.6359149
    ]
   }
  },
  {
   "type": "Feature",
   "id": "way/440968617",
   "properties": {
    "addr:city": "Norwich",
    "addr:housename": "8B",
    "addr:postcode": "NR1 1WR",
    "addr:street": "Albion Way",
    "amenity": "cafe",
    "building": "yes",
    "construction": "building",
    "cuisine": "coffee_shop",
    "fhrs:id": "941445",
    "name": "Starbucks",
    "source:addr": "FHRS Open Data",
    "id": "way/440968617"
   },
   "geometry": {
    "type": "Point",
    "coordinates": [
     1.3075471,
     52.6249318
    ]
   }
  },
  {
   "type": "Feature",
   "id": "way/529717506",
   "properties": {
    "addr:city": "Norwich",
    "addr:country": "GB",
    "addr:housenumber": "13-15",
    "addr:postcode": "NR3 1AB",
    "addr:street": "St George's Street",
    "amenity": "cafe",
    "building": "yes",
    "fhrs:id": "991856",
    "name": "Café Pure @ St. George's",
    "phone": "+44 1603 627599",
    "source": "Bing",
    "website": "https://www.facebook.com/cafepurestgeorges/",
    "id": "way/529717506"
   },
   "geometry": {
    "type": "Point",
    "coordinates": [
     1.2947067,
     52.6324492
    ]
   }
  },
  {
   "type": "Feature",
   "id": "way/533969803",
   "properties": {
    "addr:postcode": "NR7 0WG",
    "addr:street": "Old Chapel Way",
    "addr:suburb": "Postwick",
    "amenity": "cafe",
    "fhrs:id": "147214",
    "name": "Waterside Café",
    "source:addr": "FHRS Open Data",
    "id": "way/533969803"
   },
   "geometry": {
    "type": "Point",
    "coordinates": [
     1.3718376,
     52.6293632
    ]
   }
  },
  {
   "type": "Feature",
   "id": "way/541599431",
   "properties": {
    "addr:city": "Norwich",
    "addr:housenumber": "4-5",
    "addr:parentstreet": "Sandy Lane",
    "addr:postcode": "NR4 6EF",
    "addr:street": "The Lastings",
    "amenity": "cafe",
    "building": "yes",
    "fhrs:id": "915723",
    "name": "Costa",
    "source:addr": "FHRS Open Data",
    "id": "way/541599431"
   },
   "geometry": {
    "type": "Point",
    "coordinates": [
     1.2880405,
     52.6068723
    ]
   }
  },
  {
   "type": "Feature",
   "id": "way/544580860",
   "properties": {
    "addr:city": "Norwich",
    "addr:country": "GB",
    "addr:housenumber": "25b",
    "addr:postcode": "NR2 1JN",
    "addr:street": "St Giles Street",
    "amenity": "cafe",
    "building": "yes",
    "cuisine": "pasta",
    "email": "ciao@aldentenorwich.co.uk",
    "fhrs:id": "1016495",
    "name": "al dente",
    "opening_hours": "Mo-Su 08:00-19:00",
    "phone": "+44 1603 632580",
    "source": "Bing",
    "website": "https://www.aldentenorwich.co.uk/",
    "id": "way/544580860"
   },
   "geometry": {
    "type": "Point",
    "coordinates": [
     1.2903649,
     52.6292797
    ]
   }
  },
  {
   "type": "Feature",
   "id": "way/546434515",
   "properties": {
    "amenity": "cafe",
    "building": "yes",
    "name": "Roots",
    "id": "way/546434515"
   },
   "geometry": {
    "type": "Point",
    "coordinates": [
     1.2925064,
     52.6297546
    ]
   }
  },
  {
   "type": "Feature",
   "id": "way/548990631",
   "properties": {
    "addr:city": "Norwich",
    "addr:housenumber": "81",
    "addr:postcode": "NR2 3EL",
    "addr:street": "Park Lane",
    "amenity": "cafe",
    "building": "yes",
    "contact:website": "https://www.facebook.com/SEED-HOUSE-Caf%C3%A9-470018073408239/",
    "fhrs:id": "1080663",
    "name": "Seed House Cafe",
    "id": "way/548990631"
   },
   "geometry": {
    "type": "Point",
    "coordinates": [
     1.2768741,
     52.6260955
    ]
   }
  },
  {
   "type": "Feature",
   "id": "way/568558557",
   "properties": {
    "addr:city": "Norwich",
    "addr:housenumber": "411",
    "addr:postcode": "NR2 1SZ",
    "addr:street": "Chapelfield Plain",
    "amenity": "cafe",
    "brand": "Starbucks",
    "brand:wikidata": "Q37158",
    "brand:wikipedia": "en:Starbucks",
    "building": "yes",
    "cuisine": "coffee_shop",
    "fhrs:id": "998639",
    "name": "Starbucks",
    "source:addr": "FHRS Open Data",
    "takeaway": "yes",
    "id": "way/568558557"
   },
   "geometry": {
    "type": "Point",
    "coordinates": [
     1.2918829,
     52.6263199
    ]
   }
  },
  {
   "type": "Feature",
   "id": "way/569746815",
   "properties": {
    "addr:city": "Norwich",
    "addr:housenumber": "215-217",
    "addr:postcode": "NR1 3AE",
    "addr:street": "Queens Road",
    "amenity": "cafe",
    "building": "yes",
    "fhrs:id": "937009",
    "name": "Bom Sabor",
    "shop": "supermarket",
    "source": "Bing",
    "source:addr": "FSA Food Hygiene Ratings Database",
    "id": "way/569746815"
   },
   "geometry": {
    "type": "Point",
    "coordinates": [
     1.3000349,
     52.6207976
    ]
   }
  },
  {
   "type": "Feature",
   "id": "way/603266287",
   "properties": {
    "addr:city": "Norwich",
    "addr:country": "GB",
    "addr:postcode": "NR9 3AS",
    "addr:street": "Norwich Road",
    "amenity": "cafe",
    "name": "Church Farm Shop and Tea Room",
    "opening_hours": "Mo-Sa 09:00-17:00",
    "phone": "+44 1603 814151",
    "shop": "farm",
    "website": "http://www.churchfarmshopandtearoom.co.uk/",
    "id": "way/603266287"
   },
   "geometry": {
    "type": "Point",
    "coordinates": [
     1.192389,
     52.6006594
    ]
   }
  },
  {
   "type": "Feature",
   "id": "way/674116971",
   "properties": {
    "addr:city": "Norwich",
    "addr:housenumber": "81B",
    "addr:postcode": "NR1 3RT",
    "addr:street": "Grove Road",
    "amenity": "cafe",
    "building": "yes",
    "fhrs:id": "22216",
    "name": "The Little Read Roaster",
    "website": "http://thelittleredroaster.co.uk/",
    "id": "way/674116971"
   },
   "geometry": {
    "type": "Point",
    "coordinates": [
     1.2917146,
     52.6212593
    ]
   }
  },
  {
   "type": "Feature",
   "id": "way/674120558",
   "properties": {
    "addr:city": "Norwich",
    "addr:housenumber": "20",
    "addr:postcode": "NR2 1NA",
    "addr:street": "Gentlemans Walk",
    "amenity": "cafe",
    "brand": "Caffè Nero",
    "brand:wikidata": "Q675808",
    "brand:wikipedia": "en:Caffè Nero",
    "building": "yes",
    "cuisine": "coffee_shop",
    "fhrs:id": "20912",
    "name": "Caffè Nero",
    "outdoor_seating": "no",
    "phone": "01603 762201",
    "takeaway": "yes",
    "id": "way/674120558"
   },
   "geometry": {
    "type": "Point",
    "coordinates": [
     1.2935828,
     52.6284129
    ]
   }
  },
  {
   "type": "Feature",
   "id": "way/674289226",
   "properties": {
    "addr:city": "Norwich",
    "addr:housenumber": "93",
    "addr:postcode": "NR2 1AB",
    "addr:street": "Upper Saint Giles Street",
    "amenity": "cafe",
    "building": "yes",
    "cuisine": "english",
    "fhrs:id": "910273",
    "name": "Bread Source",
    "source:addr:postcode": "FHRS Open Data",
    "id": "way/674289226"
   },
   "geometry": {
    "type": "Point",
    "coordinates": [
     1.2857219,
     52.6294256
    ]
   }
  },
  {
   "type": "Feature",
   "id": "way/675889925",
   "properties": {
    "addr:city": "Norwich",
    "addr:housenumber": "4",
    "addr:postcode": "NR2 1ER",
    "addr:street": "St Gregory’s Alley",
    "amenity": "cafe",
    "building": "yes",
    "cuisine": "coffee;cocktails",
    "fhrs:id": "987226",
    "name": "Alchemista",
    "website": "https://www.alchemistacoffee.co.uk/",
    "id": "way/675889925"
   },
   "geometry": {
    "type": "Point",
    "coordinates": [
     1.291211,
     52.6302495
    ]
   }
  },
  {
   "type": "Feature",
   "id": "way/676216874",
   "properties": {
    "addr:city": "Norwich",
    "addr:housenumber": "21",
    "addr:postcode": "NR2 1DS",
    "addr:street": "Pottergate",
    "amenity": "cafe",
    "building": "yes",
    "fhrs:id": "60343",
    "name": "Strangers Coffee House",
    "website": "http://www.strangerscafe.co.uk/",
    "id": "way/676216874"
   },
   "geometry": {
    "type": "Point",
    "coordinates": [
     1.2917584,
     52.6300214
    ]
   }
  },
  {
   "type": "Feature",
   "id": "way/681398587",
   "properties": {
    "addr:city": "Norwich",
    "addr:housenumber": "67",
    "addr:postcode": "NR2 1HL",
    "addr:street": "London Street",
    "amenity": "cafe",
    "building": "yes",
    "fhrs:id": "1064618",
    "name": "Artel",
    "website": "http://www.artelstore.co.uk/",
    "id": "way/681398587"
   },
   "geometry": {
    "type": "Point",
    "coordinates": [
     1.2967566,
     52.6300084
    ]
   }
  },
  {
   "type": "Feature",
   "id": "way/681404766",
   "properties": {
    "addr:city": "Norwich",
    "addr:housenumber": "9",
    "addr:postcode": "NR3 1HN",
    "addr:street": "Elm Hill",
    "amenity": "cafe",
    "building": "yes",
    "fhrs:id": "17218",
    "name": "Britons Arms",
    "outdoor_seating": "yes",
    "phone": "01603 623367",
    "source:addr:postcode": "FHRS Open Data",
    "wikidata": "Q17531356",
    "id": "way/681404766"
   },
   "geometry": {
    "type": "Point",
    "coordinates": [
     1.2967182,
     52.6312565
    ]
   }
  },
  {
   "type": "Feature",
   "id": "way/681404768",
   "properties": {
    "addr:city": "Norwich",
    "addr:housename": "2",
    "addr:postcode": "NR3 1HN",
    "addr:street": "Elm Hill",
    "amenity": "cafe",
    "building": "yes",
    "fhrs:id": "924799",
    "name": "Storm in a Teacup",
    "source:addr": "FHRS Open Data",
    "id": "way/681404768"
   },
   "geometry": {
    "type": "Point",
    "coordinates": [
     1.2966318,
     52.6308852
    ]
   }
  },
  {
   "type": "Feature",
   "id": "way/684438454",
   "properties": {
    "addr:city": "Norwich",
    "addr:housenumber": "78",
    "addr:postcode": "NR13 5LH",
    "addr:street": "The Street",
    "addr:village": "Brundall",
    "amenity": "cafe",
    "building": "yes",
    "fhrs:id": "896150",
    "name": "Brundall Coffee Shop",
    "source:addr": "FHRS Open Data",
    "id": "way/684438454"
   },
   "geometry": {
    "type": "Point",
    "coordinates": [
     1.4326286,
     52.6244489
    ]
   }
  },
  {
   "type": "Feature",
   "id": "way/689433097",
   "properties": {
    "addr:city": "Norwich",
    "addr:country": "GB",
    "addr:housename": "Norwich Railway Station",
    "addr:postcode": "NR1 1EF",
    "addr:street": "Station Approach",
    "amenity": "cafe",
    "building": "unit",
    "fhrs:id": "73525",
    "name": "AMT Coffee",
    "opening_hours": "Mo-Fr 05:30-21:00; Sa 06:00-21:00; Su 07:00-21:00",
    "phone": "+44 1603 660899",
    "real_ale": "no",
    "website": "http://www.amtcoffee.co.uk/",
    "id": "way/689433097"
   },
   "geometry": {
    "type": "Point",
    "coordinates": [
     1.3065342,
     52.6265524
    ]
   }
  },
  {
   "type": "Feature",
   "id": "way/695825106",
   "properties": {
    "addr:city": "Norwich",
    "addr:country": "GB",
    "addr:housename": "Unit 10",
    "addr:place": "Longwater Retail Park",
    "addr:postcode": "NR5 0JT",
    "addr:street": "Alex Moorhouse Way",
    "amenity": "cafe",
    "building": "retail",
    "fhrs:id": "799231",
    "name": "Costa Coffee",
    "opening_hours": "Mo-Fr 09:00-20:30; Sa 09:00-19:30; Su 10:00-16:00",
    "website": "https://www.costa.co.uk/locations/store-locator/",
    "id": "way/695825106"
   },
   "geometry": {
    "type": "Point",
    "coordinates": [
     1.1797,
     52.6534889
    ]
   }
  },
  {
   "type": "Feature",
   "id": "way/699215603",
   "properties": {
    "addr:city": "Norwich",
    "addr:housename": "Norwich Railway Station",
    "addr:postcode": "NR1 1EF",
    "addr:street": "Station Approach",
    "amenity": "cafe",
    "building": "yes",
    "fhrs:id": "949521",
    "fixme": "location/footprint approx",
    "name": "West Conrwall Pasty Co",
    "source:addr": "FHRS Open Data",
    "takeaway": "yes",
    "id": "way/699215603"
   },
   "geometry": {
    "type": "Point",
    "coordinates": [
     1.3069336,
     52.6268044
    ]
   }
  },
  {
   "type": "Feature",
   "id": "way/699468518",
   "properties": {
    "addr:city": "Norwich",
    "addr:country": "GB",
    "addr:housenumber": "10",
    "addr:postcode": "NR2 1AT",
    "addr:street": "Exchange Street",
    "amenity": "cafe",
    "building": "shop",
    "cuisine": "irish",
    "fhrs:id": "1030462",
    "name": "Butcher Bhoy",
    "id": "way/699468518"
   },
   "geometry": {
    "type": "Point",
    "coordinates": [
     1.2933925,
     52.6294355
    ]
   }
  },
  {
   "type": "Feature",
   "id": "way/700132761",
   "properties": {
    "addr:city": "Norwich",
    "addr:housenumber": "31",
    "addr:postcode": "NR5 8AD",
    "addr:street": "Earlham West Centre",
    "amenity": "cafe",
    "building": "retail",
    "fhrs:id": "1063145",
    "level": "0",
    "name": "Rasa's Cafe",
    "source:addr:postcode": "FHRS Open Data",
    "website": "https://www.facebook.com/rasascafe/",
    "id": "way/700132761"
   },
   "geometry": {
    "type": "Point",
    "coordinates": [
     1.2408676,
     52.6321643
    ]
   }
  },
  {
   "type": "Feature",
   "id": "way/701261004",
   "properties": {
    "addr:city": "Norwich",
    "addr:housenumber": "18",
    "addr:postcode": "NR2 1PX",
    "addr:street": "White Lion Street",
    "amenity": "cafe",
    "fhrs:id": "77788",
    "level": "1",
    "name": "Greggs",
    "source:addr": "FHRS Open Data",
    "id": "way/701261004"
   },
   "geometry": {
    "type": "Point",
    "coordinates": [
     1.2946828,
     52.6276179
    ]
   }
  },
  {
   "type": "Feature",
   "id": "way/701263534",
   "properties": {
    "addr:city": "Norwich",
    "addr:housenumber": "17",
    "addr:postcode": "NR2 1PX",
    "addr:street": "White Lion Street",
    "amenity": "cafe",
    "building": "yes",
    "fhrs:id": "1104943",
    "level": "1",
    "name": "White Lion Cafe",
    "source:addr": "FHRS Open Data",
    "id": "way/701263534"
   },
   "geometry": {
    "type": "Point",
    "coordinates": [
     1.2943985,
     52.6276134
    ]
   }
  },
  {
   "type": "Feature",
   "id": "relation/2181552",
   "properties": {
    "addr:city": "Norwich",
    "addr:housenumber": "52-53",
    "addr:postcode": "NR2 1ND",
    "addr:street": "Market Place",
    "amenity": "cafe",
    "fhrs:id": "344753",
    "name": "Burgill Coffee",
    "note": "Coffee and continental snacks",
    "operator": "Little red Roaster​",
    "source:addr": "FHRS Open Data",
    "type": "multipolygon",
    "id": "relation/2181552"
   },
   "geometry": {
    "type": "Point",
    "coordinates": [
     1.2928519,
     52.6283595
    ]
   }
  },
  {
   "type": "Feature",
   "id": "relation/3152337",
   "properties": {
    "addr:city": "Norwich",
    "addr:country": "GB",
    "addr:housenumber": "121",
    "addr:postcode": "NR2 1ND",
    "addr:street": "Market Place",
    "amenity": "cafe",
    "building": "stall",
    "fhrs:id": "15631",
    "name": "Bs Ts Snack Bar",
    "operator": "BJs",
    "ref": "121",
    "shop": "refreshments",
    "type": "multipolygon",
    "id": "relation/3152337"
   },
   "geometry": {
    "type": "Point",
    "coordinates": [
     1.2927542,
     52.6285692
    ]
   }
  },
  {
   "type": "Feature",
   "id": "relation/5710976",
   "properties": {
    "addr:city": "Norwich",
    "addr:housenumber": "78-80",
    "addr:postcode": "NR1 1NJ",
    "addr:street": "Prince of Wales Road",
    "amenity": "cafe",
    "cuisine": "greek",
    "disused:amenity": "fast_food",
    "fhrs:id": "1070661",
    "level": "0",
    "name": "The Feed",
    "old_name": "GRK Greek Kitchen",
    "type": "multipolygon",
    "website": "https://thefeed.org.uk/",
    "id": "relation/5710976"
   },
   "geometry": {
    "type": "Point",
    "coordinates": [
     1.302812,
     52.6290942
    ]
   }
  }
 ]
}