{
 "type": "FeatureCollection",
 "features": [
  {
   "type": "Feature",
   "id": "node/299412199",
   "properties": {
    "addr:city": "Norwich",
    "addr:country": "GB",
    "addr:housename": "The Forum",
    "addr:postcode": "NR2 1AW",
    "addr:street": "Millennium Plain",
    "alt_name": "The Forum",
    "amenity": "library",
    "internet_access": "yes",
    "internet_access:fee": "no",
    "name": "Norfolk and Norwich Millennium Library",
    "opening_hours": "Mo-Fr 09:00-20:00; Sa 09:00-17:00",
    "operator": "Norfolk County Council",
    "parking": "yes",
    "parking:disabled": "yes",
    "phone": "+44 1603 774774",
    "toilets": "yes",
    "toilets:disabled": "yes",
    "website": "https://www.norfolk.gov.uk/libraries-local-history-and-archives/libraries/your-local-library/locations-and-opening-times/norfolk-and-norwich-millennium-library",
    "wheelchair": "yes",
    "wheelchair:note": "slope:lift",
    "wikidata": "Q7734913",
    "id": "node/299412199"
   },
   "geometry": {
    "type": "Point",
    "coordinates": [
     1.2909467,
     52.6277308
    ]
   }
  },
  {
   "type": "Feature",
   "id": "node/2640098482",
   "properties": {
    "amenity": "library",
    "name": "Childrens Library",
    "opening_hours": "Mo-Fr 9:00-19:00;Sa 9:00-17:00;Su 10:30-16:30",
    "operator": "Norfolk County Council",
    "website": "https://www.norfolk.gov.uk/libraries-local-history-and-archives/libraries/your-local-library/locations-and-opening-times/norfolk-and-norwich-millennium-library",
    "id": "node/2640098482"
   },
   "geometry": {
    "type": "Point",
    "coordinates": [
     1.2905996,
     52.6277146
    ]
   }
  },
  {
   "type": "Feature",
   "id": "node/2640098483",
   "properties": {
    "amenity": "library",
    "name": "Express Library",
    "opening_hours": "Mo-Sa 9:00-20:00;Su 10:30-16:30",
    "operator": "Norfolk County Council",
    "website": "https://www.norfolk.gov.uk/libraries-local-history-and-archives/libraries/your-local-library/locations-and-opening-times/norfolk-and-norwich-millennium-library",
    "id": "node/2640098483"
   },
   "geometry": {
    "type": "Point",
    "coordinates": [
     1.2909492,
     52.6279172
    ]
   }
  },
  {
   "type": "Feature",
   "id": "node/2640098484",
   "properties": {
    "amenity": "library",
    "name": "2nd Air Division Memorial Library",
    "opening_hours": "Mo-Sa 9:00-17:00",
    "url": "https://www.norfolk.gov.uk/libraries-local-history-and-archives/libraries/your-local-library/locations-and-opening-times/norfolk-and-norwich-millennium-library",
    "website": "https://www.2ndair.org.uk/",
    "id": "node/2640098484"
   },
   "geometry": {
    "type": "Point",
    "coordinates": [
     1.2906362,
     52.6276021
    ]
   }
  },
  {
   "type": "Feature",
   "id": "node/6219558624",
   "properties": {
    "amenity": "library",
    "internet_access": "no",
    "name": "The Woodbastwick Honesty Library",
    "opening_hours": "24/7",
    "id": "node/6219558624"
   },
   "geometry": {
    "type": "Point",
    "coordinates": [
     1.4446404,
     52.6835002
    ]
   }
  },
  {
   "type": "Feature",
   "id": "way/32697058",
   "properties": {
    "amenity": "library",
    "building": "yes",
    "library:type": "academic",
    "listed_status": "Grade II",
    "name": "UEA Library",
    "operator": "Univresity of East Anglia",
    "wheelchair": "yes",
    "id": "way/32697058"
   },
   "geometry": {
    "type": "Point",
    "coordinates": [
     1.2407922,
     52.6207953
    ]
   }
  },
  {
   "type": "Feature",
   "id": "way/114943356",
   "properties": {
    "addr:city": "Norwich",
    "addr:country": "GB",
    "addr:postcode": "NR4 7HG",
    "addr:street": "Colman Road",
    "amenity": "library",
    "building": "yes",
    "name": "Earlham Library",
    "opening_hours": "Mo 13:00-17:00;Tu-We 10:00-17:00;Th 10:00-19:00;Fr-Sa 10:00-17:00",
    "operator": "Norfolk County Council",
    "parking": "surface",
    "phone": "+44 1603 454338",
    "source": "Bing",
    "toilets": "yes",
    "website": "https://www.norfolk.gov.uk/libraries-local-history-and-archives/libraries/your-local-library/locations-and-opening-times/earlham-library",
    "wheelchair": "yes",
    "wheelchair:description:en": "slope",
    "wikidata": "Q55111095",
    "id": "way/114943356"
   },
   "geometry": {
    "type": "Point",
    "coordinates": [
     1.2605161,
     52.6257733
    ]
   }
  },
  {
   "type": "Feature",
   "id": "way/124759252",
   "properties": {
    "addr:city": "Norwich",
    "addr:country": "GB",
    "addr:housename": "Costessey Library",
    "addr:postcode": "NR5 0RW",
    "addr:street": "Breckland Road",
    "amenity": "library",
    "building": "yes",
    "name": "Costessey Library",
    "opening_hours": "Mo 9:00-13:00,14:00-17:00;Tu 14:00-19:30;We 9:00-13:00,14:00-17:00;Fr 9:00-13:00,14:00-17:00;Sa 9:00-13:00",
    "operator": "Norfolk County Council",
    "phone": "+44 1603 742669",
    "source": "OS_OpenData_StreetView",
    "website": "https://www.norfolk.gov.uk/libraries-local-history-and-archives/libraries/your-local-library/locations-and-opening-times/costessey-library",
    "wheelchair": "yes",
    "wikidata": "Q55111089",
    "id": "way/124759252"
   },
   "geometry": {
    "type": "Point",
    "coordinates": [
     1.2224961,
     52.6465307
    ]
   }
  },
  {
   "type": "Feature",
   "id": "way/131332797",
   "properties": {
    "addr:city": "Norwich",
    "addr:country": "GB",
    "addr:housename": "Tuckswood Library",
    "addr:postcode": "NR4 6BX",
    "addr:street": "Robin Hood Road",
    "amenity": "library",
    "building": "yes",
    "name": "Tuckswood Library",
    "opening_hours": "Tu,Fr 10:00-13:00,14:00-17:00;Sa 10:00-16:00",
    "operator": "Norfolk County Council",
    "parking": "yes",
    "phone": "+44 1603 452038",
    "source": "Bing",
    "toilets": "yes",
    "toilets:disabled": "yes",
    "website": "https://www.norfolk.gov.uk/libraries-local-history-and-archives/libraries/your-local-library/locations-and-opening-times/tuckswood-library",
    "wheelchair": "yes",
    "wikidata": "Q55111148",
    "id": "way/131332797"
   },
   "geometry": {
    "type": "Point",
    "coordinates": [
     1.2809761,
     52.6078128
    ]
   }
  },
  {
   "type": "Feature",
   "id": "way/132696852",
   "properties": {
    "amenity": "library",
    "building": "yes",
    "name": "Mile Cross Library",
    "opening_hours": "Tu 14:00-19:30; We,Th,Fr 10:00-17:30; Sa 10:00-13:00",
    "operator": "Norfolk County Council",
    "phone": "+44 1603 42590",
    "source": "Bing",
    "source:amenity": "OS_OpenData_StreetView",
    "toilets": "yes",
    "toilets:disabled": "yes",
    "website": "https://www.norfolk.gov.uk/libraries-local-history-and-archives/libraries/your-local-library/locations-and-opening-times/mile-cross-library",
    "wheelchair": "yes",
    "wheelchair:note": "slope",
    "wikidata": "Q55111121",
    "id": "way/132696852"
   },
   "geometry": {
    "type": "Point",
    "coordinates": [
     1.2802988,
     52.6499084
    ]
   }
  },
  {
   "type": "Feature",
   "id": "way/134204707",
   "properties": {
    "amenity": "library",
    "building": "yes",
    "name": "Hellesdon Library",
    "opening_hours": "Mo 10:00-13:00; Tu-We 10:00-13:00,14:00-17:00; Th 10:00-13:00,14:00-20:00; Fr 10:00-13:00,14:00-17:00; Sa 10:00-13:00",
    "operator": "Norfolk County Council",
    "parking": "yes",
    "parking:disabled": "yes",
    "phone": "+44 1603 427790",
    "source": "survey",
    "website": "https://www.norfolk.gov.uk/libraries-local-history-and-archives/libraries/your-local-library/locations-and-opening-times/hellesdon-library",
    "wheelchair": "yes",
    "wheelchair:note": "slope",
    "wikidata": "Q55111105",
    "id": "way/134204707"
   },
   "geometry": {
    "type": "Point",
    "coordinates": [
     1.2615372,
     52.6647533
    ]
   }
  },
  {
   "type": "Feature",
   "id": "way/134236906",
   "properties": {
    "addr:city": "Norwich",
    "addr:country": "GB",
    "addr:housename": "Sprowston Library",
    "addr:postcode": "NR7 8EW",
    "addr:street": "Recreation Ground Road",
    "amenity": "library",
    "building": "yes",
    "name": "Sprowston Library",
    "opening_hours": "Tu 09:00-13:00,14:00-20:00; We-Fr 09:00-13:00,14:00-17:00; Sa 10:00-16:00",
    "operator": "Norfolk County Council",
    "parking": "yes",
    "parking:disabled": "yes",
    "phone": "+44 1603 408426",
    "source": "Bing",
    "website": "https://www.norfolk.gov.uk/libraries-local-history-and-archives/libraries/your-local-library/locations-and-opening-times/sprowston-library",
    "wheelchair": "yes",
    "wikidata": "Q55111141",
    "id": "way/134236906"
   },
   "geometry": {
    "type": "Point",
    "coordinates": [
     1.3146891,
     52.6568271
    ]
   }
  },
  {
   "type": "Feature",
   "id": "way/134236909",
   "properties": {
    "addr:city": "Norwich",
    "addr:country": "GB",
    "addr:housename": "St Williams Way Library",
    "addr:postcode": "NR7 0AJ",
    "addr:street": "Williams Loke",
    "amenity": "library",
    "building": "yes",
    "name": "St Williams Way Library",
    "opening_hours": "Mo,Th,Fr 10:00-13:00,14:00-17:00;Tu 14:00-20:00;Sa 10:00-13:00",
    "operator": "Norfolk County Council",
    "phone": "+44 1603 434123",
    "source": "Bing",
    "website": "https://www.norfolk.gov.uk/libraries-local-history-and-archives/libraries/your-local-library/locations-and-opening-times/st-williams-way-library",
    "wheelchair": "yes",
    "wikidata": "Q55111135",
    "id": "way/134236909"
   },
   "geometry": {
    "type": "Point",
    "coordinates": [
     1.3370694,
     52.6372081
    ]
   }
  },
  {
   "type": "Feature",
   "id": "way/255575174",
   "properties": {
    "addr:city": "Norwich",
    "addr:country": "GB",
    "addr:housename": "The Reading Room",
    "addr:postcode": "NR13 4RQ",
    "addr:street": "North Street",
    "amenity": "library",
    "building": "yes",
    "name": "Blofield Library",
    "opening_hours": "Mo 14:00-17:00;We 9:00-13:00,14:00-17:00;Fr-Sa 9:00-13:00",
    "operator": "Norfolk County Council",
    "phone": "+44 1603 712902",
    "toilets_disabled": "yes",
    "website": "https://www.norfolk.gov.uk/libraries-local-history-and-archives/libraries/your-local-library/locations-and-opening-times/blofield-library",
    "wheelchair": "yes",
    "wheelchair:note": "slope",
    "wikidata": "Q55111081",
    "id": "way/255575174"
   },
   "geometry": {
    "type": "Point",
    "coordinates": [
     1.4482778,
     52.635781
    ]
   }
  },
  {
   "type": "Feature",
   "id": "way/255576883",
   "properties": {
    "addr:city": "Norwich",
    "addr:country": "GB",
    "addr:housename": "Brundall Library",
    "addr:housenumber": "90",
    "addr:postcode": "NR13 5LH",
    "addr:street": "The Street",
    "amenity": "library",
    "building": "yes",
    "name": "Brundall Library",
    "opening_hours": "Mo 10:00-13:00;Tu 14:00-19:00;Th 10:00-13:00;Fr 14:00-17:00;Sa 10:00-13:00",
    "operator": "Norfolk County Council",
    "phone": "+44 1603 714576",
    "source": "bing",
    "toilets": "yes",
    "toilets_disabled": "yes",
    "website": "https://www.norfolk.gov.uk/libraries-local-history-and-archives/libraries/your-local-library/locations-and-opening-times/brundall-library",
    "wheelchair": "yes",
    "wheelchair:note": "slope",
    "wikidata": "Q55111087",
    "id": "way/255576883"
   },
   "geometry": {
    "type": "Point",
    "coordinates": [
     1.4317739,
     52.6250407
    ]
   }
  },
  {
   "type": "Feature",
   "id": "way/257924157",
   "properties": {
    "addr:city": "Norwich",
    "addr:country": "GB",
    "addr:housenumber": "40",
    "addr:postcode": "NR9 3DB",
    "addr:street": "Queens Road",
    "amenity": "library",
    "building": "yes",
    "email": "libraries@norfolk.gov.uk",
    "facebook": "https://www.facebook.com/HethersettLibrary",
    "name": "Hethersett Library",
    "opening_hours": "Mo,We,Fr 10:00-13:00,14:00-17:00; Th 14:00-19:00; Sa 10:00-14:00; Su off",
    "operator": "Norfolk County Council",
    "parking": "yes",
    "parking_disabled": "yes",
    "website": "https://www.norfolk.gov.uk/libraries-local-history-and-archives/libraries/your-local-library/locations-and-opening-times/hethersett-library",
    "wheelchair": "yes",
    "wikidata": "Q55111106",
    "id": "way/257924157"
   },
   "geometry": {
    "type": "Point",
    "coordinates": [
     1.1814679,
     52.5994594
    ]
   }
  },
  {
   "type": "Feature",
   "id": "way/258688296",
   "properties": {
    "addr:city": "Norwich",
    "addr:country": "GB",
    "addr:housename": "Plumstead Road Library",
    "addr:postcode": "NR1 4JS",
    "addr:street": "Plumstead Road",
    "amenity": "library",
    "building": "yes",
    "name": "Plumstead Road Library",
    "opening_hours": "Tu,Th 13:00-19:00;We,Fr 10:00-13:00,14:00-17:00;Sa 10:00-15:30",
    "operator": "Norfolk County Council",
    "phone": "+44 1603 433455",
    "toilets": "yes",
    "toilets:disabled": "yes",
    "website": "https://www.norfolk.gov.uk/libraries-local-history-and-archives/libraries/your-local-library/locations-and-opening-times/plumstead-road-library",
    "wheelchair": "yes",
    "wikidata": "Q55111131",
    "id": "way/258688296"
   },
   "geometry": {
    "type": "Point",
    "coordinates": [
     1.3217551,
     52.6353962
    ]
   }
  },
  {
   "type": "Feature",
   "id": "way/259022459",
   "properties": {
    "addr:city": "Norwich",
    "addr:country": "GB",
    "addr:housename": "Taverham Library",
    "addr:postcode": "NR8 6JR",
    "addr:street": "Sandy Lane",
    "amenity": "library",
    "name": "Taverham Library",
    "opening_hours": "Mo,Fr 9:00-13:00,14:00-17:00;Tu,Sa 9:00-13:00;We 14:00-17:00;Th 14:00-20:00",
    "operator": "Norfolk County Council",
    "parking": "yes",
    "parking:disabled": "yes",
    "phone": "+44 1603 260545",
    "website": "https://www.norfolk.gov.uk/libraries-local-history-and-archives/libraries/your-local-library/locations-and-opening-times/taverham-library",
    "wheelchair": "yes",
    "wikidata": "Q55111146",
    "id": "way/259022459"
   },
   "geometry": {
    "type": "Point",
    "coordinates": [
     1.1953333,
     52.6815072
    ]
   }
  },
  {
   "type": "Feature",
   "id": "way/700132754",
   "properties": {
    "addr:city": "Norwich",
    "addr:country": "GB",
    "addr:housename": "West Earlham Library",
    "addr:housenumber": "17,18",
    "addr:postcode": "NR5 8AD",
    "addr:street": "Earlham West Centre",
    "amenity": "library",
    "building": "yes",
    "level": "0",
    "name": "West Earlham Library",
    "opening_hours": "Tu,Th 9:00-13:00,13:00-18:00;Sa 9:00-13:00",
    "operator": "Norfolk County Council",
    "parking": "yes",
    "parking:disabled": "yes",
    "phone": "+44 1603 451881",
    "toilets:disabled": "yes",
    "website": "https://www.norfolk.gov.uk/libraries-local-history-and-archives/libraries/your-local-library/locations-and-opening-times/earlham-library",
    "wheelchair": "yes",
    "wikidata": "Q55111152",
    "id": "way/700132754"
   },
   "geometry": {
    "type": "Point",
    "coordinates": [
     1.2407774,
     52.6316703
    ]
   }
  }
 ]
}