{
 "type": "FeatureCollection",
 "features": [
  {
   "type": "Feature",
   "id": "node/283315934",
   "properties": {
    "addr:postcode": "NR13 3JQ",
    "amenity": "pub",
    "name": "Cantley Cock",
    "opening_hours": "Mo-Sa 11:30-15:00,18:00-23:30, Su 11:30-23:30",
    "id": "node/283315934",
    "mapFeature": {
     "caption": "Cantley Cock",
     "allowPopup": true,
     "location": "  \n  NR13 3JQ <br />\n  \n  \n  ",
     "layers": [
      "food"
     ]
    }
   },
   "geometry": {
    "type": "Point",
    "coordinates": [
     1.512577,
     52.5979905
    ]
   }
  },
  {
   "type": "Feature",
   "id": "node/904071475",
   "properties": {
    "addr:city": "Norwich",
    "addr:country": "GB",
    "addr:postcode": "NR1 1DX",
    "addr:street": "Prince of Wales Road",
    "amenity": "pub",
    "brand": "Table Table",
    "fhrs:id": "26652",
    "food": "yes",
    "internet_access": "wlan",
    "internet_access:fee": "no",
    "name": "The Nelson",
    "opening_hours": "Mo-Fr 06:30-23:00; Sa 07:00-23:30; Su 07:00-22:30",
    "outdoor_seating": "yes",
    "phone": "+44 1603 214438",
    "real_ale": "2",
    "real_cider": "no",
    "website": "https://www.tabletable.co.uk/pub-restaurants/Norfolk/Nelson-Norwich.html",
    "wheelchair": "yes",
    "id": "node/904071475",
    "mapFeature": {
     "caption": "The Nelson",
     "allowPopup": true,
     "location": " Prince of Wales Road  \n  NR1 1DX <br />\n  \n  Wheelchair accessible \n  ",
     "layers": [
      "food"
     ]
    }
   },
   "geometry": {
    "type": "Point",
    "coordinates": [
     1.3052202,
     52.6276473
    ]
   }
  },
  {
   "type": "Feature",
   "id": "node/1596090319",
   "properties": {
    "addr:city": "Norwich",
    "addr:country": "GB",
    "addr:housename": "The New Inn",
    "addr:housenumber": "12",
    "addr:postcode": "NR14 7HP",
    "addr:street": "New Inn Hill",
    "amenity": "pub",
    "email": "mick@newinnrockland.co.uk",
    "fhrs:id": "758706",
    "name": "The New Inn",
    "phone": "+44 1508 538403",
    "website": "http://www.newinnrockland.co.uk/",
    "id": "node/1596090319",
    "mapFeature": {
     "caption": "The New Inn",
     "allowPopup": true,
     "location": "12  New Inn Hill  \n  NR14 7HP <br />\n  \n  \n  ",
     "layers": [
      "food"
     ]
    }
   },
   "geometry": {
    "type": "Point",
    "coordinates": [
     1.4352557,
     52.5892126
    ]
   }
  },
  {
   "type": "Feature",
   "id": "node/1824086018",
   "properties": {
    "amenity": "pub",
    "name": "The Town House",
    "opening_hours": "11:00-23:00",
    "real_ale": "2",
    "real_cider": "yes",
    "id": "node/1824086018",
    "mapFeature": {
     "caption": "The Town House",
     "allowPopup": true,
     "location": "  \n  <br />\n  \n  \n  ",
     "layers": [
      "food"
     ]
    }
   },
   "geometry": {
    "type": "Point",
    "coordinates": [
     1.3334365,
     52.6265658
    ]
   }
  },
  {
   "type": "Feature",
   "id": "node/3525893754",
   "properties": {
    "amenity": "pub",
    "name": "Coldham Hall Pub",
    "opening_hours": "Mo-Sa 12:00-23:00, Su 12:00-21:00",
    "outdoor_seating": "yes",
    "real_ale": "4",
    "source": "survey",
    "id": "node/3525893754",
    "mapFeature": {
     "caption": "Coldham Hall Pub",
     "allowPopup": true,
     "location": "  \n  <br />\n  \n  \n  ",
     "layers": [
      "food"
     ]
    }
   },
   "geometry": {
    "type": "Point",
    "coordinates": [
     1.4321859,
     52.612324
    ]
   }
  },
  {
   "type": "Feature",
   "id": "way/68709790",
   "properties": {
    "addr:city": "Norwich",
    "addr:country": "GB",
    "addr:housenumber": "12",
    "addr:postcode": "NR9 3DD",
    "addr:street": "Norwich Road",
    "amenity": "pub",
    "building": "yes",
    "email": "qh@queensheadhethersett.co.uk",
    "kitchen_hours": "Mo-Th 11:45-14:00,18:00-20:30; Fr-Sa 11:45-14:15,17:30-21:30; Su 12:00+, 14:00+, 17:00-20:30",
    "name": "The Queen's Head",
    "opening_hours": "Mo-Th 11:00-00:00; Fr-Sa 11:00-00:30; Su 11:00-23:30; Dec 24 11:00-00:30; Dec 25 11:00-23:30; Dec 31 11:00-02:30; Jan 1 11:00-00:30",
    "outdoor_seating": "yes",
    "phone": "+44 1603 810226",
    "website": "http://www.queensheadhethersett.co.uk/",
    "id": "way/68709790",
    "mapFeature": {
     "caption": "The Queen's Head",
     "allowPopup": true,
     "location": "12  Norwich Road  \n  NR9 3DD <br />\n  \n  \n  ",
     "layers": [
      "food"
     ]
    }
   },
   "geometry": {
    "type": "Point",
    "coordinates": [
     1.1834031,
     52.5983659
    ]
   }
  },
  {
   "type": "Feature",
   "id": "way/71297069",
   "properties": {
    "addr:city": "Norwich",
    "addr:country": "GB",
    "addr:housenumber": "52",
    "addr:postcode": "NR4 7LD",
    "addr:street": "Eaton Street",
    "amenity": "pub",
    "building": "house",
    "email": "admin@redlion-eaton.co.uk",
    "fhrs:id": "24888",
    "kitchen_hours": "Mo-Sa 08:00-10:00,12:00-14:15,18:30-21:00; Su 08:00-10:00,12:00-17:00, 18:00-20:30",
    "name": "The Red Lion",
    "opening_hours": "Mo-Sa 11:00-00:00; Su 12:00-00:00",
    "phone": "+44 1603 454787",
    "real_ale": "4",
    "real_cider": "no",
    "website": "https://www.redlion-eaton.co.uk/",
    "wikidata": "Q17531341",
    "id": "way/71297069",
    "mapFeature": {
     "caption": "The Red Lion",
     "allowPopup": true,
     "location": "52  Eaton Street  \n  NR4 7LD <br />\n  \n  \n  ",
     "layers": [
      "food"
     ]
    }
   },
   "geometry": {
    "type": "Point",
    "coordinates": [
     1.2505396,
     52.608161
    ]
   }
  },
  {
   "type": "Feature",
   "id": "way/71297151",
   "properties": {
    "addr:city": "Norwich",
    "addr:country": "GB",
    "addr:housename": "The Cellar House",
    "addr:housenumber": "2",
    "addr:postcode": "NR4 7AB",
    "addr:street": "Eaton Street",
    "amenity": "pub",
    "brand": "Enterprise Inns",
    "building": "house",
    "email": "thecellarhouse@gmail.com",
    "fax": "+44 1603 250512",
    "fhrs:id": "770694",
    "internet_access": "wlan",
    "kitchen_hours": "Mo-Fr 12:00-21:00; Sa 09:30-11:00,12:00-14:30,17:30-21:00; Su 09:30-11:00,12:00-20:00",
    "name": "The Cellar House",
    "old_name": "The Two Brewers",
    "opening_hours": "Mo-Th 11:00-23:00; Fr 11:00-00:00; Sa 12:00-21:00; Su 09:30-22:00+",
    "outdoor_seating": "yes",
    "phone": "+44 1603 454511",
    "real_ale": "6",
    "real_cider": "no",
    "start_date": "2013-04-15",
    "website": "http://thecellarhouse.co.uk/",
    "wikidata": "Q26653861",
    "id": "way/71297151",
    "mapFeature": {
     "caption": "The Cellar House",
     "allowPopup": true,
     "location": "2  Eaton Street  \n  NR4 7AB <br />\n  \n  \n  ",
     "layers": [
      "food"
     ]
    }
   },
   "geometry": {
    "type": "Point",
    "coordinates": [
     1.2527899,
     52.6089487
    ]
   }
  },
  {
   "type": "Feature",
   "id": "way/93447444",
   "properties": {
    "addr:city": "Norwich",
    "addr:country": "GB",
    "addr:housename": "The Brickmakers Live Music Venue",
    "addr:housenumber": "496",
    "addr:postcode": "NR3 4DY",
    "addr:street": "Sprowston Road",
    "amenity": "pub",
    "building": "house",
    "email": "info@thebrickmakers.com",
    "fhrs:id": "67958",
    "internet_access": "wlan",
    "name": "The Brickmakers",
    "opening_hours": "Su-Th 12:00-00:30; Fr-Sa 12:00-01:30",
    "phone": "+44 1603 441118",
    "real_ale": "2",
    "real_cider": "no",
    "website": "https://www.thebrickmakers.com/",
    "id": "way/93447444",
    "mapFeature": {
     "caption": "The Brickmakers",
     "allowPopup": true,
     "location": "496  Sprowston Road  \n  NR3 4DY <br />\n  \n  \n  ",
     "layers": [
      "food"
     ]
    }
   },
   "geometry": {
    "type": "Point",
    "coordinates": [
     1.3098352,
     52.6515286
    ]
   }
  },
  {
   "type": "Feature",
   "id": "way/100168528",
   "properties": {
    "addr:city": "Norwich",
    "addr:country": "GB",
    "addr:housenumber": "5",
    "addr:postcode": "NR1 3QB",
    "addr:street": "Orford Hill",
    "amenity": "pub",
    "brand": "JD Wetherspoon",
    "building": "yes",
    "fhrs:id": "54943",
    "internet_access": "wlan",
    "internet_access:fee": "no",
    "kitchen_hours": "21:00-23:00",
    "name": "The Bell Hotel",
    "note": "Reopened after refurbishment Tue 25th July 2017",
    "opening_hours": "08:00-00:00",
    "operator": "J D Wetherspoon",
    "phone": "+44 1603 630017",
    "real_ale": "12",
    "real_cider": "no",
    "start_date": "1696",
    "website": "https://www.jdwetherspoon.com/pubs/all-pubs/england/norfolk/the-bell-hotel-norwich",
    "wikidata": "Q26303746",
    "id": "way/100168528",
    "mapFeature": {
     "caption": "The Bell Hotel",
     "allowPopup": true,
     "location": "5  Orford Hill  \n  NR1 3QB <br />\n  \n  \n  ",
     "layers": [
      "food"
     ]
    }
   },
   "geometry": {
    "type": "Point",
    "coordinates": [
     1.2952033,
     52.6272467
    ]
   }
  },
  {
   "type": "Feature",
   "id": "way/101270213",
   "properties": {
    "addr:city": "Norwich",
    "addr:country": "GB",
    "addr:housename": "The Bluberry Music House",
    "addr:housenumber": "20",
    "addr:postcode": "NR3 1SY",
    "addr:street": "Cowgate",
    "alt_name": "The Blueberry Music House",
    "amenity": "pub",
    "building": "house",
    "email": "theblueberrybookings@hotmail.com",
    "fhrs:id": "470787",
    "name": "The Blueberry",
    "old_name": "St. Paul's Tavern",
    "opening_hours": "Mo-Th 12:00-23:00; Fr-Sa 12:00-01:00; Su 12:00-22:30",
    "phone": "+44 1603 475001",
    "real_ale": "1",
    "real_cider": "no",
    "website": "http://www.blueberrymusichouse.co.uk/",
    "id": "way/101270213",
    "mapFeature": {
     "caption": "The Blueberry",
     "allowPopup": true,
     "location": "20  Cowgate  \n  NR3 1SY <br />\n  \n  \n  ",
     "layers": [
      "food"
     ]
    }
   },
   "geometry": {
    "type": "Point",
    "coordinates": [
     1.2972873,
     52.6365249
    ]
   }
  },
  {
   "type": "Feature",
   "id": "way/103025547",
   "properties": {
    "addr:city": "Norwich",
    "addr:country": "GB",
    "addr:postcode": "NR5 8AZ",
    "addr:street": "Gipsy Lane",
    "amenity": "pub",
    "brand": "Sizzlers Inns",
    "building": "house",
    "fhrs:id": "1070660",
    "name": "The Fiveways",
    "opening_hours": "Mo-Sa 12:00-23:00; Su 12:00-22:30",
    "phone": "+44 1603 452854",
    "real_ale": "2",
    "real_cider": "no",
    "id": "way/103025547",
    "mapFeature": {
     "caption": "The Fiveways",
     "allowPopup": true,
     "location": " Gipsy Lane  \n  NR5 8AZ <br />\n  \n  \n  ",
     "layers": [
      "food"
     ]
    }
   },
   "geometry": {
    "type": "Point",
    "coordinates": [
     1.2485787,
     52.629271
    ]
   }
  },
  {
   "type": "Feature",
   "id": "way/103273686",
   "properties": {
    "addr:city": "Norwich",
    "addr:country": "GB",
    "addr:housenumber": "61",
    "addr:postcode": "NR3 3BG",
    "addr:street": "St Augustines Street",
    "amenity": "pub",
    "building": "house",
    "email": "website@inthewheel.co.uk",
    "fhrs:id": "14498",
    "gay": "yes",
    "lgbtq": "primary",
    "name": "The Catherine Wheel",
    "opening_hours": "Mo off; Su,Tu-Th 17:00-00:00; Fr-Sa 17:00-03:00",
    "phone": "+44 1603 627852",
    "real_ale": "no",
    "website": "http://www.inthewheel.co.uk/",
    "wikidata": "Q26579089",
    "id": "way/103273686",
    "mapFeature": {
     "caption": "The Catherine Wheel",
     "allowPopup": true,
     "location": "61  St Augustines Street  \n  NR3 3BG <br />\n  \n  \n  ",
     "layers": [
      "food"
     ]
    }
   },
   "geometry": {
    "type": "Point",
    "coordinates": [
     1.2917317,
     52.638351
    ]
   }
  },
  {
   "type": "Feature",
   "id": "way/103522682",
   "properties": {
    "addr:city": "Norwich",
    "addr:country": "GB",
    "addr:housename": "Unit 7a",
    "addr:postcode": "NR1 1WX",
    "addr:street": "Wherry Road",
    "amenity": "pub",
    "building": "retail",
    "cuisine": "latin",
    "email": "norwich@iguanas.co.uk",
    "fhrs:id": "915724",
    "name": "Las Iguanas",
    "opening_hours": "Mo-Th 12:00-23:00; Fr-Sa 12:00-23:30; Su 12:00-22:30",
    "phone": "+44 1603 633715",
    "website": "https://www.iguanas.co.uk/locations/norwich",
    "id": "way/103522682",
    "mapFeature": {
     "caption": "Las Iguanas",
     "allowPopup": true,
     "location": " Wherry Road  \n  NR1 1WX <br />\n  \n  \n  ",
     "layers": [
      "food"
     ]
    }
   },
   "geometry": {
    "type": "Point",
    "coordinates": [
     1.3042115,
     52.6251782
    ]
   }
  },
  {
   "type": "Feature",
   "id": "way/105334128",
   "properties": {
    "addr:city": "Norwich",
    "addr:country": "GB",
    "addr:housenumber": "180",
    "addr:postcode": "NR1 4JZ",
    "addr:street": "Plumstead Road",
    "amenity": "pub",
    "brand": "John Barras",
    "building": "house",
    "email": "heartsease@johnbarras.com",
    "fhrs:id": "530203",
    "name": "The Heartsease",
    "opening_hours": "Mo-Th 11:30-23:00; Fr-Sa 11:30-00:00; Su 11:30-22:30",
    "phone": "+44 1603 433673",
    "real_ale": "no",
    "start_date": "2012",
    "website": "http://www.johnbarras.com/",
    "id": "way/105334128",
    "mapFeature": {
     "caption": "The Heartsease",
     "allowPopup": true,
     "location": "180  Plumstead Road  \n  NR1 4JZ <br />\n  \n  \n  ",
     "layers": [
      "food"
     ]
    }
   },
   "geometry": {
    "type": "Point",
    "coordinates": [
     1.3281608,
     52.6368186
    ]
   }
  },
  {
   "type": "Feature",
   "id": "way/105854403",
   "properties": {
    "addr:city": "Norwich",
    "addr:country": "GB",
    "addr:housenumber": "50",
    "addr:postcode": "NR4 7EH",
    "addr:street": "Colman Road",
    "amenity": "pub",
    "brand": "Punch Taverns",
    "building": "amenity",
    "fhrs:id": "433862",
    "internet_access": "wlan",
    "name": "The Farmhouse",
    "old_name": "The Farmhouse Tavern",
    "opening_hours": "Mo-Fr 12:00-23:00; Sa-Su 12:00-00:00",
    "outdoor_seating": "yes",
    "phone": "+44 1603 454364",
    "real_ale": "yes",
    "source": "Bing",
    "wheelchair": "yes",
    "id": "way/105854403",
    "mapFeature": {
     "caption": "The Farmhouse",
     "allowPopup": true,
     "location": "50  Colman Road  \n  NR4 7EH <br />\n  \n  Wheelchair accessible \n  ",
     "layers": [
      "food"
     ]
    }
   },
   "geometry": {
    "type": "Point",
    "coordinates": [
     1.2636521,
     52.6211847
    ]
   }
  },
  {
   "type": "Feature",
   "id": "way/108415768",
   "properties": {
    "addr:city": "Norwich",
    "addr:country": "GB",
    "addr:housenumber": "79",
    "addr:postcode": "NR1 4AA",
    "addr:street": "Bishopgate",
    "amenity": "pub",
    "brand": "Enterprise Inns",
    "building": "yes",
    "fhrs:id": "427515",
    "kitchen_hours": "Mo-Tu 12:00-14:30; We-Sa 12:00-14:45; Su 12:00-17:00",
    "name": "The Red Lion",
    "opening_hours": "11:00-23:00",
    "outdoor_seating": "yes",
    "phone": "+44 1603 620154",
    "real_ale": "yes",
    "id": "way/108415768",
    "mapFeature": {
     "caption": "The Red Lion",
     "allowPopup": true,
     "location": "79  Bishopgate  \n  NR1 4AA <br />\n  \n  \n  ",
     "layers": [
      "food"
     ]
    }
   },
   "geometry": {
    "type": "Point",
    "coordinates": [
     1.3083908,
     52.632593
    ]
   }
  },
  {
   "type": "Feature",
   "id": "way/108609314",
   "properties": {
    "addr:city": "Norwich",
    "addr:country": "GB",
    "addr:housenumber": "49",
    "addr:postcode": "NR2 4NA",
    "addr:street": "West End Street",
    "amenity": "pub",
    "brewery": "Fat Cat",
    "building": "house",
    "dog": "yes",
    "email": "pints@fatcatpub.co.uk",
    "fhrs:id": "77383",
    "internet_access": "wlan",
    "name": "The Fat Cat",
    "off_licence": "yes",
    "old_name": "New Inn",
    "opening_hours": "Su-We 12:00-23:00; Th-Fr 12:00-00:00; Sa 11:00-00:00",
    "phone": "+44 1603 624364",
    "real_ale": "32",
    "real_cider": "6",
    "source": "Bing",
    "website": "http://www.fatcatpub.co.uk/",
    "wikidata": "Q23305498",
    "id": "way/108609314",
    "mapFeature": {
     "caption": "The Fat Cat",
     "allowPopup": true,
     "location": "49  West End Street  \n  NR2 4NA <br />\n  \n  \n  ",
     "layers": [
      "food"
     ]
    }
   },
   "geometry": {
    "type": "Point",
    "coordinates": [
     1.2756002,
     52.6351066
    ]
   }
  },
  {
   "type": "Feature",
   "id": "way/110375803",
   "properties": {
    "addr:housenumber": "18",
    "addr:postcode": "NR13 6DQ",
    "addr:street": "The Street",
    "addr:village": "South Walsham",
    "amenity": "pub",
    "building": "house",
    "fhrs:id": "42311",
    "name": "The Ship",
    "source:addr": "FHRS Open Data",
    "id": "way/110375803",
    "mapFeature": {
     "caption": "The Ship",
     "allowPopup": true,
     "location": "18  The Street  \n  NR13 6DQ <br />\n  \n  \n  ",
     "layers": [
      "food"
     ]
    }
   },
   "geometry": {
    "type": "Point",
    "coordinates": [
     1.4957804,
     52.6646119
    ]
   }
  },
  {
   "type": "Feature",
   "id": "way/112467622",
   "properties": {
    "addr:city": "Norwich",
    "addr:country": "GB",
    "addr:housenumber": "73",
    "addr:postcode": "NR3 3AQ",
    "addr:street": "Oak Street",
    "amenity": "pub",
    "brewery": "Milton Brewery",
    "building": "house",
    "fhrs:id": "1157755",
    "name": "The White Lion",
    "note": "Sunday roast served until it runs out",
    "old_name": "Old White Lion;Tap & Spile",
    "opening_hours": "Mo-Sa 12:00-23:00; Su 12:00-22:30",
    "opening_hours:kitchen": "Tu-Fr 18:00-22:00; Sa 12:00-22:00; Su 12:00-16:00",
    "phone": "+44 1603 632333",
    "real_ale": "9",
    "real_cider": "yes",
    "source": "Bing",
    "website": "https://www.individualpubs.co.uk/whitelion/",
    "id": "way/112467622",
    "mapFeature": {
     "caption": "The White Lion",
     "allowPopup": true,
     "location": "73  Oak Street  \n  NR3 3AQ <br />\n  \n  \n  ",
     "layers": [
      "food"
     ]
    }
   },
   "geometry": {
    "type": "Point",
    "coordinates": [
     1.2892034,
     52.6349435
    ]
   }
  },
  {
   "type": "Feature",
   "id": "way/112467632",
   "properties": {
    "addr:city": "Norwich",
    "addr:country": "GB",
    "addr:housenumber": "2",
    "addr:postcode": "NR3 1DJ",
    "addr:street": "Muspole Street",
    "amenity": "pub",
    "building": "yes",
    "email": "info@woolpackyard.co.uk",
    "fhrs:id": "977299",
    "kitchen_hours": "Mo-Sa 12:00-15:00,18:00-21:00; Su off",
    "name": "Woolpack Yard",
    "old_name": "The Woolie;The Woolpack",
    "opening_hours": "Mo-Sa 12:00-23:00; Su 12:00-22:30",
    "outdoor_seating": "yes",
    "phone": "+44 1603 219544",
    "real_ale": "2",
    "real_cider": "no",
    "source": "Bing",
    "website": "http://www.woolpackyard.co.uk/",
    "wikidata": "Q26513810",
    "id": "way/112467632",
    "mapFeature": {
     "caption": "Woolpack Yard",
     "allowPopup": true,
     "location": "2  Muspole Street  \n  NR3 1DJ <br />\n  \n  \n  ",
     "layers": [
      "food"
     ]
    }
   },
   "geometry": {
    "type": "Point",
    "coordinates": [
     1.2932832,
     52.6332046
    ]
   }
  },
  {
   "type": "Feature",
   "id": "way/112817872",
   "properties": {
    "addr:city": "Norwich",
    "addr:country": "GB",
    "addr:housenumber": "8",
    "addr:postcode": "NR3 1HZ",
    "addr:street": "Fye Bridge Street",
    "amenity": "pub",
    "brand": "Wessex Taverns",
    "building": "house",
    "fhrs:id": "25693",
    "name": "The Mischief",
    "opening_hours": "Mo-Sa 12:00-23:00; Su 12:00-22:30",
    "phone": "+44 1603 623810",
    "real_ale": "2",
    "real_cider": "no",
    "source": "Bing",
    "id": "way/112817872",
    "mapFeature": {
     "caption": "The Mischief",
     "allowPopup": true,
     "location": "8  Fye Bridge Street  \n  NR3 1HZ <br />\n  \n  \n  ",
     "layers": [
      "food"
     ]
    }
   },
   "geometry": {
    "type": "Point",
    "coordinates": [
     1.2967929,
     52.633003
    ]
   }
  },
  {
   "type": "Feature",
   "id": "way/114791476",
   "properties": {
    "addr:city": "Norwich",
    "addr:country": "GB",
    "addr:housenumber": "33",
    "addr:postcode": "NR2 2HN",
    "addr:street": "Newmarket Road",
    "amenity": "pub",
    "building": "house",
    "dog": "leashed",
    "email": "info@theeaglepub.co.uk",
    "fax": "+44 1603 624173",
    "fhrs:id": "769020",
    "kitchen_hours": "Mo-Th 12:00-14:00,18:00-21:00; Fr-Sa 12:00-14:30,18:00-21:30; Su 12:30-17:00",
    "name": "The Eagle",
    "opening_hours": "Mo-Fr 11:00-23:00; Sa-Su 09:00-23:00",
    "phone": "+44 1603 624173",
    "real_ale": "4",
    "real_cider": "no",
    "website": "http://www.theeaglepub.co.uk/",
    "wikidata": "Q26513820",
    "id": "way/114791476",
    "mapFeature": {
     "caption": "The Eagle",
     "allowPopup": true,
     "location": "33  Newmarket Road  \n  NR2 2HN <br />\n  \n  \n  ",
     "layers": [
      "food"
     ]
    }
   },
   "geometry": {
    "type": "Point",
    "coordinates": [
     1.2836683,
     52.6203503
    ]
   }
  },
  {
   "type": "Feature",
   "id": "way/115093428",
   "properties": {
    "addr:city": "Norwich",
    "addr:country": "GB",
    "addr:housenumber": "30",
    "addr:postcode": "NR4 7PJ",
    "addr:street": "Leopold Road",
    "amenity": "pub",
    "building": "house",
    "email": "askerridge@talktalk.net",
    "fhrs:id": "39565",
    "internet_access": "wlan",
    "internet_access:fee": "no",
    "name": "The Beehive",
    "opening_hours": "Su-Th 12:00-23:00; Fr-Sa 12:00-00:00",
    "outdoor_seating": "yes",
    "phone": "+44 1603 451628",
    "real_ale": "6",
    "real_cider": "yes",
    "website": "http://www.beehivepubnorwich.co.uk/",
    "id": "way/115093428",
    "mapFeature": {
     "caption": "The Beehive",
     "allowPopup": true,
     "location": "30  Leopold Road  \n  NR4 7PJ <br />\n  \n  \n  ",
     "layers": [
      "food"
     ]
    }
   },
   "geometry": {
    "type": "Point",
    "coordinates": [
     1.2676087,
     52.6174992
    ]
   }
  },
  {
   "type": "Feature",
   "id": "way/115852816",
   "properties": {
    "addr:city": "Norwich",
    "addr:country": "GB",
    "addr:housename": "The Crown Point Tavern",
    "addr:postcode": "NR14 8RN",
    "addr:street": "Kirby Road",
    "amenity": "pub",
    "brand": "Enterprise Inns",
    "building": "house",
    "email": "crownpointtavern@btinternet.com",
    "fhrs:id": "647916",
    "kitchen_hours": "Mo-Sa 11:30-13:45,17:30-20:45; Su 11:30-16:00,17:30-20:45",
    "name": "Crown Point Tavern",
    "opening_hours": "Mo-Sa 11:00-14:30,17:30-20:45+; Su 11:30-20:45+",
    "phone": "+44 1603 625689",
    "real_ale": "2",
    "real_cider": "no",
    "website": "https://www.crownpointtavern.co.uk/",
    "wheelchair": "yes",
    "wikidata": "Q26593166",
    "id": "way/115852816",
    "mapFeature": {
     "caption": "Crown Point Tavern",
     "allowPopup": true,
     "location": " Kirby Road  \n  NR14 8RN <br />\n  \n  Wheelchair accessible \n  ",
     "layers": [
      "food"
     ]
    }
   },
   "geometry": {
    "type": "Point",
    "coordinates": [
     1.3220997,
     52.6110405
    ]
   }
  },
  {
   "type": "Feature",
   "id": "way/115852825",
   "properties": {
    "addr:city": "Norwich",
    "addr:country": "GB",
    "addr:housename": "The White Horse Inn",
    "addr:postcode": "NR14 8ST",
    "addr:street": "The Street",
    "amenity": "pub",
    "building": "house",
    "email": "info@whitehorsepub.co.uk",
    "fax": "+44 1603 66300",
    "fhrs:id": "647679",
    "internet_access": "wlan",
    "kitchen_hours": "Mo-Fr 12:00-14:00,17:30-20:30; Sa 12:00-20:30; Su 12:00-18:00",
    "name": "The White Horse",
    "opening_hours": "Mo-Sa 11:30-23:00; Su 12:00-22:30",
    "phone": "+44 1603 622341",
    "real_ale": "4",
    "real_cider": "no",
    "website": "http://www.whitehorsepub.co.uk/",
    "id": "way/115852825",
    "mapFeature": {
     "caption": "The White Horse",
     "allowPopup": true,
     "location": " The Street  \n  NR14 8ST <br />\n  \n  \n  ",
     "layers": [
      "food"
     ]
    }
   },
   "geometry": {
    "type": "Point",
    "coordinates": [
     1.3176952,
     52.6124651
    ]
   }
  },
  {
   "type": "Feature",
   "id": "way/116120896",
   "properties": {
    "addr:city": "Norwich",
    "addr:country": "GB",
    "addr:housenumber": "82",
    "addr:postcode": "NR1 1BA",
    "addr:street": "Thorpe Road",
    "amenity": "pub",
    "brand": "Chalk Hill",
    "building": "house",
    "email": "info@thecoachthorperoad.co.uk",
    "fhrs:id": "73496",
    "kitchen_hours": "Mo-Sa 12:00-21:30; Su 11:00-21:00",
    "name": "The Coach and Horses",
    "opening_hours": "Mo-Th 11:00-00:00; Fr-Sa 11:00-01:00; Su 11:00-00:00",
    "phone": "+44 1603 477077",
    "real_ale": "6",
    "real_cider": "2",
    "website": "http://www.thecoachthorperoad.co.uk/",
    "wikidata": "Q26578583",
    "id": "way/116120896",
    "mapFeature": {
     "caption": "The Coach and Horses",
     "allowPopup": true,
     "location": "82  Thorpe Road  \n  NR1 1BA <br />\n  \n  \n  ",
     "layers": [
      "food"
     ]
    }
   },
   "geometry": {
    "type": "Point",
    "coordinates": [
     1.3109919,
     52.6270042
    ]
   }
  },
  {
   "type": "Feature",
   "id": "way/116394455",
   "properties": {
    "addr:city": "Norwich",
    "addr:country": "GB",
    "addr:housenumber": "391",
    "addr:postcode": "NR5 8QJ",
    "addr:street": "Dereham Road",
    "alt_name": "Gate House",
    "amenity": "pub",
    "building": "house",
    "fhrs:id": "14335",
    "name": "Gatehouse",
    "opening_hours": "Su-Fr 12:00-23:00; Sa 12:00-00:00",
    "outdoor_seating": "yes",
    "phone": "+44 1603 620340",
    "real_ale": "5",
    "real_cider": "no",
    "source": "Bing",
    "toilets:wheelchair": "no",
    "wheelchair": "limited",
    "wikidata": "Q21008659",
    "id": "way/116394455",
    "mapFeature": {
     "caption": "Gatehouse",
     "allowPopup": true,
     "location": "391  Dereham Road  \n  NR5 8QJ <br />\n  \n  Limited wheelchair access \n  ",
     "layers": [
      "food"
     ]
    }
   },
   "geometry": {
    "type": "Point",
    "coordinates": [
     1.2572436,
     52.6376529
    ]
   }
  },
  {
   "type": "Feature",
   "id": "way/116597787",
   "properties": {
    "addr:city": "Norwich",
    "addr:country": "GB",
    "addr:housenumber": "7",
    "addr:postcode": "NR3 1HF",
    "addr:street": "Tombland",
    "amenity": "pub",
    "brand": "Enterprise Inns",
    "building": "house",
    "fhrs:id": "460075",
    "kitchen_hours": "17:00-22:00",
    "name": "Cavell’s",
    "old_name": "Edith Cavell; Coles; Army & Navy Stores",
    "opening_hours": "Mo-Th 11:00-23:30; Fr-Sa 09:00-01:00; Su 12:00-23:00",
    "phone": "+44 1603 765813",
    "real_ale": "yes",
    "website": "http://primeattheedithcavell.co.uk/",
    "id": "way/116597787",
    "mapFeature": {
     "caption": "Cavell’s",
     "allowPopup": true,
     "location": "7  Tombland  \n  NR3 1HF <br />\n  \n  \n  ",
     "layers": [
      "food"
     ]
    }
   },
   "geometry": {
    "type": "Point",
    "coordinates": [
     1.2987471,
     52.6311455
    ]
   }
  },
  {
   "type": "Feature",
   "id": "way/116709459",
   "properties": {
    "addr:city": "Norwich",
    "addr:country": "GB",
    "addr:housenumber": "1",
    "addr:postcode": "NR2 3HD",
    "addr:street": "Pembroke Road",
    "amenity": "pub",
    "brand": "Star",
    "building": "house",
    "email": "james@gardenhousepub.co.uk",
    "fhrs:id": "853738",
    "internet_access": "wlan",
    "kitchen_hours": "Mo-Th 12:00-15:00,18:00-21:00; Fr 12:00-15:00,18:00-22:00; Sa-Su 12:00-21:00",
    "name": "The Garden House",
    "old_name": "Fridays",
    "opening_hours": "Su-Tu 12:00-23:00; Fr-Sa 12:00-23:30",
    "outdoor_seating": "yes",
    "phone": "+44 1603 628059",
    "real_ale": "5",
    "real_cider": "no",
    "website": "http://www.gardenhousepub.co.uk/",
    "id": "way/116709459",
    "mapFeature": {
     "caption": "The Garden House",
     "allowPopup": true,
     "location": "1  Pembroke Road  \n  NR2 3HD <br />\n  \n  \n  ",
     "layers": [
      "food"
     ]
    }
   },
   "geometry": {
    "type": "Point",
    "coordinates": [
     1.2752737,
     52.6281559
    ]
   }
  },
  {
   "type": "Feature",
   "id": "way/117789686",
   "properties": {
    "addr:city": "Norwich",
    "addr:country": "GB",
    "addr:housenumber": "264",
    "addr:postcode": "NR8 6AD",
    "addr:street": "Fakenham Road",
    "amenity": "pub",
    "brand": "Phoenix Inns",
    "building": "house",
    "name": "The Silver Fox",
    "opening_hours": "Mo-Sa 12:00-23:00; Su 12:00-22:30",
    "phone": "+44 1603 868212",
    "real_ale": "yes",
    "id": "way/117789686",
    "mapFeature": {
     "caption": "The Silver Fox",
     "allowPopup": true,
     "location": "264  Fakenham Road  \n  NR8 6AD <br />\n  \n  \n  ",
     "layers": [
      "food"
     ]
    }
   },
   "geometry": {
    "type": "Point",
    "coordinates": [
     1.1976077,
     52.6866311
    ]
   }
  },
  {
   "type": "Feature",
   "id": "way/117819574",
   "properties": {
    "addr:city": "Norwich",
    "addr:country": "GB",
    "addr:housenumber": "144",
    "addr:postcode": "NR3 4BA",
    "addr:street": "Magdalen Road",
    "amenity": "pub",
    "building": "house",
    "email": "lorenz@broadlandtaverns.co.uk",
    "fhrs:id": "42979",
    "name": "The Whalebone",
    "opening_hours": "Mo-Th 11:00-23:00; Fr-Sa 11:00-00:00; Su 12:00-23:00",
    "phone": "+44 1603 425482",
    "real_ale": "8",
    "real_cider": "no",
    "website": "http://www.whalebonefreehouse.co.uk/",
    "id": "way/117819574",
    "mapFeature": {
     "caption": "The Whalebone",
     "allowPopup": true,
     "location": "144  Magdalen Road  \n  NR3 4BA <br />\n  \n  \n  ",
     "layers": [
      "food"
     ]
    }
   },
   "geometry": {
    "type": "Point",
    "coordinates": [
     1.2969997,
     52.6440654
    ]
   }
  },
  {
   "type": "Feature",
   "id": "way/118612230",
   "properties": {
    "addr:city": "Norwich",
    "addr:country": "GB",
    "addr:postcode": "NR5 8TD",
    "addr:street": "Dereham Road",
    "amenity": "pub",
    "brand": "Marston's Inns",
    "building": "yes",
    "email": "CherryTree.Norwich@marstons.co.uk",
    "fhrs:id": "14333",
    "internet_access": "wlan",
    "name": "The Cherry Tree",
    "old_name": "Wagon & Horses; Oval Rock House; The Oval",
    "opening_hours": "Su-Th 11:00-23:00; Fr-Sa 11:00-00:30",
    "operator": "Andrew Bodycote",
    "outdoor_seating": "yes",
    "phone": "+44 1603 749469",
    "real_ale": "3",
    "real_cider": "no",
    "website": "https://www.cherrytreepubnorwich.co.uk/",
    "id": "way/118612230",
    "mapFeature": {
     "caption": "The Cherry Tree",
     "allowPopup": true,
     "location": " Dereham Road  \n  NR5 8TD <br />\n  \n  \n  ",
     "layers": [
      "food"
     ]
    }
   },
   "geometry": {
    "type": "Point",
    "coordinates": [
     1.2361351,
     52.6411006
    ]
   }
  },
  {
   "type": "Feature",
   "id": "way/119331015",
   "properties": {
    "addr:city": "Norwich",
    "addr:country": "GB",
    "addr:housenumber": "25",
    "addr:postcode": "NR1 3SP",
    "addr:street": "Saint Stephens Road",
    "amenity": "pub",
    "building": "house",
    "fhrs:id": "69976",
    "internet_access": "wlan",
    "kitchen_hours": "Mo-Sa 12:00-14:00,18:00-21:30; Su 12:00-15:00",
    "name": "Trowel & Hammer",
    "old_name": "Finnegans; Finnegan's Wake",
    "opening_hours": "Mo-Sa 11:00-23:00; Su 12:00-22:30",
    "phone": "+44 1603 663994",
    "real_ale": "3",
    "real_cider": "no",
    "website": "http://www.trowelandhammer.co.uk/",
    "id": "way/119331015",
    "mapFeature": {
     "caption": "Trowel & Hammer",
     "allowPopup": true,
     "location": "25  Saint Stephens Road  \n  NR1 3SP <br />\n  \n  \n  ",
     "layers": [
      "food"
     ]
    }
   },
   "geometry": {
    "type": "Point",
    "coordinates": [
     1.2892336,
     52.6235033
    ]
   }
  },
  {
   "type": "Feature",
   "id": "way/119331020",
   "properties": {
    "addr:city": "Norwich",
    "addr:country": "GB",
    "addr:housenumber": "9",
    "addr:postcode": "NR1 3SP",
    "addr:street": "Saint Stephens Road",
    "amenity": "pub",
    "building": "yes",
    "fhrs:id": "69973",
    "internet_access": "wlan",
    "kitchen_hours": "Mo-Fr 12:00-14:30; Sa-Su off",
    "name": "The Coachmakers Arms",
    "opening_hours": "Mo-Sa 11:00-23:00; Su 12:00-22:30",
    "phone": "+44 1603 662080",
    "phone:2": "+44 1603 611562",
    "real_ale": "8",
    "real_cider": "no",
    "website": "https://coachmakers-arms-norwich.co.uk/",
    "wikidata": "Q26653626",
    "id": "way/119331020",
    "mapFeature": {
     "caption": "The Coachmakers Arms",
     "allowPopup": true,
     "location": "9  Saint Stephens Road  \n  NR1 3SP <br />\n  \n  \n  ",
     "layers": [
      "food"
     ]
    }
   },
   "geometry": {
    "type": "Point",
    "coordinates": [
     1.2898025,
     52.6237859
    ]
   }
  },
  {
   "type": "Feature",
   "id": "way/119476456",
   "properties": {
    "addr:city": "Norwich",
    "addr:country": "GB",
    "addr:housenumber": "111",
    "addr:postcode": "NR2 2PE",
    "addr:street": "Unthank Road",
    "amenity": "pub",
    "building": "house",
    "email": "contact@williamandflorence.co.uk",
    "fhrs:id": "924815",
    "kitchen_hours": "Mo-Fr 10:00-14:30,18:00-21:00; Sa 10:00-21:00; Su 10:00-20:00",
    "name": "William and Florence",
    "old_name": "Rose Valley",
    "opening_hours": "Mo-Fr 09:00-23:00; Sa 09:00-00:00; Su 09:00-22:30",
    "phone": "+44 1603 660706",
    "real_ale": "3",
    "real_cider": "no",
    "website": "https://williamandflorence.co.uk/",
    "id": "way/119476456",
    "mapFeature": {
     "caption": "William and Florence",
     "allowPopup": true,
     "location": "111  Unthank Road  \n  NR2 2PE <br />\n  \n  \n  ",
     "layers": [
      "food"
     ]
    }
   },
   "geometry": {
    "type": "Point",
    "coordinates": [
     1.2774266,
     52.6245133
    ]
   }
  },
  {
   "type": "Feature",
   "id": "way/119476679",
   "properties": {
    "addr:city": "Norwich",
    "addr:country": "GB",
    "addr:housenumber": "33",
    "addr:postcode": "NR1 3HQ",
    "addr:street": "Hall Road",
    "amenity": "pub",
    "building": "yes",
    "built": "1824",
    "email": "info@kingsarmsnorwich.co.uk",
    "fhrs:id": "847489",
    "name": "King's Arms",
    "opening_hours": "Mo-Th 11:00-23:00; Fr-Sa 11:00-23:30; Su 12:00-22:30",
    "operator": "Bateman's Brewery",
    "phone": "+44 1603 766361",
    "real_ale": "12",
    "real_cider": "yes",
    "website": "http://www.kingsarmsnorwich.co.uk/",
    "id": "way/119476679",
    "mapFeature": {
     "caption": "King's Arms",
     "allowPopup": true,
     "location": "33  Hall Road  \n  NR1 3HQ <br />\n  \n  \n  ",
     "layers": [
      "food"
     ]
    }
   },
   "geometry": {
    "type": "Point",
    "coordinates": [
     1.2983645,
     52.6205513
    ]
   }
  },
  {
   "type": "Feature",
   "id": "way/119604430",
   "properties": {
    "addr:city": "Norwich",
    "addr:country": "GB",
    "addr:housenumber": "9-13",
    "addr:interpolation": "odd",
    "addr:postcode": "NR3 1LA",
    "addr:street": "Wensum Street",
    "amenity": "pub",
    "building": "yes",
    "fhrs:id": "77279",
    "internet_access": "wlan",
    "name": "The Glasshouse",
    "opening_hours": "Mo-Tu 08:00-00:00; We-Th,Su 08:00-01:00; Fr 08:00-01:30; Sa 08:00-02:00",
    "operator": "J D Wetherspoon",
    "phone": "+44 1603 877650",
    "real_ale": "7",
    "real_cider": "no",
    "website": "http://www.jdwetherspoon.co.uk/home/pubs/the-glass-house",
    "id": "way/119604430",
    "mapFeature": {
     "caption": "The Glasshouse",
     "allowPopup": true,
     "location": "9-13  Wensum Street  \n  NR3 1LA <br />\n  \n  \n  ",
     "layers": [
      "food"
     ]
    }
   },
   "geometry": {
    "type": "Point",
    "coordinates": [
     1.2980194,
     52.6323783
    ]
   }
  },
  {
   "type": "Feature",
   "id": "way/119604433",
   "properties": {
    "addr:city": "Norwich",
    "addr:country": "GB",
    "addr:housenumber": "12-14",
    "addr:interpolation": "even",
    "addr:postcode": "NR3 1HY",
    "addr:street": "Wensum Street",
    "amenity": "pub",
    "building": "house",
    "cuisine": "thai",
    "email": "postbox@thelawyernorwich.co.uk",
    "kitchen_hours": "Mo 18:00-22:30; Tu-Sa 12:00-14:30, 18:00-22:30",
    "name": "The Lawyer",
    "old_name": "Fugitive; Fugitive and Firkin",
    "opening_hours": "Mo-Sa 12:00-00:00",
    "phone": "+44 1603 633122",
    "real_ale": "3",
    "real_cider": "no",
    "website": "http://www.thelawyernorwich.co.uk/",
    "id": "way/119604433",
    "mapFeature": {
     "caption": "The Lawyer",
     "allowPopup": true,
     "location": "12-14  Wensum Street  \n  NR3 1HY <br />\n  \n  \n  ",
     "layers": [
      "food"
     ]
    }
   },
   "geometry": {
    "type": "Point",
    "coordinates": [
     1.297476,
     52.6323548
    ]
   }
  },
  {
   "type": "Feature",
   "id": "way/119611031",
   "properties": {
    "addr:city": "Norwich",
    "addr:country": "GB",
    "addr:housename": "The Vine",
    "addr:housenumber": "7",
    "addr:postcode": "NR2 1DE",
    "addr:street": "Dove Street",
    "amenity": "pub",
    "building": "shop",
    "cuisine": "thai",
    "email": "tinyaey@gmail.com",
    "fhrs:id": "18040",
    "name": "The Vine Thai Cuisine",
    "opening_hours": "12:00-00:00",
    "phone": "+44 1603 627362",
    "real_ale": "4",
    "real_cider": "no",
    "website": "https://vinethai.co.uk/",
    "id": "way/119611031",
    "mapFeature": {
     "caption": "The Vine Thai Cuisine",
     "allowPopup": true,
     "location": "7  Dove Street  \n  NR2 1DE <br />\n  \n  \n  ",
     "layers": [
      "food"
     ]
    }
   },
   "geometry": {
    "type": "Point",
    "coordinates": [
     1.2930255,
     52.6293528
    ]
   }
  },
  {
   "type": "Feature",
   "id": "way/119611320",
   "properties": {
    "addr:city": "Norwich",
    "addr:country": "GB",
    "addr:housenumber": "174",
    "addr:postcode": "NR1 3EN",
    "addr:street": "Ber Street",
    "alt_name": "The Ber St Gates",
    "amenity": "pub",
    "building": "house",
    "cuisine": "regional;thai;chinese",
    "email": "lynn.carrigan@hotmail.com",
    "fhrs:id": "470785",
    "name": "Ber Strete Gates",
    "opening_hours": "Mo-Th 12:00-22:00; Fr-Sa 12:00-00:00; Su 12:00-22:00",
    "phone": "+44 1603 395175",
    "real_ale": "no",
    "id": "way/119611320",
    "mapFeature": {
     "caption": "Ber Strete Gates",
     "allowPopup": true,
     "location": "174  Ber Street  \n  NR1 3EN <br />\n  \n  \n  ",
     "layers": [
      "food"
     ]
    }
   },
   "geometry": {
    "type": "Point",
    "coordinates": [
     1.3011213,
     52.6212774
    ]
   }
  },
  {
   "type": "Feature",
   "id": "way/119731887",
   "properties": {
    "addr:city": "Norwich",
    "addr:country": "GB",
    "addr:housenumber": "233-235",
    "addr:interpolation": "odd",
    "addr:postcode": "NR1 3AE",
    "addr:street": "Queens Road",
    "amenity": "pub",
    "building": "house",
    "fhrs:id": "861576",
    "internet_access": "wlan",
    "internet_access:fee": "no",
    "kitchen_hours": "Sa-Su 12:00-14:30,18:00-21:00",
    "name": "The Rose",
    "opening_hours": "Mo-Th 15:00-23:30; Fr-Sa 12:00-23:45; Su 12:00-23:00",
    "phone": "+44 1603 767713",
    "real_ale": "6",
    "real_cider": "no",
    "website": "http://www.norwichbear.com/the-rose-inn/",
    "id": "way/119731887",
    "mapFeature": {
     "caption": "The Rose",
     "allowPopup": true,
     "location": "233-235  Queens Road  \n  NR1 3AE <br />\n  \n  \n  ",
     "layers": [
      "food"
     ]
    }
   },
   "geometry": {
    "type": "Point",
    "coordinates": [
     1.3008806,
     52.6207327
    ]
   }
  },
  {
   "type": "Feature",
   "id": "way/119768749",
   "properties": {
    "addr:city": "Norwich",
    "addr:country": "GB",
    "addr:housenumber": "7",
    "addr:postcode": "NR2 1DS",
    "addr:street": "Pottergate",
    "amenity": "pub",
    "brand": "Flemins Ltd",
    "building": "amenity",
    "email": "belgianmonknch@aol.com",
    "fax": "+44 1603 616035",
    "fhrs:id": "60339",
    "kitchen_hours": "Mo-Fr 12:00-15:00,17:30-22:00; Sa 12:00-22:00",
    "name": "The Belgian Monk",
    "opening_hours": "Mo-Sa 12:00-23:00; Su off",
    "operator": "Flemins Ltd",
    "outdoor_seating": "yes",
    "phone": "+44 1603 767222",
    "real_ale": "no",
    "website": "http://www.thebelgianmonk.com/",
    "wikidata": "Q26653562",
    "id": "way/119768749",
    "mapFeature": {
     "caption": "The Belgian Monk",
     "allowPopup": true,
     "location": "7  Pottergate  \n  NR2 1DS <br />\n  \n  \n  ",
     "layers": [
      "food"
     ]
    }
   },
   "geometry": {
    "type": "Point",
    "coordinates": [
     1.2924925,
     52.629905
    ]
   }
  },
  {
   "type": "Feature",
   "id": "way/120680941",
   "properties": {
    "addr:city": "Norwich",
    "addr:country": "GB",
    "addr:housenumber": "39",
    "addr:postcode": "NR1 3DT",
    "addr:street": "Crown Road",
    "amenity": "pub",
    "building": "house",
    "email": "thesteampacket@btinternet.com",
    "fhrs:id": "47099",
    "name": "The Steam Packet",
    "old_name": "Market Tavern",
    "opening_hours": "Mo-Sa 12:00-23:00; Su 12:00-22:30",
    "phone": "+44 1603 613117",
    "real_ale": "1",
    "real_cider": "no",
    "start_year": "1836",
    "website": "http://www.thesteampacket.com/",
    "wikidata": "Q26303200",
    "id": "way/120680941",
    "mapFeature": {
     "caption": "The Steam Packet",
     "allowPopup": true,
     "location": "39  Crown Road  \n  NR1 3DT <br />\n  \n  \n  ",
     "layers": [
      "food"
     ]
    }
   },
   "geometry": {
    "type": "Point",
    "coordinates": [
     1.2991985,
     52.62817
    ]
   }
  },
  {
   "type": "Feature",
   "id": "way/120694315",
   "properties": {
    "addr:city": "Norwich",
    "addr:country": "GB",
    "addr:housenumber": "414",
    "addr:postcode": "NR3 2SA",
    "addr:street": "Aylsham Road",
    "amenity": "pub",
    "building": "house",
    "email": "theboundarypub@hotmail.com",
    "fhrs:id": "949515",
    "name": "The Boundary",
    "opening_hours": "Mo-Th 12:00-00:00; Fr 12:00-01:00; Sa 10:00-01:00; Su 10:00-24:00",
    "phone": "+44 1603 418324",
    "phone:mobile": "+44 7919 064774",
    "real_ale": "1",
    "real_cider": "no",
    "website": "http://www.theboundarypub.com/",
    "id": "way/120694315",
    "mapFeature": {
     "caption": "The Boundary",
     "allowPopup": true,
     "location": "414  Aylsham Road  \n  NR3 2SA <br />\n  \n  \n  ",
     "layers": [
      "food"
     ]
    }
   },
   "geometry": {
    "type": "Point",
    "coordinates": [
     1.277154,
     52.6560394
    ]
   }
  },
  {
   "type": "Feature",
   "id": "way/121499486",
   "properties": {
    "addr:city": "Norwich",
    "addr:country": "GB",
    "addr:housenumber": "10",
    "addr:postcode": "NR2 4AY",
    "addr:street": "Dereham Road",
    "amenity": "pub",
    "building": "house",
    "building:levels": "2",
    "fhrs:id": "1039540",
    "food": "yes",
    "kitchen_hours": "Tu-Th 12:00-15:00,17:00-23:00; Fr-Sa 12:00-15:00,17:00-00:00; Su 12:00-22:00",
    "name": "The Reindeer",
    "opening_hours": "Tu-Th 12:00-23:00; Fr-Sa 12:00-00:00; Su 12:00-22:00",
    "phone": "+44 1603 612995",
    "real_ale": "13",
    "real_cider": "yes",
    "source": "survey",
    "website": "http://www.thereindeerpub.co.uk/",
    "id": "way/121499486",
    "mapFeature": {
     "caption": "The Reindeer",
     "allowPopup": true,
     "location": "10  Dereham Road  \n  NR2 4AY <br />\n  \n  \n  ",
     "layers": [
      "food"
     ]
    }
   },
   "geometry": {
    "type": "Point",
    "coordinates": [
     1.2839917,
     52.6320998
    ]
   }
  },
  {
   "type": "Feature",
   "id": "way/121635504",
   "properties": {
    "addr:city": "Norwich",
    "addr:country": "GB",
    "addr:housenumber": "288",
    "addr:postcode": "NR2 4LZ",
    "addr:street": "Heigham Street",
    "amenity": "pub",
    "building": "house",
    "fhrs:id": "1092849",
    "name": "Britannia Gardens",
    "old_name": "Gibraltar Gardens",
    "opening_hours": "Mo-Su 09:00-23:00",
    "phone": "+44 1603 614541",
    "real_ale": "1",
    "real_cider": "no",
    "source": "Bing",
    "website": "https://www.cafebritannia.co.uk/britannia-gardens",
    "wikidata": "Q26303139",
    "id": "way/121635504",
    "mapFeature": {
     "caption": "Britannia Gardens",
     "allowPopup": true,
     "location": "288  Heigham Street  \n  NR2 4LZ <br />\n  \n  \n  ",
     "layers": [
      "food"
     ]
    }
   },
   "geometry": {
    "type": "Point",
    "coordinates": [
     1.2771244,
     52.6410498
    ]
   }
  },
  {
   "type": "Feature",
   "id": "way/122732861",
   "properties": {
    "addr:city": "Norwich",
    "addr:country": "GB",
    "addr:housenumber": "88",
    "addr:postcode": "NR2 2AT",
    "addr:street": "Rupert Street",
    "amenity": "pub",
    "building": "house",
    "fhrs:id": "21704",
    "kitchen_hours": "Mo-Sa 18:00-21:00, Fr-Sa 12:00-14:00; Su 12:00-16:00",
    "name": "Rose Tavern",
    "opening_hours": "Su-Th 12:00-23:30; Fr-Sa 12:00-00:00",
    "phone": "+44 1603 612110",
    "real_ale": "6",
    "real_cider": "no",
    "source": "Bing",
    "website": "http://www.rosetavern.co.uk/",
    "id": "way/122732861",
    "mapFeature": {
     "caption": "Rose Tavern",
     "allowPopup": true,
     "location": "88  Rupert Street  \n  NR2 2AT <br />\n  \n  \n  ",
     "layers": [
      "food"
     ]
    }
   },
   "geometry": {
    "type": "Point",
    "coordinates": [
     1.2819559,
     52.6238898
    ]
   }
  },
  {
   "type": "Feature",
   "id": "way/122732862",
   "properties": {
    "addr:city": "Norwich",
    "addr:country": "GB",
    "addr:housenumber": "149",
    "addr:postcode": "NR2 2DR",
    "addr:street": "Newmarket Street",
    "amenity": "pub",
    "building": "house",
    "email": "postbox@theunthankarms.com",
    "fhrs:id": "52616",
    "internet_access": "wlan",
    "kitchen_hours": "Mo-Fr 12:00-14:00,18:00-21:00; Sa 10:00-14:00,18:00-21:00; Su 10:00-20:30",
    "name": "The Unthank Arms",
    "opening_hours": "Mo-Th 11:00-23:00; Fr 11:00+; Sa 10:00+; Su 10:00-22:30",
    "phone": "+44 1603 631557",
    "real_ale": "2",
    "real_cider": "no",
    "source": "Bing",
    "website": "http://www.theunthankarms.com/",
    "id": "way/122732862",
    "mapFeature": {
     "caption": "The Unthank Arms",
     "allowPopup": true,
     "location": "149  Newmarket Street  \n  NR2 2DR <br />\n  \n  \n  ",
     "layers": [
      "food"
     ]
    }
   },
   "geometry": {
    "type": "Point",
    "coordinates": [
     1.2791065,
     52.6209547
    ]
   }
  },
  {
   "type": "Feature",
   "id": "way/122732863",
   "properties": {
    "addr:city": "Norwich",
    "addr:country": "GB",
    "addr:housenumber": "1",
    "addr:postcode": "NR2 2AS",
    "addr:street": "Leicester Street",
    "amenity": "pub",
    "building": "yes",
    "disused": "yes",
    "disused:amenity": "pub",
    "email": "theyorktavern@hotmail.com",
    "end_date": "2018-01-04",
    "name": "The York Tavern",
    "opening_hours": "24/7 closed",
    "operator": "Ei Publican Partnerships",
    "phone": "+44 1603 620918",
    "real_ale": "4",
    "real_cider": "no",
    "source": "Bing",
    "website": "http://www.theyorktavern.co.uk/",
    "id": "way/122732863",
    "mapFeature": {
     "caption": "The York Tavern",
     "allowPopup": true,
     "location": "1  Leicester Street  \n  NR2 2AS <br />\n  \n  \n  ",
     "layers": [
      "food"
     ]
    }
   },
   "geometry": {
    "type": "Point",
    "coordinates": [
     1.2818978,
     52.6225576
    ]
   }
  },
  {
   "type": "Feature",
   "id": "way/123011787",
   "properties": {
    "addr:city": "Norwich",
    "addr:country": "GB",
    "addr:postcode": "NR5 9HA",
    "addr:street": "Bowthorpe Main Centre",
    "amenity": "pub",
    "brand": "Conquest Inns",
    "building": "shop",
    "fhrs:id": "77212",
    "internet_access": "wlan",
    "internet_access:fee": "no",
    "name": "The Norkie",
    "opening_hours": "Mo-Sa 12:00-23:00; Su 12:00-22:30",
    "outdoor_seating": "yes",
    "phone": "+44 1603 748851",
    "real_ale": "yes",
    "source": "Bing",
    "id": "way/123011787",
    "mapFeature": {
     "caption": "The Norkie",
     "allowPopup": true,
     "location": " Bowthorpe Main Centre  \n  NR5 9HA <br />\n  \n  \n  ",
     "layers": [
      "food"
     ]
    }
   },
   "geometry": {
    "type": "Point",
    "coordinates": [
     1.2166477,
     52.6370893
    ]
   }
  },
  {
   "type": "Feature",
   "id": "way/123035165",
   "properties": {
    "addr:city": "Norwich",
    "addr:country": "GB",
    "addr:housenumber": "41",
    "addr:postcode": "NR2 4TP",
    "addr:street": "Saint Andrews Street",
    "amenity": "pub",
    "building": "yes",
    "email": "info@standrewsbrewhouse.com",
    "fhrs:id": "796465",
    "name": "St Andrews Brewhouse",
    "old_name": "Delaneys Irish Bar; Festival House",
    "opening_hours": "Mo-Sa 10:00-00:00; Su 11:00-23:00",
    "phone": "+44 1603 305995",
    "real_ale": "1",
    "real_cider": "no",
    "source": "Bing",
    "website": "https://www.standrewsbrewhouse.com/",
    "id": "way/123035165",
    "mapFeature": {
     "caption": "St Andrews Brewhouse",
     "allowPopup": true,
     "location": "41  Saint Andrews Street  \n  NR2 4TP <br />\n  \n  \n  ",
     "layers": [
      "food"
     ]
    }
   },
   "geometry": {
    "type": "Point",
    "coordinates": [
     1.2954239,
     52.6307254
    ]
   }
  },
  {
   "type": "Feature",
   "id": "way/123035167",
   "properties": {
    "addr:city": "Norwich",
    "addr:country": "GB",
    "addr:housenumber": "92",
    "addr:postcode": "NR2 1DZ",
    "addr:street": "Pottergate",
    "amenity": "pub",
    "building": "house",
    "email": "micawbers@live.co.uk",
    "fhrs:id": "760304",
    "name": "Micawbers Tavern",
    "old_name": "Seamus O'Rourkes;The Alma;Duke of York",
    "opening_hours": "Mo-Sa 12:00-23:00; Su 12:00-22:30",
    "phone": "+44 1603 626627",
    "real_ale": "5",
    "real_cider": "yes",
    "source": "Bing",
    "wikidata": "Q26303724",
    "id": "way/123035167",
    "mapFeature": {
     "caption": "Micawbers Tavern",
     "allowPopup": true,
     "location": "92  Pottergate  \n  NR2 1DZ <br />\n  \n  \n  ",
     "layers": [
      "food"
     ]
    }
   },
   "geometry": {
    "type": "Point",
    "coordinates": [
     1.2872785,
     52.6303854
    ]
   }
  },
  {
   "type": "Feature",
   "id": "way/123077955",
   "properties": {
    "addr:city": "Norwich",
    "addr:country": "GB",
    "addr:housename": "The Whiffler",
    "addr:postcode": "NR6 5JB",
    "addr:street": "Boundary Road",
    "amenity": "pub",
    "building": "yes",
    "internet_access": "wlan",
    "name": "The Whiffler",
    "opening_hours": "Mo-Su 08:00-00:00",
    "operator": "J D Wetherspoon",
    "phone": "+44 1603 424042",
    "real_ale": "6",
    "real_cider": "yes",
    "source": "Bing",
    "website": "https://www.jdwetherspoon.com/pubs/all-pubs/england/norfolk/the-whiffler-norwich",
    "wheelchair": "yes",
    "id": "way/123077955",
    "mapFeature": {
     "caption": "The Whiffler",
     "allowPopup": true,
     "location": " Boundary Road  \n  NR6 5JB <br />\n  \n  Wheelchair accessible \n  ",
     "layers": [
      "food"
     ]
    }
   },
   "geometry": {
    "type": "Point",
    "coordinates": [
     1.2685764,
     52.6543675
    ]
   }
  },
  {
   "type": "Feature",
   "id": "way/123525386",
   "properties": {
    "addr:city": "Norwich",
    "addr:country": "GB",
    "addr:housenumber": "58",
    "addr:postcode": "NR2 4AR",
    "addr:street": "Saint Benedicts Street",
    "amenity": "pub",
    "brand": "Grain Brewery",
    "building": "yes",
    "email": "info@theploughnorwich.co.uk",
    "fhrs:id": "68603",
    "name": "The Plough",
    "opening_hours": "Su-Th 12:00-23:00; Fr-Sa 12:00-00:00",
    "outdoor_seating": "yes",
    "phone": "+44 1603 661384",
    "real_ale": "5",
    "real_cider": "no",
    "source": "Bing",
    "website": "http://www.theploughnorwich.co.uk/",
    "wikidata": "Q26303689",
    "id": "way/123525386",
    "mapFeature": {
     "caption": "The Plough",
     "allowPopup": true,
     "location": "58  Saint Benedicts Street  \n  NR2 4AR <br />\n  \n  \n  ",
     "layers": [
      "food"
     ]
    }
   },
   "geometry": {
    "type": "Point",
    "coordinates": [
     1.2881399,
     52.6310911
    ]
   }
  },
  {
   "type": "Feature",
   "id": "way/123525388",
   "properties": {
    "addr:city": "Norwich",
    "addr:country": "GB",
    "addr:housenumber": "74-78",
    "addr:interpolation": "even",
    "addr:postcode": "NR2 4AR",
    "addr:street": "Saint Benedicts Street",
    "amenity": "pub",
    "building": "yes",
    "fhrs:id": "47917",
    "name": "The X Bells",
    "note": "Part whisky bar",
    "opening_hours": "Mo-Th 12:00-01:00; Fr-Sa 12:00-01:30; Su 12:00-00:30",
    "phone": "+44 1603 920292",
    "real_ale": "4",
    "real_cider": "no",
    "source": "Bing",
    "website": "http://www.facebook.com/pages/The-Ten-Bells-Norwich/220326944657171",
    "id": "way/123525388",
    "mapFeature": {
     "caption": "The X Bells",
     "allowPopup": true,
     "location": "74-78  Saint Benedicts Street  \n  NR2 4AR <br />\n  \n  \n  ",
     "layers": [
      "food"
     ]
    }
   },
   "geometry": {
    "type": "Point",
    "coordinates": [
     1.2874862,
     52.6312137
    ]
   }
  },
  {
   "type": "Feature",
   "id": "way/123657384",
   "properties": {
    "addr:city": "Norwich",
    "addr:country": "GB",
    "addr:housename": "Ribs of Beef",
    "addr:housenumber": "24",
    "addr:postcode": "NR3 1HY",
    "addr:street": "Wensum Street",
    "amenity": "pub",
    "building": "yes",
    "email": "enquiries@ribsofbeef.co.uk",
    "fax": "+44 1603 625446",
    "fhrs:id": "39158",
    "internet_access": "wlan",
    "kitchen_hours": "Mo-Fr 12:00-15:00; Sa-Su 12:00-17:00",
    "name": "The Ribs Of Beef",
    "old_name": "Fye Bridge Tavern",
    "opening_hours": "Su-Th 11:00-23:00; Fr-Sa 11:00-00:00",
    "phone": "+44 1603 619517",
    "real_ale": "9",
    "real_cider": "no",
    "source": "Bing",
    "start_date": "1985-08-09",
    "website": "https://www.ribsofbeef.co.uk/",
    "id": "way/123657384",
    "mapFeature": {
     "caption": "The Ribs Of Beef",
     "allowPopup": true,
     "location": "24  Wensum Street  \n  NR3 1HY <br />\n  \n  \n  ",
     "layers": [
      "food"
     ]
    }
   },
   "geometry": {
    "type": "Point",
    "coordinates": [
     1.2971761,
     52.6326802
    ]
   }
  },
  {
   "type": "Feature",
   "id": "way/123870345",
   "properties": {
    "addr:city": "Norwich",
    "addr:country": "GB",
    "addr:housenumber": "1",
    "addr:postcode": "NR1 4EY",
    "addr:street": "Spitalfields",
    "amenity": "pub",
    "building": "yes",
    "description": "Norwich’s Premier Gay Pub & Club",
    "email": "mail@thecastle-pub.com",
    "fax": "+44 1603 620636",
    "fhrs:id": "67763",
    "gay": "yes",
    "internet_access": "wlan",
    "lgbtq": "primary",
    "name": "The Castle Inn",
    "opening_hours": "Su-We 14:00-00:00; Th-Fr 14:00-02:00; Sa 14:00-04:00",
    "phone": "+44 1603 768886",
    "real_ale": "no",
    "real_cider": "no",
    "source": "Bing",
    "website": "http://www.thecastle-pub.com/",
    "wikidata": "Q26653612",
    "id": "way/123870345",
    "mapFeature": {
     "caption": "The Castle Inn",
     "allowPopup": true,
     "location": "1  Spitalfields  \n  NR1 4EY <br />\n  Norwich’s Premier Gay Pub & Club<br />\n  \n  ",
     "layers": [
      "food"
     ]
    }
   },
   "geometry": {
    "type": "Point",
    "coordinates": [
     1.3100252,
     52.6347838
    ]
   }
  },
  {
   "type": "Feature",
   "id": "way/123870346",
   "properties": {
    "addr:city": "Norwich",
    "addr:country": "GB",
    "addr:housenumber": "26",
    "addr:postcode": "NR1 4BL",
    "addr:street": "Saint Leonards Road",
    "amenity": "pub",
    "building": "house",
    "fhrs:id": "69372",
    "name": "The Jubilee",
    "opening_hours": "Mo-Th 12:00-23:00; Fr-Sa 12:00-24:00; Su 12:00-22:30",
    "phone": "+44 1603 618734",
    "real_ale": "8",
    "real_cider": "no",
    "source": "Bing",
    "website": "http://jubileefreehouse.co.uk/",
    "id": "way/123870346",
    "mapFeature": {
     "caption": "The Jubilee",
     "allowPopup": true,
     "location": "26  Saint Leonards Road  \n  NR1 4BL <br />\n  \n  \n  ",
     "layers": [
      "food"
     ]
    }
   },
   "geometry": {
    "type": "Point",
    "coordinates": [
     1.31166,
     52.6291267
    ]
   }
  },
  {
   "type": "Feature",
   "id": "way/123870347",
   "properties": {
    "addr:city": "Norwich",
    "addr:country": "GB",
    "addr:postcode": "NR1 4AU",
    "addr:street": "Quebec Road",
    "amenity": "pub",
    "building": "house",
    "email": "ianstolady@hotmail.com",
    "fhrs:id": "18773",
    "internet_access": "wlan",
    "internet_access:fee": "no",
    "name": "William IV",
    "opening_hours": "Mo-Sa 11:00-00:00; Su 12:00-00:00",
    "phone": "+44 1603 441526",
    "real_ale": "2",
    "real_cider": "no",
    "source": "Bing",
    "website": "http://www.william-iv.com/",
    "wheelchair": "yes",
    "id": "way/123870347",
    "mapFeature": {
     "caption": "William IV",
     "allowPopup": true,
     "location": " Quebec Road  \n  NR1 4AU <br />\n  \n  Wheelchair accessible \n  ",
     "layers": [
      "food"
     ]
    }
   },
   "geometry": {
    "type": "Point",
    "coordinates": [
     1.3148159,
     52.6303528
    ]
   }
  },
  {
   "type": "Feature",
   "id": "way/124952108",
   "properties": {
    "addr:city": "Norwich",
    "addr:country": "GB",
    "addr:housenumber": "55",
    "addr:postcode": "NR7 0EW",
    "addr:street": "Yarmouth Road",
    "amenity": "pub",
    "brand": "Enterprise Inns",
    "building": "house",
    "contact:email": "hello@mybuckinn.com",
    "contact:mobile": "+44 7596 431902",
    "contact:phone": "+44 1603 434682",
    "contact:website": "http://www.mybuckinn.com/",
    "name": "The Buck Inn",
    "opening_hours": "Mo-Fr 12:00+; Sa-Su 10:00+",
    "outdoor_seating": "yes",
    "real_ale": "4",
    "real_cider": "no",
    "source": "Bing",
    "wikidata": "Q26303364",
    "id": "way/124952108",
    "mapFeature": {
     "caption": "The Buck Inn",
     "allowPopup": true,
     "location": "55  Yarmouth Road  \n  NR7 0EW <br />\n  \n  \n  ",
     "layers": [
      "food"
     ]
    }
   },
   "geometry": {
    "type": "Point",
    "coordinates": [
     1.339132,
     52.6264348
    ]
   }
  },
  {
   "type": "Feature",
   "id": "way/124952109",
   "properties": {
    "addr:city": "Norwich",
    "addr:country": "GB",
    "addr:housenumber": "120",
    "addr:postcode": "NR1 1NS",
    "addr:street": "Prince of Wales Road",
    "amenity": "pub",
    "building": "retail",
    "building:levels": "2",
    "building:roof:material": "slate",
    "building:roof:orientation": "along",
    "building:roof:shape": "pitched",
    "fhrs:id": "1082703",
    "internet_access": "wlan",
    "kitchen_hours": "12:00-20:00",
    "name": "The Compleat Angler",
    "opening_hours": "Mo-Th 11:00-00:00; Fr 11:00-01:00; Sa 11:00-01:30; Su 11:00-22:30; \"Closed for refirb 22 July-2 Aug 2019\"",
    "outdoor_seating": "no",
    "phone": "+44 1603 622425",
    "real_ale": "6",
    "real_cider": "no",
    "source": "Bing",
    "website": "https://www.greeneking-pubs.co.uk/pubs/norfolk/compleat-angler/",
    "id": "way/124952109",
    "mapFeature": {
     "caption": "The Compleat Angler",
     "allowPopup": true,
     "location": "120  Prince of Wales Road  \n  NR1 1NS <br />\n  \n  \n  ",
     "layers": [
      "food"
     ]
    }
   },
   "geometry": {
    "type": "Point",
    "coordinates": [
     1.3054359,
     52.628119
    ]
   }
  },
  {
   "type": "Feature",
   "id": "way/124952111",
   "properties": {
    "addr:city": "Norwich",
    "addr:country": "GB",
    "addr:housenumber": "36",
    "addr:postcode": "NR7 0EQ",
    "addr:street": "Yarmouth Road",
    "amenity": "pub",
    "brand": "Enterprise Inns",
    "building": "house",
    "email": "info@the-rivergarden.co.uk",
    "fhrs:id": "40638",
    "name": "The Rivergarden Bar & Restaurant",
    "old_name": "Kings Head",
    "opening_hours": "12:00-23:00",
    "outdoor_seating": "yes",
    "phone": "+44 1603 703900",
    "real_ale": "2",
    "real_cider": "no",
    "source": "Bing",
    "website": "http://www.therivergarden-norwich.co.uk",
    "id": "way/124952111",
    "mapFeature": {
     "caption": "The Rivergarden Bar & Restaurant",
     "allowPopup": true,
     "location": "36  Yarmouth Road  \n  NR7 0EQ <br />\n  \n  \n  ",
     "layers": [
      "food"
     ]
    }
   },
   "geometry": {
    "type": "Point",
    "coordinates": [
     1.3357165,
     52.626409
    ]
   }
  },
  {
   "type": "Feature",
   "id": "way/124952112",
   "properties": {
    "addr:city": "Norwich",
    "addr:country": "GB",
    "addr:housenumber": "46",
    "addr:postcode": "NR7 0HE",
    "addr:street": "Yarmouth Road",
    "amenity": "pub",
    "building": "yes",
    "kitchen_hours": "Mo-Sa 11:00-22:00; Su 12:00-21:30",
    "name": "The Rushcutters",
    "opening_hours": "Mo-Sa 11:00-23:00; Su 12:00-22:30",
    "outdoor_seating": "yes",
    "phone": "+44 1603 435403",
    "real_ale": "3",
    "real_cider": "no",
    "source": "Bing",
    "website": "https://www.chefandbrewer.com/pub/rushcutters-arms-thorpe-st-andrew-norwich/c4619/",
    "wheelchair": "yes",
    "id": "way/124952112",
    "mapFeature": {
     "caption": "The Rushcutters",
     "allowPopup": true,
     "location": "46  Yarmouth Road  \n  NR7 0HE <br />\n  \n  Wheelchair accessible \n  ",
     "layers": [
      "food"
     ]
    }
   },
   "geometry": {
    "type": "Point",
    "coordinates": [
     1.3426213,
     52.6257596
    ]
   }
  },
  {
   "type": "Feature",
   "id": "way/125406633",
   "properties": {
    "addr:city": "Norwich",
    "addr:country": "GB",
    "addr:housenumber": "79",
    "addr:postcode": "NR5 0EU",
    "addr:street": "Norwich Road",
    "amenity": "pub",
    "brand": "Enterprise Inns",
    "building": "yes",
    "fhrs:id": "780517",
    "name": "The Crown",
    "opening_hours": "Mo 18:00-23:00; Tu-We 19:00-23:00; Th-Su 12:00-23:00",
    "outdoor_seating": "yes",
    "phone": "+44 1603 742849",
    "real_ale": "yes",
    "source": "Bing",
    "id": "way/125406633",
    "mapFeature": {
     "caption": "The Crown",
     "allowPopup": true,
     "location": "79  Norwich Road  \n  NR5 0EU <br />\n  \n  \n  ",
     "layers": [
      "food"
     ]
    }
   },
   "geometry": {
    "type": "Point",
    "coordinates": [
     1.2341024,
     52.6474907
    ]
   }
  },
  {
   "type": "Feature",
   "id": "way/127189089",
   "properties": {
    "addr:city": "Norwich",
    "addr:country": "GB",
    "addr:postcode": "NR14 6DH",
    "addr:street": "Ferry Road",
    "amenity": "pub",
    "building": "house",
    "fhrs:id": "908339",
    "name": "Beauchamp Arms",
    "phone": "+44 1508 480247",
    "website": "http://www.beauchamponthebroads.co.uk/",
    "id": "way/127189089",
    "mapFeature": {
     "caption": "Beauchamp Arms",
     "allowPopup": true,
     "location": " Ferry Road  \n  NR14 6DH <br />\n  \n  \n  ",
     "layers": [
      "food"
     ]
    }
   },
   "geometry": {
    "type": "Point",
    "coordinates": [
     1.4680115,
     52.5866885
    ]
   }
  },
  {
   "type": "Feature",
   "id": "way/127573682",
   "properties": {
    "addr:city": "Norwich",
    "addr:country": "GB",
    "addr:housenumber": "41",
    "addr:postcode": "NR2 3AD",
    "addr:street": "Earlham Road",
    "amenity": "pub",
    "building": "house",
    "email": "bar@theearlhamarms.co.uk",
    "fhrs:id": "690202",
    "internet_access": "wlan",
    "kitchen_hours": "Mo-Th 12:00-14:30,18:30-21:30; Fr 12:00-14:30,18:30-22:00; Sa 12:00-22:00; Su 09:00-20:00",
    "name": "The Earlham Arms",
    "old_name": "The School House; The Fountain Bar & Grill; The Pickwick; Hoofers",
    "opening_hours": "Mo-We 11:00-23:00; Th 11:00-23:30; Fr-Sa 11:00-00:00; Su 09:00-22:30",
    "outdoor_seating": "yes",
    "phone": "+44 1603 622993",
    "real_ale": "12",
    "source": "Bing",
    "website": "https://theearlhamarms.co.uk/",
    "id": "way/127573682",
    "mapFeature": {
     "caption": "The Earlham Arms",
     "allowPopup": true,
     "location": "41  Earlham Road  \n  NR2 3AD <br />\n  \n  \n  ",
     "layers": [
      "food"
     ]
    }
   },
   "geometry": {
    "type": "Point",
    "coordinates": [
     1.2798926,
     52.6308798
    ]
   }
  },
  {
   "type": "Feature",
   "id": "way/128738264",
   "properties": {
    "addr:city": "Norwich",
    "addr:country": "GB",
    "addr:housenumber": "2-4",
    "addr:interpolation": "even",
    "addr:postcode": "NR1 3LB",
    "addr:street": "Timberhill",
    "alt_name": "Gardeners Arms",
    "amenity": "pub",
    "building": "house",
    "email": "enquiries@themurderers.co.uk",
    "fhrs:id": "74153",
    "kitchen_hours": "Mo-Sa 10:00-17:00; Su 12:00-15:45",
    "name": "The Murderer's",
    "opening_hours": "Mo-Sa 10:00-23:30; Su 12:00-22:30",
    "phone": "+44 1603 621447",
    "real_ale": "9",
    "real_cider": "no",
    "source": "Bing",
    "website": "https://www.themurderers.co.uk/",
    "id": "way/128738264",
    "mapFeature": {
     "caption": "The Murderer's",
     "allowPopup": true,
     "location": "2-4  Timberhill  \n  NR1 3LB <br />\n  \n  \n  ",
     "layers": [
      "food"
     ]
    }
   },
   "geometry": {
    "type": "Point",
    "coordinates": [
     1.2952587,
     52.6268945
    ]
   }
  },
  {
   "type": "Feature",
   "id": "way/128738265",
   "properties": {
    "addr:city": "Norwich",
    "addr:country": "GB",
    "addr:housename": "The Woolpack Inn",
    "addr:housenumber": "9",
    "addr:postcode": "NR1 3EH",
    "addr:street": "Golden Ball Street",
    "amenity": "pub",
    "brand": "Star",
    "building": "house",
    "fhrs:id": "1080668",
    "kitchen_hours": "12:00-22:00",
    "name": "The Woolpack Inn",
    "opening_hours": "Mo-Sa 11:00-23:00; Su 12:00-22:30",
    "phone": "+44 1603 627047",
    "real_ale": "4",
    "real_cider": "no",
    "source": "Bing",
    "website": "http://www.johnbarras.com/pub/woolpack-norwich/c6372/",
    "id": "way/128738265",
    "mapFeature": {
     "caption": "The Woolpack Inn",
     "allowPopup": true,
     "location": "9  Golden Ball Street  \n  NR1 3EH <br />\n  \n  \n  ",
     "layers": [
      "food"
     ]
    }
   },
   "geometry": {
    "type": "Point",
    "coordinates": [
     1.2969258,
     52.626041
    ]
   }
  },
  {
   "type": "Feature",
   "id": "way/128989763",
   "properties": {
    "addr:city": "Norwich",
    "addr:country": "GB",
    "addr:housenumber": "61",
    "addr:postcode": "NR1 3RL",
    "addr:street": "Grove Road",
    "amenity": "pub",
    "building": "house",
    "email": "mail@traffordarms.co.uk",
    "fhrs:id": "809251",
    "kitchen_hours": "Mo-Fr 11:30-14:30; Sa,BH,PH 12:00-15:00; Su 12:00-15:00",
    "name": "Trafford Arms",
    "opening_hours": "Mo-Th 11:00-23:00; Fr-Sa 11:00-23:30; Su 12:00-22:30",
    "phone": "+44 1603 628466",
    "real_ale": "10",
    "real_cider": "yes",
    "source": "Bing",
    "website": "https://traffordarms.co.uk/",
    "id": "way/128989763",
    "mapFeature": {
     "caption": "Trafford Arms",
     "allowPopup": true,
     "location": "61  Grove Road  \n  NR1 3RL <br />\n  \n  \n  ",
     "layers": [
      "food"
     ]
    }
   },
   "geometry": {
    "type": "Point",
    "coordinates": [
     1.2909577,
     52.6205815
    ]
   }
  },
  {
   "type": "Feature",
   "id": "way/129538556",
   "properties": {
    "addr:city": "Norwich",
    "addr:country": "GB",
    "addr:housenumber": "27",
    "addr:postcode": "NR1 3HQ",
    "addr:street": "Hall Road",
    "amenity": "pub",
    "brand": "PPN Taverns",
    "building": "house",
    "email": "freemasonsarmsnorwich@hotmail.com",
    "name": "The Freemasons Arms",
    "old_name": "Billy Bluelight",
    "opening_hours": "Mo-Th 11:00-23:00; Fr-Sa 11:00-01:00",
    "outdoor_seating": "yes",
    "phone": "+44 1603 623768",
    "real_ale": "3",
    "real_cider": "no",
    "source": "Bing",
    "website": "https://www.facebook.com/freemasonsarmsnorwich/",
    "id": "way/129538556",
    "mapFeature": {
     "caption": "The Freemasons Arms",
     "allowPopup": true,
     "location": "27  Hall Road  \n  NR1 3HQ <br />\n  \n  \n  ",
     "layers": [
      "food"
     ]
    }
   },
   "geometry": {
    "type": "Point",
    "coordinates": [
     1.2988278,
     52.620487
    ]
   }
  },
  {
   "type": "Feature",
   "id": "way/133165676",
   "properties": {
    "addr:city": "Norwich",
    "addr:country": "GB",
    "addr:housenumber": "93-97",
    "addr:interpolation": "odd",
    "addr:postcode": "NR1 4HY",
    "addr:street": "Quebec Road",
    "amenity": "pub",
    "brand": "Phoenix Inns",
    "building": "house",
    "name": "The Quebec",
    "opening_hours": "Mo-Sa 12:00-23:00; Su 12:00-22:30",
    "phone": "+44 1603 625372",
    "real_ale": "1",
    "real_cider": "no",
    "source": "Bing",
    "source:amenity": "survey",
    "id": "way/133165676",
    "mapFeature": {
     "caption": "The Quebec",
     "allowPopup": true,
     "location": "93-97  Quebec Road  \n  NR1 4HY <br />\n  \n  \n  ",
     "layers": [
      "food"
     ]
    }
   },
   "geometry": {
    "type": "Point",
    "coordinates": [
     1.3156599,
     52.6323123
    ]
   }
  },
  {
   "type": "Feature",
   "id": "way/133498387",
   "properties": {
    "addr:city": "Norwich",
    "addr:country": "GB",
    "addr:housenumber": "12",
    "addr:postcode": "NR8 6XE",
    "addr:street": "The Square",
    "amenity": "pub",
    "brand": "Greene King",
    "building": "yes",
    "kitchen_hours": "12:00-14:30,18:00-21:00",
    "name": "The Otter",
    "opening_hours": "Mo-Sa 12:00-23:00; Su 12:00-22:30",
    "outdoor_seating": "yes",
    "phone": "+44 1603 260455",
    "real_ale": "yes",
    "source": "survey",
    "source:building": "Bing",
    "website": "http://www.gkmeetandeat.co.uk/locations/otter-drayton",
    "id": "way/133498387",
    "mapFeature": {
     "caption": "The Otter",
     "allowPopup": true,
     "location": "12  The Square  \n  NR8 6XE <br />\n  \n  \n  ",
     "layers": [
      "food"
     ]
    }
   },
   "geometry": {
    "type": "Point",
    "coordinates": [
     1.2119856,
     52.687301
    ]
   }
  },
  {
   "type": "Feature",
   "id": "way/134666613",
   "properties": {
    "addr:city": "Norwich",
    "addr:country": "GB",
    "addr:postcode": "NR6 6BB",
    "addr:street": "Delft Way",
    "amenity": "pub",
    "building": "yes",
    "fhrs:id": "18934",
    "kitchen_hours": "Mo-Fr 06:30-10:30; Sa-Sa 07:00-11:00",
    "name": "The Oaks",
    "opening_hours": "Mo-Sa 12:00-23:00; Su 12:00-22:30",
    "operator": "Brewer's Fayre",
    "phone": "+44 1603 428640",
    "real_ale": "no",
    "website": "https://www.brewersfayre.co.uk/brewersfayre/our-pubs/norwich/oaks.html",
    "wheelchair": "yes",
    "id": "way/134666613",
    "mapFeature": {
     "caption": "The Oaks",
     "allowPopup": true,
     "location": " Delft Way  \n  NR6 6BB <br />\n  \n  Wheelchair accessible \n  ",
     "layers": [
      "food"
     ]
    }
   },
   "geometry": {
    "type": "Point",
    "coordinates": [
     1.272977,
     52.6673037
    ]
   }
  },
  {
   "type": "Feature",
   "id": "way/134909094",
   "properties": {
    "addr:city": "Norwich",
    "addr:country": "GB",
    "addr:housenumber": "259",
    "addr:postcode": "NR7 8RL",
    "addr:street": "Wroxham Road",
    "amenity": "pub",
    "brand": "Star",
    "building": "yes",
    "email": "blueboarnorwich@yahoo.com",
    "fax": "+44 1603 446004",
    "kitchen_hours": "Mo-Sa 12:00-21:00; Su 12:00-20:00",
    "name": "The Blue Boar",
    "opening_hours": "Mo-Sa 11:00-23:00; Su 12:00-22:00",
    "outdoor_seating": "yes",
    "phone": "+44 1603 426802",
    "real_ale": "3",
    "real_cider": "no",
    "source": "OS_OpenData_StreetView",
    "website": "http://www.blueboarnorwich.co.uk/",
    "id": "way/134909094",
    "mapFeature": {
     "caption": "The Blue Boar",
     "allowPopup": true,
     "location": "259  Wroxham Road  \n  NR7 8RL <br />\n  \n  \n  ",
     "layers": [
      "food"
     ]
    }
   },
   "geometry": {
    "type": "Point",
    "coordinates": [
     1.3297782,
     52.6609961
    ]
   }
  },
  {
   "type": "Feature",
   "id": "way/135187132",
   "properties": {
    "addr:postcode": "NR13 6HQ",
    "addr:street": "Slad Lane",
    "addr:village": "Woodbastwick",
    "amenity": "pub",
    "building": "yes",
    "fhrs:id": "110826",
    "name": "Fur and Feather Inn",
    "source": "Bing",
    "source:addr": "FHRS Open Data",
    "wheelchair": "yes",
    "id": "way/135187132",
    "mapFeature": {
     "caption": "Fur and Feather Inn",
     "allowPopup": true,
     "location": " Slad Lane  \n  NR13 6HQ <br />\n  \n  Wheelchair accessible \n  ",
     "layers": [
      "food"
     ]
    }
   },
   "geometry": {
    "type": "Point",
    "coordinates": [
     1.4424921,
     52.6830011
    ]
   }
  },
  {
   "type": "Feature",
   "id": "way/135263795",
   "properties": {
    "addr:city": "Norwich",
    "addr:country": "GB",
    "addr:housenumber": "57",
    "addr:postcode": "NR3 1DD",
    "addr:street": "Colegate",
    "amenity": "pub",
    "brand": "Greene King",
    "building": "house",
    "email": "lily@goldenstarnorwich.co.uk",
    "fhrs:id": "9319;1108815",
    "kitchen_hours": "Mo 12:00-14:00; Tu 12:00-14:00,18:00-21:00; We-Fr 12:00-14:00,17:00-21:00; Sa 09:00-14:00",
    "name": "The Golden Star",
    "opening_hours": "Mo-Th 11:00-23:00; Fr 11:00-00:00; Sa 09:00-00:00; Su 19:00-23:00",
    "phone": "+44 1603 632447",
    "real_ale": "5",
    "real_cider": "no",
    "source": "Bing",
    "start_date": "1799",
    "website": "http://www.goldenstarnorwich.co.uk/",
    "wikidata": "Q26653842",
    "id": "way/135263795",
    "mapFeature": {
     "caption": "The Golden Star",
     "allowPopup": true,
     "location": "57  Colegate  \n  NR3 1DD <br />\n  \n  \n  ",
     "layers": [
      "food"
     ]
    }
   },
   "geometry": {
    "type": "Point",
    "coordinates": [
     1.2926561,
     52.6329563
    ]
   }
  },
  {
   "type": "Feature",
   "id": "way/135775323",
   "properties": {
    "addr:city": "Norwich",
    "addr:country": "GB",
    "addr:housenumber": "16",
    "addr:postcode": "NR2 3BB",
    "addr:street": "Stafford Street",
    "amenity": "pub",
    "building": "house",
    "building:levels": "2",
    "email": "mail@alexandratavern.com",
    "fhrs:id": "70289",
    "kitchen_hours": "12:30-19:00",
    "name": "Alexandra Tavern",
    "opening_hours": "Su-We 12:00-23:00; Th 12:00-00:00; Fr-Sa 10:30-00:00",
    "phone": "+44 1603 627772",
    "real_ale": "5",
    "real_cider": "no",
    "roof:levels": "0",
    "source": "Bing",
    "website": "http://www.alexandratavern.co.uk/",
    "id": "way/135775323",
    "mapFeature": {
     "caption": "Alexandra Tavern",
     "allowPopup": true,
     "location": "16  Stafford Street  \n  NR2 3BB <br />\n  \n  \n  ",
     "layers": [
      "food"
     ]
    }
   },
   "geometry": {
    "type": "Point",
    "coordinates": [
     1.276361,
     52.6324643
    ]
   }
  },
  {
   "type": "Feature",
   "id": "way/135775324",
   "properties": {
    "addr:city": "Norwich",
    "addr:country": "GB",
    "addr:housenumber": "46",
    "addr:postcode": "NR2 3BL",
    "addr:street": "St. Philips Road",
    "amenity": "pub",
    "brand": "Enterprise Inns",
    "dog": "yes",
    "email": "thebellevuenorwich@hotmail.com",
    "end_date": "2018-02-24",
    "internet_access": "wlan",
    "internet_access:fee": "no",
    "kitchen_hours": "Mo-Sa 11:00-14:30,17:30-20:45; Su 12:30-17:30",
    "name": "The Belle Vue",
    "opening_hours": "24/7 closed",
    "outdoor_seating": "yes",
    "phone": "+44 1603 621784",
    "real_ale": "4",
    "real_cider": "no",
    "source": "Bing",
    "website": "https://www.bellevuenorwich.co.uk/",
    "id": "way/135775324",
    "mapFeature": {
     "caption": "The Belle Vue",
     "allowPopup": true,
     "location": "46  St. Philips Road  \n  NR2 3BL <br />\n  \n  \n  ",
     "layers": [
      "food"
     ]
    }
   },
   "geometry": {
    "type": "Point",
    "coordinates": [
     1.2748709,
     52.6325446
    ]
   }
  },
  {
   "type": "Feature",
   "id": "way/135964026",
   "properties": {
    "addr:city": "Norwich",
    "addr:country": "GB",
    "addr:postcode": "NR1 3RU",
    "addr:street": "Orford Place",
    "amenity": "pub",
    "building": "shop",
    "email": "thelambinn@tcg-uk.com",
    "fhrs:id": "915715",
    "name": "Lamb Inn",
    "old_name": "Henrys Cafe Bar; Rat and Parrot",
    "opening_hours": "Mo-We 11:00-23:00; Th 11:00-00:00; Fr 11:00-00:30; Sa 10:00-00:30; Su 12:00-22:00",
    "phone": "+44 1603 625365",
    "real_ale": "3",
    "real_cider": "no",
    "website": "http://www.lambinn-norwich.co.uk/",
    "wikidata": "Q26303748",
    "id": "way/135964026",
    "mapFeature": {
     "caption": "Lamb Inn",
     "allowPopup": true,
     "location": " Orford Place  \n  NR1 3RU <br />\n  \n  \n  ",
     "layers": [
      "food"
     ]
    }
   },
   "geometry": {
    "type": "Point",
    "coordinates": [
     1.2939955,
     52.6271739
    ]
   }
  },
  {
   "type": "Feature",
   "id": "way/136090709",
   "properties": {
    "addr:city": "Norwich",
    "addr:country": "GB",
    "addr:housenumber": "2-8",
    "addr:interpolation": "even",
    "addr:postcode": "NR1 3NA",
    "addr:street": "All Saints Green",
    "amenity": "pub",
    "building": "house",
    "email": "enquiries@pigandwhistlenorwich.co.uk",
    "fhrs:id": "1021303",
    "name": "Pig and Whistle",
    "old_name": "Westlegate;Imagine;Chandlers;Wig and Pistle;Pig and Whistle;Three Tuns",
    "opening_hours": "Su-We 11:30-23:00; Th 11:30-00:00; Fr-Sa 11:00-02:00",
    "phone": "+44 1603 665902",
    "source": "Bing",
    "website": "http://www.pigandwhistlenorwich.co.uk/",
    "id": "way/136090709",
    "mapFeature": {
     "caption": "Pig and Whistle",
     "allowPopup": true,
     "location": "2-8  All Saints Green  \n  NR1 3NA <br />\n  \n  \n  ",
     "layers": [
      "food"
     ]
    }
   },
   "geometry": {
    "type": "Point",
    "coordinates": [
     1.2951113,
     52.6256899
    ]
   }
  },
  {
   "type": "Feature",
   "id": "way/136363795",
   "properties": {
    "addr:city": "Norwich",
    "addr:country": "GB",
    "addr:housename": "Wetherspoons",
    "addr:housenumber": "6",
    "addr:postcode": "NR1 1WX",
    "addr:street": "Wherry Road",
    "amenity": "pub",
    "building": "retail",
    "fhrs:id": "84060",
    "internet_access": "wlan",
    "name": "The Queen of Iceni",
    "old_name": "Lloyds No. 1",
    "opening_hours": "Su-Th 08:00-23:00; Fr-Sa 08:00-01:00; ",
    "operator": "J D Wetherspoon",
    "outdoor_seating": "yes",
    "phone": "+44 1603 877690",
    "real_ale": "5",
    "real_cider": "no",
    "source": "Bing",
    "website": "https://www.jdwetherspoon.com/pubs/all-pubs/england/norfolk/the-queen-of-iceni-norwich",
    "wheelchair": "yes",
    "id": "way/136363795",
    "mapFeature": {
     "caption": "The Queen of Iceni",
     "allowPopup": true,
     "location": "6  Wherry Road  \n  NR1 1WX <br />\n  \n  Wheelchair accessible \n  ",
     "layers": [
      "food"
     ]
    }
   },
   "geometry": {
    "type": "Point",
    "coordinates": [
     1.3038326,
     52.6250439
    ]
   }
  },
  {
   "type": "Feature",
   "id": "way/137381657",
   "properties": {
    "addr:city": "Norwich",
    "addr:country": "GB",
    "addr:housenumber": "98-100",
    "addr:interpolation": "even",
    "addr:postcode": "NR3 4LF",
    "addr:street": "Lawson Road",
    "amenity": "pub",
    "brewery": "Fat Cat",
    "building": "yes",
    "craft": "brewery",
    "dog": "yes",
    "email": "info@fatcattap.co.uk",
    "fhrs:id": "15817",
    "internet_access": "wlan",
    "microbrewery": "yes",
    "name": "The Fat Cat Brewery Tap",
    "off_licence": "yes",
    "old_name": "Cider Shed;The Shed;Wherry",
    "opening_hours": "Mo-Th 12:00-23:00; Fr 12:00-00:00; Sa 11:00-00:00; Su 11:00-22:30",
    "outdoor_seating": "yes",
    "phone": "+44 1603 413153",
    "real_ale": "14",
    "real_cider": "yes",
    "source": "Bing",
    "start_date": "2nd Feb 2011",
    "website": "http://www.fatcattap.co.uk/",
    "id": "way/137381657",
    "mapFeature": {
     "caption": "The Fat Cat Brewery Tap",
     "allowPopup": true,
     "location": "98-100  Lawson Road  \n  NR3 4LF <br />\n  \n  \n  ",
     "layers": [
      "food"
     ]
    }
   },
   "geometry": {
    "type": "Point",
    "coordinates": [
     1.3003409,
     52.6434051
    ]
   }
  },
  {
   "type": "Feature",
   "id": "way/138504756",
   "properties": {
    "addr:city": "Norwich",
    "addr:country": "GB",
    "addr:housenumber": "23",
    "addr:postcode": "NR2 1DS",
    "addr:street": "Pottergate",
    "amenity": "pub",
    "brand": "Greene King",
    "building": "yes",
    "email": "info@thebirdcagenorwich.co.uk",
    "fhrs:id": "18832",
    "gay": "welcome",
    "name": "The Birdcage",
    "old_name": "Pottergate Tavern;Brown Derby;Morning Star",
    "opening_hours": "Mo-Th 11:00-00:00; Fr-Sa 11:00-01:00; Su off",
    "phone": "+44 1603 633534",
    "real_ale": "3",
    "real_cider": "no",
    "source": "Bing",
    "start_date": "2007-08-01",
    "toilets:wheelchair": "no",
    "website": "https://www.thebirdcagenorwich.co.uk/",
    "wheelchair": "limited",
    "id": "way/138504756",
    "mapFeature": {
     "caption": "The Birdcage",
     "allowPopup": true,
     "location": "23  Pottergate  \n  NR2 1DS <br />\n  \n  Limited wheelchair access \n  ",
     "layers": [
      "food"
     ]
    }
   },
   "geometry": {
    "type": "Point",
    "coordinates": [
     1.2916733,
     52.6301181
    ]
   }
  },
  {
   "type": "Feature",
   "id": "way/138504789",
   "properties": {
    "addr:city": "Norwich",
    "addr:country": "GB",
    "addr:housenumber": "4",
    "addr:postcode": "NR2 4AF",
    "addr:street": "Saint Andrews Street",
    "amenity": "pub",
    "building": "yes",
    "fhrs:id": "15618",
    "name": "The Rumsey Wells",
    "old_name": "St. Andrews Tavern; Blueberries",
    "opening_hours": "12:00-00:00",
    "phone": "+44 1603 614858",
    "real_ale": "5",
    "real_cider": "no",
    "source": "Bing",
    "website": "https://www.rumseywells.co.uk/",
    "id": "way/138504789",
    "mapFeature": {
     "caption": "The Rumsey Wells",
     "allowPopup": true,
     "location": "4  Saint Andrews Street  \n  NR2 4AF <br />\n  \n  \n  ",
     "layers": [
      "food"
     ]
    }
   },
   "geometry": {
    "type": "Point",
    "coordinates": [
     1.2931911,
     52.6305932
    ]
   }
  },
  {
   "type": "Feature",
   "id": "way/138504797",
   "properties": {
    "addr:city": "Norwich",
    "addr:country": "GB",
    "addr:housenumber": "16",
    "addr:postcode": "NR2 4AL",
    "addr:street": "Charing Cross",
    "amenity": "pub",
    "building": "house",
    "fhrs:id": "690203",
    "name": "The Mash Tun",
    "opening_hours": "Mo-We 12:00-00:00; Th-Sa 12:00-01:00; Su 12:00-23:00",
    "phone": "+44 1603 660355",
    "real_ale": "1",
    "real_cider": "no",
    "source": "servey",
    "website": "https://en-gb.facebook.com/TheMashTunNorwich/",
    "id": "way/138504797",
    "mapFeature": {
     "caption": "The Mash Tun",
     "allowPopup": true,
     "location": "16  Charing Cross  \n  NR2 4AL <br />\n  \n  \n  ",
     "layers": [
      "food"
     ]
    }
   },
   "geometry": {
    "type": "Point",
    "coordinates": [
     1.2919414,
     52.630573
    ]
   }
  },
  {
   "type": "Feature",
   "id": "way/139453240",
   "properties": {
    "addr:city": "Norwich",
    "addr:country": "GB",
    "addr:housenumber": "122",
    "addr:postcode": "NR2 4DR",
    "addr:street": "Nelson Street",
    "amenity": "pub",
    "brand": "Enterprise Inns",
    "building": "house",
    "building:levels": "2",
    "fhrs:id": "457281",
    "name": "The Nelson",
    "opening_hours": "12:00-00:00",
    "outdoor_seating": "yes",
    "phone": "+44 1603 626362",
    "real_ale": "5",
    "real_cider": "no",
    "source": "Bing",
    "id": "way/139453240",
    "mapFeature": {
     "caption": "The Nelson",
     "allowPopup": true,
     "location": "122  Nelson Street  \n  NR2 4DR <br />\n  \n  \n  ",
     "layers": [
      "food"
     ]
    }
   },
   "geometry": {
    "type": "Point",
    "coordinates": [
     1.2760571,
     52.6376745
    ]
   }
  },
  {
   "type": "Feature",
   "id": "way/140516377",
   "properties": {
    "addr:city": "Norwich",
    "addr:country": "GB",
    "addr:housenumber": "59",
    "addr:postcode": "NR4 6LA",
    "addr:street": "Ipswich Road",
    "amenity": "pub",
    "brand": "Enterprise Inns",
    "building": "house",
    "email": "enquiries@oaktreenorwich.co.uk",
    "fhrs:id": "853736",
    "internet_access": "wlan",
    "kitchen_hours": "Mo-Th 12:00-21:00; Fr-Sa 12:00-21:30; Su 12:00-20:00",
    "kitchen_hours:carvery": "We 12:00-15:00; Su 12:00-18:00",
    "name": "The Oak Tree",
    "old_name": "Maid Marian",
    "opening_hours": "Mo-Sa 11:00-23:00; Su 12:00-22:30",
    "outdoor_seating": "yes",
    "payment:contactless": "yes",
    "phone": "+44 1603 920280",
    "real_ale": "3",
    "real_cider": "no",
    "source": "Bing",
    "website": "https://www.oaktreenorwich.co.uk/",
    "id": "way/140516377",
    "mapFeature": {
     "caption": "The Oak Tree",
     "allowPopup": true,
     "location": "59  Ipswich Road  \n  NR4 6LA <br />\n  \n  \n  ",
     "layers": [
      "food"
     ]
    }
   },
   "geometry": {
    "type": "Point",
    "coordinates": [
     1.2814517,
     52.6112066
    ]
   }
  },
  {
   "type": "Feature",
   "id": "way/152298966",
   "properties": {
    "addr:city": "Norwich",
    "addr:country": "GB",
    "addr:housenumber": "101",
    "addr:postcode": "NR1 1TR",
    "addr:street": "Thorpe Road",
    "amenity": "pub",
    "brewery": "Fat Cat",
    "building": "yes",
    "fhrs:id": "470783",
    "internet_access": "wlan",
    "name": "Fat Cat & Canary",
    "old_name": "The Mustard Pot",
    "opening_hours": "Su-Th 12:00-23:00; Fr 12:00-00:00; Sa 11:00-00:00",
    "outdoor_seating": "yes",
    "phone": "+44 1603 432393",
    "real_ale": "12",
    "real_cider": "yes",
    "website": "http://www.fatcatcanary.co.uk/",
    "wheelchair": "yes",
    "id": "way/152298966",
    "mapFeature": {
     "caption": "Fat Cat & Canary",
     "allowPopup": true,
     "location": "101  Thorpe Road  \n  NR1 1TR <br />\n  \n  Wheelchair accessible \n  ",
     "layers": [
      "food"
     ]
    }
   },
   "geometry": {
    "type": "Point",
    "coordinates": [
     1.3213294,
     52.6253265
    ]
   }
  },
  {
   "type": "Feature",
   "id": "way/160919945",
   "properties": {
    "addr:city": "Norwich",
    "addr:country": "GB",
    "addr:housename": "The Gordon Public House",
    "addr:postcode": "NR7 0DR",
    "addr:street": "Gordon Avenue",
    "amenity": "pub",
    "building": "house",
    "name": "The Gordon",
    "opening_hours": "11:00-23:00",
    "phone": "+44 1603 434658",
    "real_ale": "2",
    "real_cider": "no",
    "id": "way/160919945",
    "mapFeature": {
     "caption": "The Gordon",
     "allowPopup": true,
     "location": " Gordon Avenue  \n  NR7 0DR <br />\n  \n  \n  ",
     "layers": [
      "food"
     ]
    }
   },
   "geometry": {
    "type": "Point",
    "coordinates": [
     1.3380553,
     52.6340823
    ]
   }
  },
  {
   "type": "Feature",
   "id": "way/160941197",
   "properties": {
    "addr:city": "Norwich",
    "addr:country": "GB",
    "addr:housenumber": "29",
    "addr:postcode": "NR2 1AG",
    "addr:street": "Bedford Street",
    "alt_name": "The Wild Man",
    "amenity": "pub",
    "building": "yes",
    "email": "daz-john@hotmail.co.uk",
    "fhrs:id": "836841",
    "kitchen_hours": "Su-Fr 12:00-15:00,18:00-21:00; Sa 12:00-15:00",
    "name": "The Wildman",
    "opening_hours": "Su-Th 12:00-23:00; Fr-Sa 12:00-00:00",
    "phone": "+44 1603 627686",
    "real_ale": "3",
    "real_cider": "no",
    "website": "http://www.thewildmanpubnorwich.com/",
    "id": "way/160941197",
    "mapFeature": {
     "caption": "The Wildman",
     "allowPopup": true,
     "location": "29  Bedford Street  \n  NR2 1AG <br />\n  \n  \n  ",
     "layers": [
      "food"
     ]
    }
   },
   "geometry": {
    "type": "Point",
    "coordinates": [
     1.2956313,
     52.6298421
    ]
   }
  },
  {
   "type": "Feature",
   "id": "way/163413197",
   "properties": {
    "addr:city": "Norwich",
    "addr:country": "GB",
    "addr:housenumber": "36",
    "addr:postcode": "NR2 1RD",
    "addr:street": "Market Place",
    "amenity": "pub",
    "building": "retail",
    "email": "info@thesirgarnet.co.uk",
    "email:chef": "baronofbeef@thesirgarnet.co.uk",
    "email:hire": "bookings@thesirgarnet.co.uk",
    "fhrs:id": "661405",
    "name": "Sir Garnet",
    "old_name": "Sir Garnet Wolseley",
    "opening_hours": "Mo-We 10:00-00:30; Th-Sa 10:00-02:00; Su 11:00-20:00",
    "opening_hours:kitchen": "Mo-Sa 12:00-21:00; Su closed",
    "phone": "+44 1603 615892",
    "real_ale": "yes",
    "website": "http://www.thesirgarnet.co.uk/",
    "id": "way/163413197",
    "mapFeature": {
     "caption": "Sir Garnet",
     "allowPopup": true,
     "location": "36  Market Place  \n  NR2 1RD <br />\n  \n  \n  ",
     "layers": [
      "food"
     ]
    }
   },
   "geometry": {
    "type": "Point",
    "coordinates": [
     1.292865,
     52.6280883
    ]
   }
  },
  {
   "type": "Feature",
   "id": "way/166345378",
   "properties": {
    "addr:city": "Norwich",
    "addr:country": "GB",
    "addr:housename": "Bridge House",
    "addr:housenumber": "69-71",
    "addr:interpolation": "odd",
    "addr:postcode": "NR1 1SR",
    "addr:street": "Riverside Road",
    "amenity": "pub",
    "building": "house",
    "email": "billy@lollardspit.com",
    "fhrs:id": "499551",
    "gay": "yes",
    "name": "Lollards Pit",
    "old_name": "The Bridge House;The Kings Arms",
    "opening_hours": "Mo-Th 16:00-23:00; Fr 16:00-00:00; Sa 12:00-01:00; Su 13:00-23:00",
    "outdoor_seating": "yes",
    "phone": "+44 1603 624675",
    "real_ale": "4",
    "real_cider": "no",
    "website": "http://www.lollardspit.com/",
    "wikidata": "Q26303706",
    "id": "way/166345378",
    "mapFeature": {
     "caption": "Lollards Pit",
     "allowPopup": true,
     "location": "69-71  Riverside Road  \n  NR1 1SR <br />\n  \n  \n  ",
     "layers": [
      "food"
     ]
    }
   },
   "geometry": {
    "type": "Point",
    "coordinates": [
     1.3093415,
     52.6321976
    ]
   }
  },
  {
   "type": "Feature",
   "id": "way/168155454",
   "properties": {
    "addr:city": "Norwich",
    "addr:country": "GB",
    "addr:housenumber": "19",
    "addr:postcode": "NR3 1RB",
    "addr:street": "Upper King Street",
    "amenity": "pub",
    "building": "yes",
    "contact:email": "info@stadianorwich.co.uk",
    "contact:mobile": "+44 7885 426861",
    "contact:phone": "+44 1603 617554",
    "contact:website": "http://www.stadianorwich.co.uk/",
    "fhrs:id": "690198",
    "name": "Stadia",
    "old_name": "Pitcher & Piano;Cafe Maximo;Office",
    "opening_hours": "Mo-We 16:00-00:00; Th 16:00-02:00; Fr 16:00-03:00; Sa 12:00-03:00; Su 12:00-01:00",
    "phone:hours": "09:00-17:00",
    "id": "way/168155454",
    "mapFeature": {
     "caption": "Stadia",
     "allowPopup": true,
     "location": "19  Upper King Street  \n  NR3 1RB <br />\n  \n  \n  ",
     "layers": [
      "food"
     ]
    }
   },
   "geometry": {
    "type": "Point",
    "coordinates": [
     1.2991508,
     52.6296545
    ]
   }
  },
  {
   "type": "Feature",
   "id": "way/168164208",
   "properties": {
    "addr:city": "Norwich",
    "addr:country": "GB",
    "addr:housenumber": "2",
    "addr:postcode": "NR8 6PW",
    "addr:street": "Fakenham Road",
    "amenity": "pub",
    "building": "house",
    "internet_access": "wlan",
    "kitchen_hours": "Mo-Sa 11:00-21:00; Su 12:00-21:00",
    "name": "The Red Lion",
    "opening_hours": "Mo-Sa 11:00-23:00; Su 12:00-22:30",
    "phone": "+44 1603 867262",
    "real_ale": "3",
    "real_cider": "no",
    "website": "https://www.greeneking-pubs.co.uk/pubs/norfolk/red-lion/",
    "wikidata": "Q26303392",
    "id": "way/168164208",
    "mapFeature": {
     "caption": "The Red Lion",
     "allowPopup": true,
     "location": "2  Fakenham Road  \n  NR8 6PW <br />\n  \n  \n  ",
     "layers": [
      "food"
     ]
    }
   },
   "geometry": {
    "type": "Point",
    "coordinates": [
     1.223635,
     52.6763644
    ]
   }
  },
  {
   "type": "Feature",
   "id": "way/168293483",
   "properties": {
    "addr:city": "Norwich",
    "addr:country": "GB",
    "addr:housenumber": "75",
    "addr:postcode": "NR2 2DQ",
    "addr:street": "Mount Pleasant",
    "amenity": "pub",
    "building": "house",
    "fhrs:id": "51742",
    "internet_access": "wlan",
    "name": "The Eaton Cottage",
    "opening_hours": "Su-Th 12:00-23:00; Fr-Sa 12:00-00:00",
    "outdoor_seating": "yes",
    "phone": "+44 1603 453048",
    "real_ale": "5",
    "real_cider": "yes",
    "start_date": "1855",
    "id": "way/168293483",
    "mapFeature": {
     "caption": "The Eaton Cottage",
     "allowPopup": true,
     "location": "75  Mount Pleasant  \n  NR2 2DQ <br />\n  \n  \n  ",
     "layers": [
      "food"
     ]
    }
   },
   "geometry": {
    "type": "Point",
    "coordinates": [
     1.2753712,
     52.6224632
    ]
   }
  },
  {
   "type": "Feature",
   "id": "way/169957628",
   "properties": {
    "addr:city": "Norwich",
    "addr:country": "GB",
    "addr:housenumber": "17",
    "addr:postcode": "NR3 1RZ",
    "addr:street": "Bishopgate",
    "amenity": "pub",
    "brand": "Enterprise Inns",
    "building": "house",
    "email": "theadamandeve@hotmail.com",
    "fhrs:id": "5231",
    "kitchen_hours": "Mo-Sa 12:00-19:00; Su 12:00-17:00",
    "name": "The Adam And Eve",
    "opening_hours": "Mo-Sa 11:00-23:00; Su 12:00-22:30",
    "phone": "+44 1603 667423",
    "real_ale": "4",
    "real_cider": "no",
    "website": "http://www.facebook.com/pages/Adam-Eve-Norwich/304797245222",
    "wikidata": "Q26653814",
    "id": "way/169957628",
    "mapFeature": {
     "caption": "The Adam And Eve",
     "allowPopup": true,
     "location": "17  Bishopgate  \n  NR3 1RZ <br />\n  \n  \n  ",
     "layers": [
      "food"
     ]
    }
   },
   "geometry": {
    "type": "Point",
    "coordinates": [
     1.3031967,
     52.6338012
    ]
   }
  },
  {
   "type": "Feature",
   "id": "way/169959573",
   "properties": {
    "addr:city": "Norwich",
    "addr:country": "GB",
    "addr:housenumber": "96",
    "addr:postcode": "NR3 3HT",
    "addr:street": "Angel Road",
    "amenity": "pub",
    "building": "house",
    "email": "ikwarren-angel@tiscali.co.uk",
    "fhrs:id": "1857",
    "name": "The Angel Gardens",
    "opening_hours": "Mo-Fr 11:00-00:00; Sa 11:00-01:00; Su 12:00-23:30",
    "phone": "+44 1603 427490",
    "real_ale": "7",
    "real_cider": "no",
    "toilets:wheelchair": "no",
    "website": "http://www.norwichinns.com/2-16",
    "wheelchair:description": "There are steps to the toilet. but you can gain access to the pub by manual wheelchair. Not by electric wheelchair as doorway entrance is limited. The bar staff are really helpful.",
    "id": "way/169959573",
    "mapFeature": {
     "caption": "The Angel Gardens",
     "allowPopup": true,
     "location": "96  Angel Road  \n  NR3 3HT <br />\n  \n  \n  There are steps to the toilet. but you can gain access to the pub by manual wheelchair. Not by electric wheelchair as doorway entrance is limited. The bar staff are really helpful.",
     "layers": [
      "food"
     ]
    }
   },
   "geometry": {
    "type": "Point",
    "coordinates": [
     1.2921957,
     52.6438973
    ]
   }
  },
  {
   "type": "Feature",
   "id": "way/169960093",
   "properties": {
    "addr:city": "Norwich",
    "addr:country": "GB",
    "addr:housenumber": "1",
    "addr:postcode": "NR3 4LW",
    "addr:street": "Magdalen Road",
    "amenity": "pub",
    "brand": "Enterprise Inns",
    "building": "house",
    "fhrs:id": "18335",
    "kitchen_hours": "Su 14:00-18:00; Mo-Sa off",
    "name": "The Artichoke",
    "opening_hours": "Mo-Sa 12:00-23:00; Su 12:00-22:30",
    "phone": "+44 1603 633080",
    "real_ale": "1",
    "real_cider": "no",
    "id": "way/169960093",
    "mapFeature": {
     "caption": "The Artichoke",
     "allowPopup": true,
     "location": "1  Magdalen Road  \n  NR3 4LW <br />\n  \n  \n  ",
     "layers": [
      "food"
     ]
    }
   },
   "geometry": {
    "type": "Point",
    "coordinates": [
     1.2968953,
     52.6389193
    ]
   }
  },
  {
   "type": "Feature",
   "id": "way/169965356",
   "properties": {
    "addr:city": "Norwich",
    "addr:country": "GB",
    "addr:housenumber": "1",
    "addr:postcode": "NR2 1SL",
    "addr:street": "Old Post Office Yard",
    "amenity": "pub",
    "building": "yes",
    "email": "simon@bedfordsbar.co.uk",
    "fhrs:id": "1042700",
    "kitchen_hours": "We-Th 18:00-21:00, Fr-Sa 12:00-15:00,18:00-21:00",
    "name": "Bedfords",
    "opening_hours": "We-Th 18:00+; Fr-Sa 12:00-15:00,18:00+; Su-Tu off",
    "phone": "+44 1603 666869",
    "real_ale": "no",
    "real_cider": "no",
    "website": "https://www.bedfordsbar.co.uk/",
    "id": "way/169965356",
    "mapFeature": {
     "caption": "Bedfords",
     "allowPopup": true,
     "location": "1  Old Post Office Yard  \n  NR2 1SL <br />\n  \n  \n  ",
     "layers": [
      "food"
     ]
    }
   },
   "geometry": {
    "type": "Point",
    "coordinates": [
     1.2949279,
     52.6298485
    ]
   }
  },
  {
   "type": "Feature",
   "id": "way/169980891",
   "properties": {
    "addr:city": "Norwich",
    "addr:country": "GB",
    "addr:housenumber": "50",
    "addr:postcode": "NR2 3DE",
    "addr:street": "Earlham Road",
    "amenity": "pub",
    "brand": "Punch Taverns",
    "building": "house",
    "fhrs:id": "851584",
    "kitchen_hours": "Mo-Sa 12:00-15:00,18:00-21:00; Su 12:00-17:00",
    "name": "The Black Horse",
    "opening_hours": "Mo-Sa 11:00-23:00; Su 12:00-22:30",
    "outdoor_seating": "yes",
    "phone": "+44 1603 624682",
    "real_ale": "3",
    "real_cider": "no",
    "website": "http://theblackhorsenorwich.com/",
    "wikidata": "Q26303207",
    "id": "way/169980891",
    "mapFeature": {
     "caption": "The Black Horse",
     "allowPopup": true,
     "location": "50  Earlham Road  \n  NR2 3DE <br />\n  \n  \n  ",
     "layers": [
      "food"
     ]
    }
   },
   "geometry": {
    "type": "Point",
    "coordinates": [
     1.2785217,
     52.6306032
    ]
   }
  },
  {
   "type": "Feature",
   "id": "way/169986598",
   "properties": {
    "addr:city": "Norwich",
    "addr:country": "GB",
    "addr:housenumber": "197",
    "addr:postcode": "NR6 5QA",
    "addr:street": "Reepham Road",
    "alt_name": "The Chestnut Tree",
    "amenity": "pub",
    "brand": "Ei Publican Partnerships",
    "building": "house",
    "cuisine": "regional",
    "email": "info@chestnuttreenorwich.co.uk",
    "fhrs:id": "187566",
    "kitchen_hours": "Mo-Sa 12:00-21:00; Su 12:00-20:00",
    "name": "Chestnut Tree",
    "opening_hours": "Mo-We 11:30-22:00; Th-Sa 11:30-23:00; Su 12:00-21:00",
    "outdoor_seating": "yes",
    "phone": "+44 1603 483583",
    "real_ale": "3",
    "real_cider": "no",
    "start_date": "2018-11-12",
    "website": "https://www.chestnuttreenorwich.co.uk/",
    "id": "way/169986598",
    "mapFeature": {
     "caption": "Chestnut Tree",
     "allowPopup": true,
     "location": "197  Reepham Road  \n  NR6 5QA <br />\n  \n  \n  ",
     "layers": [
      "food"
     ]
    }
   },
   "geometry": {
    "type": "Point",
    "coordinates": [
     1.2628101,
     52.6646392
    ]
   }
  },
  {
   "type": "Feature",
   "id": "way/170315605",
   "properties": {
    "addr:city": "Norwich",
    "addr:country": "GB",
    "addr:housenumber": "101",
    "addr:postcode": "NR2 1SE",
    "addr:street": "Chapelfield Road",
    "amenity": "pub",
    "brand": "Batemans",
    "building": "house",
    "email": "enquiries@championpub.co.uk",
    "fhrs:id": "747637",
    "internet_access": "wlan",
    "internet_access:fee": "no",
    "kitchen_hours": "Mo-Sa 12:00-15:00,18:00-20:00; Su off",
    "name": "The Champion",
    "opening_hours": "Mo-Fr 11:00-11:00; Sa 11:00-00:00; Su 11:00-18:00",
    "operator": "Laconn Inns",
    "outdoor_seating": "yes",
    "phone": "+44 1603 628148",
    "real_ale": "4",
    "real_cider": "yes",
    "start_date": "2012-05-22",
    "website": "http://www.championpub.co.uk/",
    "id": "way/170315605",
    "mapFeature": {
     "caption": "The Champion",
     "allowPopup": true,
     "location": "101  Chapelfield Road  \n  NR2 1SE <br />\n  \n  \n  ",
     "layers": [
      "food"
     ]
    }
   },
   "geometry": {
    "type": "Point",
    "coordinates": [
     1.2898187,
     52.6242917
    ]
   }
  },
  {
   "type": "Feature",
   "id": "way/170320268",
   "properties": {
    "addr:city": "Norwich",
    "addr:country": "GB",
    "addr:housenumber": "1",
    "addr:postcode": "NR2 2SL",
    "addr:street": "Union Street",
    "amenity": "pub",
    "building": "house",
    "fhrs:id": "878408",
    "name": "Coach & Horses",
    "opening_hours": "Mo-Sa 12:00-23:00; Su 12:00-22:30",
    "phone": "+44 1603 610032",
    "real_ale": "2",
    "real_cider": "no",
    "id": "way/170320268",
    "mapFeature": {
     "caption": "Coach & Horses",
     "allowPopup": true,
     "location": "1  Union Street  \n  NR2 2SL <br />\n  \n  \n  ",
     "layers": [
      "food"
     ]
    }
   },
   "geometry": {
    "type": "Point",
    "coordinates": [
     1.2859272,
     52.6258664
    ]
   }
  },
  {
   "type": "Feature",
   "id": "way/170325077",
   "properties": {
    "addr:city": "Norwich",
    "addr:country": "GB",
    "addr:housenumber": "9",
    "addr:postcode": "NR3 4TB",
    "addr:street": "Silver Road",
    "amenity": "pub",
    "brand": "Grain Brewery",
    "building": "house",
    "email": "info@thecottagenorwich.co.uk",
    "fhrs:id": "799489",
    "internet_access": "wlan",
    "internet_access:fee": "no",
    "name": "The Cottage",
    "opening_hours": "12:00-23:00",
    "outdoor_seating": "yes",
    "phone": "+44 1603 665535",
    "real_ale": "7",
    "real_cider": "yes",
    "website": "http://www.thecottagenorwich.co.uk/",
    "id": "way/170325077",
    "mapFeature": {
     "caption": "The Cottage",
     "allowPopup": true,
     "location": "9  Silver Road  \n  NR3 4TB <br />\n  \n  \n  ",
     "layers": [
      "food"
     ]
    }
   },
   "geometry": {
    "type": "Point",
    "coordinates": [
     1.3027012,
     52.6374749
    ]
   }
  },
  {
   "type": "Feature",
   "id": "way/170331338",
   "properties": {
    "addr:city": "Norwich",
    "addr:country": "GB",
    "addr:housenumber": "91-93",
    "addr:interpolation": "odd",
    "addr:postcode": "NR3 1EG",
    "addr:street": "Waterloo Road",
    "amenity": "pub",
    "building": "house",
    "email": "dukeofwellington@tiscali.co.uk",
    "fax": "+44 1953 457776",
    "fhrs:id": "76177",
    "internet_access": "wlan",
    "name": "Duke of Wellington",
    "old_name": "Iron Duke",
    "opening_hours": "Mo-Th 12:00-23:30; Fr-Sa 12:00-00:00; Su 12:00-22:30",
    "phone": "+44 1603 441182",
    "real_ale": "17",
    "real_cider": "yes",
    "website": "http://www.dukeofwellingtonnorwich.co.uk/",
    "id": "way/170331338",
    "mapFeature": {
     "caption": "Duke of Wellington",
     "allowPopup": true,
     "location": "91-93  Waterloo Road  \n  NR3 1EG <br />\n  \n  \n  ",
     "layers": [
      "food"
     ]
    }
   },
   "geometry": {
    "type": "Point",
    "coordinates": [
     1.2938678,
     52.6422281
    ]
   }
  },
  {
   "type": "Feature",
   "id": "way/170332193",
   "properties": {
    "addr:city": "Norwich",
    "addr:country": "GB",
    "addr:housenumber": "2-4",
    "addr:interpolation": "even",
    "addr:postcode": "NR3 4LF",
    "addr:street": "Lawson Road",
    "amenity": "pub",
    "brand": "Beards of Sussex",
    "building": "house",
    "fhrs:id": "32614",
    "name": "Dyers Arms",
    "opening_hours": "Mo-Sa 12:00-23:00; Su 12:00-22:30",
    "phone": "+44 1603 787237",
    "real_ale": "2",
    "real_cider": "no",
    "id": "way/170332193",
    "mapFeature": {
     "caption": "Dyers Arms",
     "allowPopup": true,
     "location": "2-4  Lawson Road  \n  NR3 4LF <br />\n  \n  \n  ",
     "layers": [
      "food"
     ]
    }
   },
   "geometry": {
    "type": "Point",
    "coordinates": [
     1.2973968,
     52.643073
    ]
   }
  },
  {
   "type": "Feature",
   "id": "way/170335177",
   "properties": {
    "addr:city": "Norwich",
    "addr:country": "GB",
    "addr:housenumber": "118",
    "addr:postcode": "NR3 3JJ",
    "addr:street": "Philadelphia Lane",
    "amenity": "pub",
    "brand": "McLennan Inns",
    "building": "house",
    "fhrs:id": "57304",
    "name": "The Forge",
    "old_name": "Loaf",
    "opening_hours": "Mo-Sa 12:00-23:00; Su 12:00-22:30",
    "outdoor_seating": "yes",
    "phone": "+44 1603 415924",
    "real_ale": "yes",
    "website": "https://the-forge.webs.com/",
    "id": "way/170335177",
    "mapFeature": {
     "caption": "The Forge",
     "allowPopup": true,
     "location": "118  Philadelphia Lane  \n  NR3 3JJ <br />\n  \n  \n  ",
     "layers": [
      "food"
     ]
    }
   },
   "geometry": {
    "type": "Point",
    "coordinates": [
     1.2896253,
     52.6479936
    ]
   }
  },
  {
   "type": "Feature",
   "id": "way/170338166",
   "properties": {
    "addr:city": "Norwich",
    "addr:country": "GB",
    "addr:housenumber": "102",
    "addr:postcode": "NR3 1JD",
    "addr:street": "Magdalen Street",
    "amenity": "pub",
    "building": "house",
    "fhrs:id": "731305",
    "name": "Cactus",
    "old_name": "Escape;The Queens Arms",
    "opening_hours": "Mo-Th 09:30-18:00; Fr-Sa 09:30-22:00; Su 11:00-18:00",
    "phone": "+44 1603 627667",
    "real_ale": "yes",
    "id": "way/170338166",
    "mapFeature": {
     "caption": "Cactus",
     "allowPopup": true,
     "location": "102  Magdalen Street  \n  NR3 1JD <br />\n  \n  \n  ",
     "layers": [
      "food"
     ]
    }
   },
   "geometry": {
    "type": "Point",
    "coordinates": [
     1.2964795,
     52.6369789
    ]
   }
  },
  {
   "type": "Feature",
   "id": "way/170559533",
   "properties": {
    "addr:city": "Norwich",
    "addr:country": "GB",
    "addr:postcode": "NR8 5BS",
    "addr:street": "Townhouse Road",
    "amenity": "pub",
    "building": "house",
    "email": "info@thehartenorwich.co.uk",
    "fhrs:id": "648017",
    "kitchen_hours": "Tu-Sa 12:00-14:30,18:00-21:00; Su 12:00-17:00",
    "name": "The Harte of Costessey",
    "old_name": "The White Hart",
    "opening_hours": "Tu-Th 12:00-15:00,17:30-23:00; Fr-Su 12:00-00:00; Mo off",
    "phone": "+44 1603 742755",
    "real_ale": "2",
    "real_cider": "no",
    "start_year": "1931",
    "website": "http://www.thehartenorwich.co.uk/",
    "id": "way/170559533",
    "mapFeature": {
     "caption": "The Harte of Costessey",
     "allowPopup": true,
     "location": " Townhouse Road  \n  NR8 5BS <br />\n  \n  \n  ",
     "layers": [
      "food"
     ]
    }
   },
   "geometry": {
    "type": "Point",
    "coordinates": [
     1.2105803,
     52.6592306
    ]
   }
  },
  {
   "type": "Feature",
   "id": "way/170560554",
   "properties": {
    "addr:city": "Norwich",
    "addr:country": "GB",
    "addr:housenumber": "99",
    "addr:postcode": "NR3 4SG",
    "addr:street": "Gertrude Road",
    "amenity": "pub",
    "building": "house",
    "email": "theheathhouse@yahoo.co.uk",
    "fhrs:id": "21009",
    "kitchen_hours": "We-Sa 18:00-21:00; Su 12:00-15:00; Mo-Tu off",
    "name": "The Heath House",
    "opening_hours": "12:00-23:30",
    "phone": "+44 1603 406417",
    "real_ale": "4",
    "real_cider": "no",
    "website": "https://www.facebook.com/theheathhousepub/",
    "id": "way/170560554",
    "mapFeature": {
     "caption": "The Heath House",
     "allowPopup": true,
     "location": "99  Gertrude Road  \n  NR3 4SG <br />\n  \n  \n  ",
     "layers": [
      "food"
     ]
    }
   },
   "geometry": {
    "type": "Point",
    "coordinates": [
     1.3064586,
     52.6438128
    ]
   }
  },
  {
   "type": "Feature",
   "id": "way/170639760",
   "properties": {
    "addr:city": "Norwich",
    "addr:country": "GB",
    "addr:housenumber": "27-29",
    "addr:interpolation": "odd",
    "addr:postcode": "NR1 1PD",
    "addr:street": "King Street",
    "amenity": "pub",
    "building": "house",
    "email": "hello@lastpubstanding.co.uk",
    "name": "Last Pub Standing",
    "note": "FHRS ID missing, but pub still open 2019-07-02.",
    "old_name": "Kings Bar; Kings; Bar Rio; Tusk; Nags Head",
    "opening_hours": "Mo off; Tu-Th 12:00-23:00; Fr-Sa 12:00-00:00; Su 12:00-18:00",
    "outdoor_seating": "yes",
    "phone": "+44 1603 937013",
    "real_ale": "yes",
    "website": "https://www.lastpubstanding.co.uk/",
    "wikidata": "Q26303149",
    "id": "way/170639760",
    "mapFeature": {
     "caption": "Last Pub Standing",
     "allowPopup": true,
     "location": "27-29  King Street  \n  NR1 1PD <br />\n  \n  \n  ",
     "layers": [
      "food"
     ]
    }
   },
   "geometry": {
    "type": "Point",
    "coordinates": [
     1.2993621,
     52.6287826
    ]
   }
  },
  {
   "type": "Feature",
   "id": "way/170640367",
   "properties": {
    "addr:city": "Norwich",
    "addr:country": "GB",
    "addr:housenumber": "42",
    "addr:postcode": "NR3 1JE",
    "addr:street": "Magdalen Street",
    "amenity": "pub",
    "building": "house",
    "fhrs:id": "15470",
    "name": "Kings Head",
    "opening_hours": "Mo-Sa 12:00+; Su 12:00-00:00",
    "phone": "+44 1603 620468",
    "real_ale": "11",
    "real_cider": "yes",
    "source": "Bing",
    "website": "http://www.kingsheadnorwich.com/",
    "wikidata": "Q26653894",
    "id": "way/170640367",
    "mapFeature": {
     "caption": "Kings Head",
     "allowPopup": true,
     "location": "42  Magdalen Street  \n  NR3 1JE <br />\n  \n  \n  ",
     "layers": [
      "food"
     ]
    }
   },
   "geometry": {
    "type": "Point",
    "coordinates": [
     1.29634,
     52.6348273
    ]
   }
  },
  {
   "type": "Feature",
   "id": "way/170761255",
   "properties": {
    "addr:city": "Norwich",
    "addr:country": "GB",
    "addr:housenumber": "79",
    "addr:postcode": "NR2 2PE",
    "addr:street": "Unthank Road",
    "amenity": "pub",
    "building": "house",
    "fhrs:id": "1062115",
    "name": "Pear Tree Inn",
    "old_name": "No. 79 Bar & Charcuterie;Pickle & Relish;The Langtry;Lillie Langtry;Park Tavern",
    "opening_hours": "Mo-Fr 11:00-00:30; Sa-Su 10:00-00:00",
    "real_ale": "yes",
    "real_cider": "no",
    "website": "https://www.peartreeinnnorwich.com/",
    "id": "way/170761255",
    "mapFeature": {
     "caption": "Pear Tree Inn",
     "allowPopup": true,
     "location": "79  Unthank Road  \n  NR2 2PE <br />\n  \n  \n  ",
     "layers": [
      "food"
     ]
    }
   },
   "geometry": {
    "type": "Point",
    "coordinates": [
     1.2783929,
     52.6253628
    ]
   }
  },
  {
   "type": "Feature",
   "id": "way/170763762",
   "properties": {
    "addr:city": "Norwich",
    "addr:country": "GB",
    "addr:housenumber": "98",
    "addr:postcode": "NR3 1NQ",
    "addr:street": "Bull Close Road",
    "amenity": "pub",
    "building": "house",
    "fhrs:id": "734873",
    "name": "The Leopard",
    "opening_hours": "Su-Th 12:00-00:00; Fr-Sa 12:00-01:00",
    "phone": "+44 1603 623505",
    "real_ale": "3",
    "real_cider": "no",
    "id": "way/170763762",
    "mapFeature": {
     "caption": "The Leopard",
     "allowPopup": true,
     "location": "98  Bull Close Road  \n  NR3 1NQ <br />\n  \n  \n  ",
     "layers": [
      "food"
     ]
    }
   },
   "geometry": {
    "type": "Point",
    "coordinates": [
     1.2996161,
     52.6372889
    ]
   }
  },
  {
   "type": "Feature",
   "id": "way/170764586",
   "properties": {
    "addr:city": "Norwich",
    "addr:country": "GB",
    "addr:housenumber": "94",
    "addr:postcode": "NR3 3AB",
    "addr:street": "Rosebery Road",
    "amenity": "pub",
    "building": "house",
    "email": "postbox@lordrosebery.co.uk",
    "fhrs:id": "816420",
    "name": "The Lord Rosebery",
    "opening_hours": "Mo-Sa 11:00-23:00; Su 12:00-22:30",
    "phone": "+44 1603 414284",
    "real_ale": "5",
    "real_cider": "yes",
    "website": "http://www.lordrosebery.co.uk/",
    "id": "way/170764586",
    "mapFeature": {
     "caption": "The Lord Rosebery",
     "allowPopup": true,
     "location": "94  Rosebery Road  \n  NR3 3AB <br />\n  \n  \n  ",
     "layers": [
      "food"
     ]
    }
   },
   "geometry": {
    "type": "Point",
    "coordinates": [
     1.2952549,
     52.6443603
    ]
   }
  },
  {
   "type": "Feature",
   "id": "way/170764996",
   "properties": {
    "addr:city": "Norwich",
    "addr:country": "GB",
    "addr:housenumber": "2",
    "addr:postcode": "NR2 3LD",
    "addr:street": "Warwick Street",
    "amenity": "pub",
    "building": "house",
    "fhrs:id": "918744",
    "kitchen_hours": "12:00-14:00, 19:00-22:00",
    "name": "Warwick Street Social",
    "old_name": "Warwick Arms",
    "opening_hours": "Su-Th 12:00-00:00; Fr-Sa 12:00-00:30",
    "phone": "+44 1603 627687",
    "real_ale": "3",
    "real_cider": "no",
    "website": "http://www.themadmoose.co.uk/",
    "id": "way/170764996",
    "mapFeature": {
     "caption": "Warwick Street Social",
     "allowPopup": true,
     "location": "2  Warwick Street  \n  NR2 3LD <br />\n  \n  \n  ",
     "layers": [
      "food"
     ]
    }
   },
   "geometry": {
    "type": "Point",
    "coordinates": [
     1.2756939,
     52.6239735
    ]
   }
  },
  {
   "type": "Feature",
   "id": "way/170766603",
   "properties": {
    "addr:city": "Norwich",
    "addr:country": "GB",
    "addr:housenumber": "85",
    "addr:postcode": "NR6 7NH",
    "addr:street": "Spixworth Road",
    "amenity": "pub",
    "building": "house",
    "name": "The Maids Head",
    "opening_hours": "Mo-Sa 12:00-23:00; Su 12:00-22:30",
    "outdoor_seating": "yes",
    "phone": "+44 1603 408028",
    "real_ale": "3",
    "real_cider": "no",
    "wheelchair": "limited",
    "id": "way/170766603",
    "mapFeature": {
     "caption": "The Maids Head",
     "allowPopup": true,
     "location": "85  Spixworth Road  \n  NR6 7NH <br />\n  \n  Limited wheelchair access \n  ",
     "layers": [
      "food"
     ]
    }
   },
   "geometry": {
    "type": "Point",
    "coordinates": [
     1.3015568,
     52.6594238
    ]
   }
  },
  {
   "type": "Feature",
   "id": "way/170794274",
   "properties": {
    "addr:city": "Norwich",
    "addr:country": "GB",
    "addr:housenumber": "43",
    "addr:postcode": "NR3 4PB",
    "addr:street": "Spencer Street",
    "amenity": "pub",
    "building": "house",
    "fhrs:id": "67623",
    "name": "Marlborough Arms",
    "opening_hours": "Mo-Sa 12:00-23:00; Su 12:00-22:30",
    "phone": "+44 1603 623689",
    "real_ale": "3",
    "real_cider": "no",
    "id": "way/170794274",
    "mapFeature": {
     "caption": "Marlborough Arms",
     "allowPopup": true,
     "location": "43  Spencer Street  \n  NR3 4PB <br />\n  \n  \n  ",
     "layers": [
      "food"
     ]
    }
   },
   "geometry": {
    "type": "Point",
    "coordinates": [
     1.2997379,
     52.6394263
    ]
   }
  },
  {
   "type": "Feature",
   "id": "way/170795332",
   "properties": {
    "addr:city": "Norwich",
    "addr:country": "GB",
    "addr:housenumber": "158",
    "addr:postcode": "NR4 6DX",
    "addr:street": "Ipswich Road",
    "amenity": "pub",
    "building": "house",
    "fhrs:id": "31887",
    "name": "The Marsh Harrier",
    "opening_hours": "Mo-Sa 12:00-23:00; Su 12:00-22:30",
    "operator": "Vintage Inns",
    "phone": "+44 1603 507513",
    "real_ale": "3",
    "real_cider": "no",
    "website": "https://www.vintageinn.co.uk/themarshharriernorwich/",
    "id": "way/170795332",
    "mapFeature": {
     "caption": "The Marsh Harrier",
     "allowPopup": true,
     "location": "158  Ipswich Road  \n  NR4 6DX <br />\n  \n  \n  ",
     "layers": [
      "food"
     ]
    }
   },
   "geometry": {
    "type": "Point",
    "coordinates": [
     1.2776464,
     52.5986947
    ]
   }
  },
  {
   "type": "Feature",
   "id": "way/171202245",
   "properties": {
    "addr:city": "Norwich",
    "addr:country": "GB",
    "addr:housenumber": "43",
    "addr:postcode": "NR3 1SZ",
    "addr:street": "Cowgate",
    "amenity": "pub",
    "brewery": "various",
    "building": "house",
    "email": "theplasterersarms@hotmail.co.uk",
    "fhrs:id": "48701",
    "name": "Plasterers Arms",
    "opening_hours": "Mo-Th 12:00-00:00; Fr 12:00-01:00, Sa 10:00-01:00, Su 10:00-00:00",
    "phone": "+44 1603 440992",
    "real_ale": "15",
    "real_cider": "yes",
    "website": "http://www.theplasterersarms.co.uk/",
    "id": "way/171202245",
    "mapFeature": {
     "caption": "Plasterers Arms",
     "allowPopup": true,
     "location": "43  Cowgate  \n  NR3 1SZ <br />\n  \n  \n  ",
     "layers": [
      "food"
     ]
    }
   },
   "geometry": {
    "type": "Point",
    "coordinates": [
     1.2982586,
     52.6367137
    ]
   }
  },
  {
   "type": "Feature",
   "id": "way/171223430",
   "properties": {
    "addr:city": "Norwich",
    "addr:country": "GB",
    "addr:housenumber": "44-46",
    "addr:postcode": "NR1 3NY",
    "addr:street": "Surrey Street",
    "amenity": "pub",
    "building": "house",
    "email": "surreypub@outlook.com",
    "fhrs:id": "1021305",
    "internet_access": "wlan",
    "kitchen_hours": "Mo-Fr 12:00-20:00; Sa 12:00-15:00",
    "name": "The Surrey",
    "old_name": "Surrey Tavern",
    "opening_hours": "Mo-Th 07:00-20:00; Fr 07:30-21:00; Sa 09:30-15:00; Su off",
    "outdoor_seating": "yes",
    "payment:discover_card": "yes",
    "payment:mastercard": "yes",
    "payment:visa": "yes",
    "phone": "+44 1603 760677",
    "real_ale": "3",
    "real_cider": "no",
    "start_date": "2017-12",
    "strapline": "Kitchen & Bar",
    "website": "https://www.facebook.com/pg/thesurreynorwich/",
    "id": "way/171223430",
    "mapFeature": {
     "caption": "The Surrey",
     "allowPopup": true,
     "location": "44-46  Surrey Street  \n  NR1 3NY <br />\n  \n  \n  ",
     "layers": [
      "food"
     ]
    }
   },
   "geometry": {
    "type": "Point",
    "coordinates": [
     1.2952723,
     52.6237131
    ]
   }
  },
  {
   "type": "Feature",
   "id": "way/171223674",
   "properties": {
    "addr:city": "Norwich",
    "addr:country": "GB",
    "addr:housenumber": "84",
    "addr:postcode": "NR3 1NX",
    "addr:street": "Mousehold Street",
    "amenity": "pub",
    "building": "house",
    "email": "diane123_@hotmail.co.uk",
    "kitchen_hours": "11:30-14:30,16:30-19:30",
    "name": "The Robin Hood",
    "note": "Bar snacks only",
    "opening_hours": "Su-Th 11:00-23:00; Fr-Sa 11:00-00:00",
    "phone": "+44 1603 667138",
    "real_ale": "no",
    "id": "way/171223674",
    "mapFeature": {
     "caption": "The Robin Hood",
     "allowPopup": true,
     "location": "84  Mousehold Street  \n  NR3 1NX <br />\n  \n  \n  ",
     "layers": [
      "food"
     ]
    }
   },
   "geometry": {
    "type": "Point",
    "coordinates": [
     1.305651,
     52.6371364
    ]
   }
  },
  {
   "type": "Feature",
   "id": "way/171368788",
   "properties": {
    "addr:city": "Norwich",
    "addr:country": "GB",
    "addr:housenumber": "33",
    "addr:postcode": "NR3 4LG",
    "addr:street": "Magdalen Road",
    "amenity": "pub",
    "brand": "Punch Taverns",
    "building": "house",
    "internet_access": "wlan",
    "kitchen_hours": "Su 14:00-18:00; Mo-Sa off",
    "name": "The Stanley",
    "opening_hours": "Mo-Sa 12:00-00:30; Su 12:00-23:00",
    "operator": "Alandra Bridge",
    "phone": "+44 1603 615988",
    "real_ale": "1",
    "real_cider": "no",
    "id": "way/171368788",
    "mapFeature": {
     "caption": "The Stanley",
     "allowPopup": true,
     "location": "33  Magdalen Road  \n  NR3 4LG <br />\n  \n  \n  ",
     "layers": [
      "food"
     ]
    }
   },
   "geometry": {
    "type": "Point",
    "coordinates": [
     1.2967902,
     52.6406899
    ]
   }
  },
  {
   "type": "Feature",
   "id": "way/171371220",
   "properties": {
    "addr:city": "Norwich",
    "addr:country": "GB",
    "addr:housenumber": "17",
    "addr:postcode": "NR3 1HF",
    "addr:street": "Tombland",
    "amenity": "pub",
    "building": "yes",
    "fhrs:id": "1070663",
    "internet_access": "wlan",
    "name": "Louis Marchesi",
    "note": "Pub has changed names several times, latest change :- http://www.edp24.co.uk/business/louis-marchesi-is-back-norwich-bar-take-5-is-renamed-after-a-city-legend-1-5077181",
    "old_name": "Take 5",
    "opening_hours": "Mo-Su 11:00-23:00",
    "phone": "+44 1603 763099",
    "website": "http://www.norfolkpubs.co.uk/norwich/lnorwich/nclom.htm",
    "wikidata": "Q17530889",
    "id": "way/171371220",
    "mapFeature": {
     "caption": "Louis Marchesi",
     "allowPopup": true,
     "location": "17  Tombland  \n  NR3 1HF <br />\n  \n  \n  ",
     "layers": [
      "food"
     ]
    }
   },
   "geometry": {
    "type": "Point",
    "coordinates": [
     1.2983564,
     52.6316958
    ]
   }
  },
  {
   "type": "Feature",
   "id": "way/171373184",
   "properties": {
    "addr:city": "Norwich",
    "addr:country": "GB",
    "addr:housenumber": "2",
    "addr:postcode": "NR2 2RA",
    "addr:street": "Unthank Road",
    "amenity": "pub",
    "building": "house",
    "fhrs:id": "25752;932628",
    "name": "Temple Bar",
    "old_name": "The Tuns",
    "opening_hours": "Mo-Sa 12:00-01:00; Su 12:00-00:00",
    "phone": "+44 1603 624803",
    "real_ale": "yes",
    "wikidata": "Q26303619",
    "id": "way/171373184",
    "mapFeature": {
     "caption": "Temple Bar",
     "allowPopup": true,
     "location": "2  Unthank Road  \n  NR2 2RA <br />\n  \n  \n  ",
     "layers": [
      "food"
     ]
    }
   },
   "geometry": {
    "type": "Point",
    "coordinates": [
     1.2848542,
     52.6290614
    ]
   }
  },
  {
   "type": "Feature",
   "id": "way/171386928",
   "properties": {
    "addr:city": "Norwich",
    "addr:country": "GB",
    "addr:postcode": "NR2 1NG",
    "addr:street": "Old Post Office Court",
    "amenity": "pub",
    "building": "yes",
    "email": "enquiries@thewalnuttreeshades.com",
    "fhrs:id": "35346",
    "kitchen_hours": "Mo-Sa 12:00-22:00; Su 12:00-18:00",
    "name": "Walnut Tree Shades",
    "opening_hours": "Mo-We 11:00-00:00; Th-Sa 11:00-01:00; Su 12:00-22:00",
    "phone": "+44 1603 622910",
    "real_ale": "2",
    "real_cider": "no",
    "website": "http://www.thewalnuttreeshades.com/",
    "wikidata": "Q26398288",
    "id": "way/171386928",
    "mapFeature": {
     "caption": "Walnut Tree Shades",
     "allowPopup": true,
     "location": " Old Post Office Court  \n  NR2 1NG <br />\n  \n  \n  ",
     "layers": [
      "food"
     ]
    }
   },
   "geometry": {
    "type": "Point",
    "coordinates": [
     1.2941305,
     52.6286032
    ]
   }
  },
  {
   "type": "Feature",
   "id": "way/171387268",
   "properties": {
    "addr:city": "Norwich",
    "addr:country": "GB",
    "addr:housename": "West End Retreat",
    "addr:housenumber": "1",
    "addr:postcode": "NR2 4QY",
    "addr:street": "Browne Street",
    "amenity": "pub",
    "brand": "Admiral Taverns",
    "building": "house",
    "fhrs:id": "6846",
    "name": "The West End Retreat",
    "opening_hours": "Mo-Sa 12:00-23:00; Su 12:00-22:30",
    "phone": "+44 1603 626490",
    "real_ale": "no",
    "id": "way/171387268",
    "mapFeature": {
     "caption": "The West End Retreat",
     "allowPopup": true,
     "location": "1  Browne Street  \n  NR2 4QY <br />\n  \n  \n  ",
     "layers": [
      "food"
     ]
    }
   },
   "geometry": {
    "type": "Point",
    "coordinates": [
     1.2790565,
     52.6350324
    ]
   }
  },
  {
   "type": "Feature",
   "id": "way/171391061",
   "properties": {
    "addr:city": "Norwich",
    "addr:country": "GB",
    "addr:housenumber": "6",
    "addr:postcode": "NR3 1RN",
    "addr:street": "Saint Martin at Palace Plain",
    "amenity": "pub",
    "building": "retail",
    "building:levels": "2",
    "email": "info@thewigandpen.com",
    "fhrs:id": "69543",
    "kitchen_hours": "Mo-Fr 12:00-14:30,18:00-21:00; Sa 12:00-14:30,17:00-21:00; Su 12:00-16:00",
    "name": "Wig And Pen",
    "old_name": "White Lion",
    "opening_hours": "Mo-Th 11:30-23:00; Fr-Sa 11:30-00:00; Su 11:30-18:00",
    "outdoor_seating": "yes",
    "phone": "+44 1603 625891",
    "real_ale": "6",
    "real_cider": "no",
    "website": "http://www.thewigandpen.com/",
    "wikidata": "Q26505500",
    "id": "way/171391061",
    "mapFeature": {
     "caption": "Wig And Pen",
     "allowPopup": true,
     "location": "6  Saint Martin at Palace Plain  \n  NR3 1RN <br />\n  \n  \n  ",
     "layers": [
      "food"
     ]
    }
   },
   "geometry": {
    "type": "Point",
    "coordinates": [
     1.3000567,
     52.6333153
    ]
   }
  },
  {
   "type": "Feature",
   "id": "way/171397557",
   "properties": {
    "addr:city": "Norwich",
    "addr:country": "GB",
    "addr:postcode": "NR1 4LQ",
    "addr:street": "Knox Road",
    "amenity": "pub",
    "building": "house",
    "fhrs:id": "915730",
    "name": "The Windmill",
    "opening_hours": "Su-Th 12:00-23:30; Fr 12:00-00:00; Sa 12:00-23:30",
    "outdoor_seating": "yes",
    "phone": "+44 1603 304180",
    "real_ale": "5",
    "real_cider": "no",
    "start_date": "August 2012",
    "website": "https://www.facebook.com/norwichwindmill",
    "id": "way/171397557",
    "mapFeature": {
     "caption": "The Windmill",
     "allowPopup": true,
     "location": " Knox Road  \n  NR1 4LQ <br />\n  \n  \n  ",
     "layers": [
      "food"
     ]
    }
   },
   "geometry": {
    "type": "Point",
    "coordinates": [
     1.3195986,
     52.6353044
    ]
   }
  },
  {
   "type": "Feature",
   "id": "way/171398600",
   "properties": {
    "addr:city": "Norwich",
    "addr:country": "GB",
    "addr:housenumber": "211",
    "addr:postcode": "NR3 2RE",
    "addr:street": "Aylsham Road",
    "amenity": "pub",
    "building": "house",
    "fhrs:id": "2402",
    "name": "The Windmill",
    "opening_hours": "Mo-Sa 11:00-23:00; Su 12:00-22:30",
    "phone": "+44 1603 405180",
    "real_ale": "no",
    "id": "way/171398600",
    "mapFeature": {
     "caption": "The Windmill",
     "allowPopup": true,
     "location": "211  Aylsham Road  \n  NR3 2RE <br />\n  \n  \n  ",
     "layers": [
      "food"
     ]
    }
   },
   "geometry": {
    "type": "Point",
    "coordinates": [
     1.2827773,
     52.6474832
    ]
   }
  },
  {
   "type": "Feature",
   "id": "way/171401299",
   "properties": {
    "addr:city": "Norwich",
    "addr:country": "GB",
    "addr:housenumber": "8",
    "addr:postcode": "NR2 1JG",
    "addr:street": "Guildhall Hill",
    "amenity": "pub",
    "building": "yes",
    "email": "admin@winecellarnorwich.co.uk",
    "fhrs:id": "34276",
    "name": "The Wine Cellar",
    "old_name": "Wine Press Bar & Bistro",
    "opening_hours": "Mo,We 11:00-22:00; Tu,Th 11:00-23:00; Fr-Sa 11:00-00:00; Su 11:00-16:00",
    "phone": "+44 1603 886100",
    "real_ale": "no",
    "toilets:wheelchair": "no",
    "website": "http://www.winecellarnorwich.co.uk/",
    "wheelchair": "no",
    "wheelchair:description": "Stair going down to access the whole build",
    "wikidata": "Q26303164",
    "id": "way/171401299",
    "mapFeature": {
     "caption": "The Wine Cellar",
     "allowPopup": true,
     "location": "8  Guildhall Hill  \n  NR2 1JG <br />\n  \n  NO WHEELCHAIR ACCESS \n  Stair going down to access the whole build",
     "layers": [
      "food"
     ]
    }
   },
   "geometry": {
    "type": "Point",
    "coordinates": [
     1.2931435,
     52.6292783
    ]
   }
  },
  {
   "type": "Feature",
   "id": "way/171402515",
   "properties": {
    "addr:city": "Norwich",
    "addr:country": "GB",
    "addr:housenumber": "11",
    "addr:postcode": "NR6 7QA",
    "addr:street": "North Walsham Road",
    "amenity": "pub",
    "building": "house",
    "email": "daz.reilly@hotmail.co.uk",
    "fhrs:id": "41262",
    "kitchen_hours": "We-Sa 12:00-15:00,18:00-21:00; Su 12:00-16:00",
    "name": "The Woodman",
    "opening_hours": "Mo-Tu 15:00-23:00; We-Th 12:00-23:00; Fr-Sa 12:00-23:30; Su 12:00-22:30",
    "phone": "+44 1603 426655",
    "real_ale": "3",
    "real_cider": "no",
    "website": "http://www.woodmannorwich.co.uk/",
    "id": "way/171402515",
    "mapFeature": {
     "caption": "The Woodman",
     "allowPopup": true,
     "location": "11  North Walsham Road  \n  NR6 7QA <br />\n  \n  \n  ",
     "layers": [
      "food"
     ]
    }
   },
   "geometry": {
    "type": "Point",
    "coordinates": [
     1.3048423,
     52.6564969
    ]
   }
  },
  {
   "type": "Feature",
   "id": "way/171607789",
   "properties": {
    "addr:city": "Norwich",
    "addr:country": "GB",
    "addr:postcode": "NR5 0TP",
    "addr:street": "Dereham Road",
    "amenity": "pub",
    "brand": "Table Table",
    "building": "yes",
    "kitchen_hours": "Mo-Sa 12:00-23:00; Su 12:00-22:30",
    "kitchen_hours:breakfast": "Mo-Fr 06:30-10:30; Sa-Su 07:00-11:00",
    "name": "Table Table",
    "opening_hours": "Mo-Sa 12:00-23:00; Su 12:00-22:30",
    "outdoor_seating": "yes",
    "phone": "+44 1603 749140",
    "website": "https://www.tabletable.co.uk/tabletable/our-pubs/norwich/the-showground.html",
    "id": "way/171607789",
    "mapFeature": {
     "caption": "Table Table",
     "allowPopup": true,
     "location": " Dereham Road  \n  NR5 0TP <br />\n  \n  \n  ",
     "layers": [
      "food"
     ]
    }
   },
   "geometry": {
    "type": "Point",
    "coordinates": [
     1.1834141,
     52.6505485
    ]
   }
  },
  {
   "type": "Feature",
   "id": "way/171788604",
   "properties": {
    "addr:city": "Norwich",
    "addr:country": "GB",
    "addr:housenumber": "1",
    "addr:postcode": "NR2 4SG",
    "addr:street": "Queen Street",
    "amenity": "pub",
    "building": "house",
    "email": "norwichbar@brewdog.com",
    "fhrs:id": "893998",
    "name": "BrewDog",
    "opening_hours": "Mo-Th 12:00-00:00; Fr 12:00-02:00; Sa 11:00-02:00; Su 11:00-23:00",
    "outdoor_seating": "yes",
    "phone": "+44 1603 624317",
    "real_ale": "25",
    "website": "https://www.brewdog.com/bars/uk/norwich",
    "wikidata": "Q26303735",
    "id": "way/171788604",
    "mapFeature": {
     "caption": "BrewDog",
     "allowPopup": true,
     "location": "1  Queen Street  \n  NR2 4SG <br />\n  \n  \n  ",
     "layers": [
      "food"
     ]
    }
   },
   "geometry": {
    "type": "Point",
    "coordinates": [
     1.2975335,
     52.6301372
    ]
   }
  },
  {
   "type": "Feature",
   "id": "way/218893314",
   "properties": {
    "addr:city": "Norwich",
    "addr:country": "GB",
    "addr:postcode": "NR14 7PL",
    "addr:street": "Loddon Road",
    "amenity": "pub",
    "building": "yes",
    "name": "The Gull Inn",
    "outdoor_seating": "yes",
    "phone": "+44 1508 492039",
    "real_ale": "yes",
    "website": "http://www.thegull.co.uk/",
    "wikidata": "Q26302440",
    "id": "way/218893314",
    "mapFeature": {
     "caption": "The Gull Inn",
     "allowPopup": true,
     "location": " Loddon Road  \n  NR14 7PL <br />\n  \n  \n  ",
     "layers": [
      "food"
     ]
    }
   },
   "geometry": {
    "type": "Point",
    "coordinates": [
     1.3723789,
     52.583539
    ]
   }
  },
  {
   "type": "Feature",
   "id": "way/219985923",
   "properties": {
    "addr:city": "Norwich",
    "addr:country": "GB",
    "addr:postcode": "NR9 3LS",
    "addr:street": "Harts Lane",
    "amenity": "pub",
    "building": "house",
    "email": "kingsheadbawburgh@hotmail.com",
    "fhrs:id": "647738",
    "kitchen_hours": "Mo-Sa 12:00-14:00,17:30-21:00; Su 12:00-15:00",
    "name": "The Kings Head",
    "opening_hours": "11:00-23:00",
    "phone": "+44 1603 744977",
    "website": "http://www.kingshead-bawburgh.co.uk/",
    "wikidata": "Q26463649",
    "id": "way/219985923",
    "mapFeature": {
     "caption": "The Kings Head",
     "allowPopup": true,
     "location": " Harts Lane  \n  NR9 3LS <br />\n  \n  \n  ",
     "layers": [
      "food"
     ]
    }
   },
   "geometry": {
    "type": "Point",
    "coordinates": [
     1.1838936,
     52.6342463
    ]
   }
  },
  {
   "type": "Feature",
   "id": "way/271019822",
   "properties": {
    "addr:city": "Norwich",
    "addr:country": "GB",
    "addr:housename": "The Black Swan Inn",
    "addr:housenumber": "25",
    "addr:postcode": "NR10 3HJ",
    "addr:street": "Norwich Road",
    "amenity": "pub",
    "brand": "Punch Taverns",
    "building": "yes",
    "email": "theblackswaninn@btinternet.com",
    "kitchen_hours": "Mo-Th 12:00-14:30,18:00-21:00; Fr-Sa 12:00-14:30,18:00-21:00; Su 12:00-20:00",
    "name": "The Black Swan Inn",
    "opening_hours": "07:00-23:30",
    "outdoor_seating": "yes",
    "phone": "+44 1603 897787",
    "real_ale": "yes",
    "website": "http://www.blackswaninn.co.uk/",
    "wheelchair": "yes",
    "id": "way/271019822",
    "mapFeature": {
     "caption": "The Black Swan Inn",
     "allowPopup": true,
     "location": "25  Norwich Road  \n  NR10 3HJ <br />\n  \n  Wheelchair accessible \n  ",
     "layers": [
      "food"
     ]
    }
   },
   "geometry": {
    "type": "Point",
    "coordinates": [
     1.2825534,
     52.6911749
    ]
   }
  },
  {
   "type": "Feature",
   "id": "way/275166523",
   "properties": {
    "addr:city": "Norwich",
    "addr:country": "GB",
    "addr:housenumber": "24",
    "addr:postcode": "NR13 4AZ",
    "addr:street": "Station Road",
    "addr:village": "Lingwood",
    "amenity": "pub",
    "building": "house",
    "fhrs:id": "682628",
    "name": "Kings Head",
    "opening_hours": "12:00-23:00",
    "phone": "+44 1603 717171",
    "source:addr:housenumber": "FHRS Open Data",
    "id": "way/275166523",
    "mapFeature": {
     "caption": "Kings Head",
     "allowPopup": true,
     "location": "24  Station Road  \n  NR13 4AZ <br />\n  \n  \n  ",
     "layers": [
      "food"
     ]
    }
   },
   "geometry": {
    "type": "Point",
    "coordinates": [
     1.4911764,
     52.6227866
    ]
   }
  },
  {
   "type": "Feature",
   "id": "way/277264799",
   "properties": {
    "addr:city": "Norwich",
    "addr:country": "GB",
    "addr:housename": "The Ferry House",
    "addr:housenumber": "1",
    "addr:postcode": "NR14 7AR",
    "addr:street": "Ferry Road",
    "amenity": "pub",
    "building": "house",
    "dog": "yes",
    "kitchen_hours": "11:00-21:00",
    "name": "The Ferry House",
    "opening_hours": "11:00-23:00",
    "outdoor_seating": "yes",
    "phone": "+44 1508 538659",
    "real_ale": "4",
    "website": "https://surlinghamferry.co.uk/",
    "id": "way/277264799",
    "mapFeature": {
     "caption": "The Ferry House",
     "allowPopup": true,
     "location": "1  Ferry Road  \n  NR14 7AR <br />\n  \n  \n  ",
     "layers": [
      "food"
     ]
    }
   },
   "geometry": {
    "type": "Point",
    "coordinates": [
     1.4086675,
     52.6166904
    ]
   }
  },
  {
   "type": "Feature",
   "id": "way/297635714",
   "properties": {
    "addr:city": "Norwich",
    "addr:country": "GB",
    "addr:housename": "Elm Farm Country House",
    "addr:housenumber": "55",
    "addr:postcode": "NR10 3HH",
    "addr:street": "Norwich Road",
    "amenity": "pub",
    "building": "yes",
    "email": "info@elmfarmcountryhouse.co.uk",
    "fax": "+44 1603 897129",
    "fhrs:id": "102022",
    "internet_access": "wlan",
    "internet_access:fee": "no",
    "kitchen_hours": "Mo-Sa 12:00-14:00,16:00-21:00; Su 12:00-16:00,17:00-20:30",
    "name": "Elm Farm Country House",
    "opening_hours": "Mo-Sa 12:00-00:00; Su 12:00-22:00",
    "outdoor_seating": "yes",
    "phone": "+44 1603 898366",
    "real_ale": "6",
    "source:addr:housenumber": "FHRS Open Data",
    "tourism": "hotel",
    "website": "https://www.elmfarmcountryhouse.co.uk/",
    "id": "way/297635714",
    "mapFeature": {
     "caption": "Elm Farm Country House",
     "allowPopup": true,
     "location": "55  Norwich Road  \n  NR10 3HH <br />\n  \n  \n  ",
     "layers": [
      "food"
     ]
    }
   },
   "geometry": {
    "type": "Point",
    "coordinates": [
     1.2806111,
     52.6887842
    ]
   }
  },
  {
   "type": "Feature",
   "id": "way/311081759",
   "properties": {
    "addr:city": "Norwich",
    "addr:country": "GB",
    "addr:housename": "Village Inn",
    "addr:housenumber": "33-43",
    "addr:interpolation": "odd",
    "addr:postcode": "NR9 3AD",
    "addr:street": "School Lane",
    "amenity": "pub",
    "building": "yes",
    "fhrs:id": "647842",
    "kitchen_hours": "08:00-21:30; Jan 1 09:00-21:30; Dec 25-26 11:30-21:30",
    "kitchen_hours:carvery": "11:30-21:30",
    "name": "The Village Inn",
    "opening_hours": "08:00-23:00",
    "opening_hours:bar": "11:00-23:00",
    "operator": "Crown Carveries",
    "phone": "+44 1603 812510",
    "website": "https://www.crowncarveries.co.uk/thevillageinnlittlemelton/",
    "id": "way/311081759",
    "mapFeature": {
     "caption": "The Village Inn",
     "allowPopup": true,
     "location": "33-43  School Lane  \n  NR9 3AD <br />\n  \n  \n  ",
     "layers": [
      "food"
     ]
    }
   },
   "geometry": {
    "type": "Point",
    "coordinates": [
     1.1936967,
     52.6163173
    ]
   }
  },
  {
   "type": "Feature",
   "id": "way/321740525",
   "properties": {
    "addr:city": "Norwich",
    "addr:country": "GB",
    "addr:housename": "The Bell Inn",
    "addr:housenumber": "3",
    "addr:postcode": "NR13 6RW",
    "addr:street": "Lower Street",
    "amenity": "pub",
    "brand": "Enterprise Inns",
    "building": "house",
    "email": "sirrobbo7@hotmail.com",
    "kitchen_hours": "Mo off; PH,Tu-Fr 12:00-14:00,18:00-21:00; Sa 12:00-21:00; Su 12:00-15:00",
    "name": "The Salhouse Bell",
    "opening_hours": "Mo 17:00-23:00; Tu-Fr 12:00-15:00,17:00-23:00; Sa 12:00-23:30; Su 12:00-22:30",
    "outdoor_seating": "yes",
    "phone": "+44 1603 720220",
    "real_ale": "yes",
    "source": "survey",
    "website": "http://www.salhousebell.co.uk/",
    "id": "way/321740525",
    "mapFeature": {
     "caption": "The Salhouse Bell",
     "allowPopup": true,
     "location": "3  Lower Street  \n  NR13 6RW <br />\n  \n  \n  ",
     "layers": [
      "food"
     ]
    }
   },
   "geometry": {
    "type": "Point",
    "coordinates": [
     1.4103274,
     52.6775945
    ]
   }
  },
  {
   "type": "Feature",
   "id": "way/323856602",
   "properties": {
    "addr:city": "Norwich",
    "addr:country": "GB",
    "addr:housenumber": "1",
    "addr:postcode": "NR8 6AE",
    "addr:street": "Drayton High Street",
    "alt_name": "The Cock",
    "amenity": "pub",
    "building": "house",
    "email": "cock.inn.norwich@marstons.co.uk",
    "fhrs:id": "43773",
    "internet_access": "wlan",
    "kitchen_hours": "Mo-Sa 12:00-22:00; Su 12:00-21:00",
    "name": "The Cock Inn",
    "old_name": "Baileys",
    "opening_hours": "Mo-Sa 11:00-23:00; Su 11:30-22:30",
    "operator": "Marston's",
    "outdoor_seating": "yes",
    "phone": "+44 1603 869598",
    "real_ale": "4",
    "website": "https://www.cockinnpub.co.uk/",
    "id": "way/323856602",
    "mapFeature": {
     "caption": "The Cock Inn",
     "allowPopup": true,
     "location": "1  Drayton High Street  \n  NR8 6AE <br />\n  \n  \n  ",
     "layers": [
      "food"
     ]
    }
   },
   "geometry": {
    "type": "Point",
    "coordinates": [
     1.2248619,
     52.6759339
    ]
   }
  },
  {
   "type": "Feature",
   "id": "way/331722743",
   "properties": {
    "addr:city": "Norwich",
    "addr:housenumber": "55",
    "addr:postcode": "NR8 5DD",
    "addr:street": "The Street",
    "amenity": "pub",
    "building": "house",
    "email": "gfwilliamwilson@aol.com",
    "fhrs:id": "647770",
    "name": "The Bush",
    "opening_hours": "Mo-Th 12:00-15:00,18:30-23:00; Fr 12:00-16:00,18:30-23:30; Sa 12:00-23:30; Su 12:00-17:00,19:00-23:30",
    "outdoor_seating": "yes",
    "phone": "+44 1603 747227",
    "real_ale": "yes",
    "id": "way/331722743",
    "mapFeature": {
     "caption": "The Bush",
     "allowPopup": true,
     "location": "55  The Street  \n  NR8 5DD <br />\n  \n  \n  ",
     "layers": [
      "food"
     ]
    }
   },
   "geometry": {
    "type": "Point",
    "coordinates": [
     1.2131929,
     52.6619235
    ]
   }
  },
  {
   "type": "Feature",
   "id": "way/350057330",
   "properties": {
    "addr:city": "Spixworth",
    "addr:country": "GB",
    "addr:housenumber": "1",
    "addr:postcode": "NR10 3PE",
    "addr:street": "Crostwick Lane",
    "amenity": "pub",
    "brand": "Enterprise Inns",
    "building": "yes",
    "name": "The Longe Arms",
    "opening_hours": "Mo-Th 10:30-23:00; Fr 10:30-01:00; Sa 12:00-01:00; Su 12:00-00:00",
    "phone": "+44 1603 929244",
    "source": "OS Vectormap",
    "id": "way/350057330",
    "mapFeature": {
     "caption": "The Longe Arms",
     "allowPopup": true,
     "location": "1  Crostwick Lane  \n  NR10 3PE <br />\n  \n  \n  ",
     "layers": [
      "food"
     ]
    }
   },
   "geometry": {
    "type": "Point",
    "coordinates": [
     1.3171208,
     52.6881069
    ]
   }
  },
  {
   "type": "Feature",
   "id": "way/351522062",
   "properties": {
    "addr:city": "Norwich",
    "addr:country": "GB",
    "addr:housename": "The Malsters",
    "addr:postcode": "NR13 6AB",
    "amenity": "pub",
    "building": "house",
    "email": "info@ranworthmaltsters.com",
    "kitchen_hours": "Mo-Su 12:00-15:00,18:00-21:00",
    "name": "The Maltsters",
    "opening_hours": "Mo-Sa 11:00-23:00; Su 11:00-22:30",
    "outdoor_seating": "yes",
    "phone": "+44 1603 270900",
    "source": "OS Vectormap",
    "website": "http://www.ranworthmaltsters.com/",
    "wheelchair": "yes",
    "id": "way/351522062",
    "mapFeature": {
     "caption": "The Maltsters",
     "allowPopup": true,
     "location": "  \n  NR13 6AB <br />\n  \n  Wheelchair accessible \n  ",
     "layers": [
      "food"
     ]
    }
   },
   "geometry": {
    "type": "Point",
    "coordinates": [
     1.4888248,
     52.6774822
    ]
   }
  },
  {
   "type": "Feature",
   "id": "way/360882268",
   "properties": {
    "addr:city": "Norwich",
    "addr:country": "GB",
    "addr:postcode": "NR13 6QH",
    "addr:street": "Salhouse Road",
    "amenity": "pub",
    "building": "house",
    "email": "enquiries@soleandheel.co.uk",
    "fhrs:id": "44899",
    "kitchen_hours": "Tu-Sa 12:00-14:30,18:00-21:00; Su 12:00-16:00",
    "name": "Sole & Heel",
    "opening_hours": "Mo 17:00-23:00; Tu-We 12:00-15:00,17:00-23:00; Th-Su 12:00-23:00",
    "phone": "+44 1603 720146",
    "website": "https://www.soleandheel.co.uk/",
    "id": "way/360882268",
    "mapFeature": {
     "caption": "Sole & Heel",
     "allowPopup": true,
     "location": " Salhouse Road  \n  NR13 6QH <br />\n  \n  \n  ",
     "layers": [
      "food"
     ]
    }
   },
   "geometry": {
    "type": "Point",
    "coordinates": [
     1.3772756,
     52.6618016
    ]
   }
  },
  {
   "type": "Feature",
   "id": "way/361137684",
   "properties": {
    "addr:city": "Norwich",
    "addr:country": "GB",
    "addr:housename": "The Brick Kilns",
    "addr:postcode": "NR13 5JH",
    "addr:street": "Norwich Road",
    "amenity": "pub",
    "brand": "Honeycomb",
    "building": "yes",
    "email": "admin@thebrickkilns.co.uk",
    "fhrs:id": "41628",
    "fixme:addr2": "Norwich Road",
    "kitchen_hours": "12:00-14:15,18:00-21:00",
    "name": "Brick Kilns",
    "opening_hours": "11:00-23:00",
    "outdoor_seating": "yes",
    "phone": "+44 1603 720043",
    "real_ale": "yes",
    "website": "http://thebrickkilns.co.uk/",
    "id": "way/361137684",
    "mapFeature": {
     "caption": "Brick Kilns",
     "allowPopup": true,
     "location": " Norwich Road  \n  NR13 5JH <br />\n  \n  \n  ",
     "layers": [
      "food"
     ]
    }
   },
   "geometry": {
    "type": "Point",
    "coordinates": [
     1.4186735,
     52.6621497
    ]
   }
  },
  {
   "type": "Feature",
   "id": "way/384398667",
   "properties": {
    "addr:city": "Bramerton",
    "addr:postcode": "NR14 7ED",
    "addr:street": "Woods End",
    "amenity": "pub",
    "building": "yes",
    "name": "Water's Edge",
    "old_name": "The Woods End",
    "phone": "+44 1508 538005",
    "source": "OS_OpenData_VectorMapLocal",
    "website": "https://www.watersedgewoodsend.co.uk/",
    "id": "way/384398667",
    "mapFeature": {
     "caption": "Water's Edge",
     "allowPopup": true,
     "location": " Woods End  \n  NR14 7ED <br />\n  \n  \n  ",
     "layers": [
      "food"
     ]
    }
   },
   "geometry": {
    "type": "Point",
    "coordinates": [
     1.3818644,
     52.6053285
    ]
   }
  },
  {
   "type": "Feature",
   "id": "way/384405656",
   "properties": {
    "addr:city": "Norwich",
    "addr:postcode": "NR13 5PL",
    "addr:street": "Riverside Estate",
    "addr:village": "Brundall",
    "amenity": "pub",
    "building": "yes",
    "fhrs:id": "42047",
    "name": "The Yare",
    "source": "Bing",
    "source:addr": "FHRS Open Data",
    "id": "way/384405656",
    "mapFeature": {
     "caption": "The Yare",
     "allowPopup": true,
     "location": " Riverside Estate  \n  NR13 5PL <br />\n  \n  \n  ",
     "layers": [
      "food"
     ]
    }
   },
   "geometry": {
    "type": "Point",
    "coordinates": [
     1.4388097,
     52.619099
    ]
   }
  },
  {
   "type": "Feature",
   "id": "way/384408785",
   "properties": {
    "addr:city": "Norwich",
    "addr:housenumber": "108",
    "addr:postcode": "NR13 5LP",
    "addr:street": "The Street",
    "addr:village": "Brundall",
    "amenity": "pub",
    "building": "house",
    "fhrs:id": "455753",
    "name": "The Ram",
    "source": "OS_OpenData_VectorMapLocal",
    "source:addr": "FHRS Open Data",
    "id": "way/384408785",
    "mapFeature": {
     "caption": "The Ram",
     "allowPopup": true,
     "location": "108  The Street  \n  NR13 5LP <br />\n  \n  \n  ",
     "layers": [
      "food"
     ]
    }
   },
   "geometry": {
    "type": "Point",
    "coordinates": [
     1.4281447,
     52.6253194
    ]
   }
  },
  {
   "type": "Feature",
   "id": "way/384418607",
   "properties": {
    "addr:postcode": "NR13 4AG",
    "amenity": "pub",
    "building": "yes",
    "name": "The Huntsman",
    "source": "OS_OpenData_VectorMapLocal",
    "id": "way/384418607",
    "mapFeature": {
     "caption": "The Huntsman",
     "allowPopup": true,
     "location": "  \n  NR13 4AG <br />\n  \n  \n  ",
     "layers": [
      "food"
     ]
    }
   },
   "geometry": {
    "type": "Point",
    "coordinates": [
     1.4773445,
     52.6188131
    ]
   }
  },
  {
   "type": "Feature",
   "id": "way/384420161",
   "properties": {
    "amenity": "pub",
    "building": "yes",
    "fhrs:id": "44842",
    "name": "The Shoulder Of Mutton",
    "source": "OS_OpenData_VectorMapLocal",
    "id": "way/384420161",
    "mapFeature": {
     "caption": "The Shoulder Of Mutton",
     "allowPopup": true,
     "location": "  \n  <br />\n  \n  \n  ",
     "layers": [
      "food"
     ]
    }
   },
   "geometry": {
    "type": "Point",
    "coordinates": [
     1.4692886,
     52.617349
    ]
   }
  },
  {
   "type": "Feature",
   "id": "way/387130600",
   "properties": {
    "amenity": "pub",
    "building": "yes",
    "name": "Two Friends",
    "source": "OS_OpenData_VectorMapLocal",
    "id": "way/387130600",
    "mapFeature": {
     "caption": "Two Friends",
     "allowPopup": true,
     "location": "  \n  <br />\n  \n  \n  ",
     "layers": [
      "food"
     ]
    }
   },
   "geometry": {
    "type": "Point",
    "coordinates": [
     1.440692,
     52.6507338
    ]
   }
  },
  {
   "type": "Feature",
   "id": "way/401790775",
   "properties": {
    "addr:city": "Norwich",
    "addr:country": "GB",
    "addr:postcode": "NR13 6NQ",
    "addr:street": "Wroxham Road",
    "amenity": "pub",
    "building": "yes",
    "email": "info@greenman-rackheath.co.uk",
    "fhrs:id": "41509",
    "kitchen_hours": "12:00-21:00",
    "name": "Green Man",
    "opening_hours": "10:00+",
    "phone": "+44 1603 920990",
    "website": "http://www.greenman-rackheath.co.uk/",
    "id": "way/401790775",
    "mapFeature": {
     "caption": "Green Man",
     "allowPopup": true,
     "location": " Wroxham Road  \n  NR13 6NQ <br />\n  \n  \n  ",
     "layers": [
      "food"
     ]
    }
   },
   "geometry": {
    "type": "Point",
    "coordinates": [
     1.3736731,
     52.6837921
    ]
   }
  },
  {
   "type": "Feature",
   "id": "way/642710900",
   "properties": {
    "addr:city": "Norwich",
    "addr:housenumber": "127",
    "addr:postcode": "NR7 0QY",
    "addr:street": "Yarmouth Road",
    "addr:suburb": "Thorpe St Andrew",
    "amenity": "pub",
    "building": "yes",
    "fhrs:id": "40271",
    "name": "The Merchants of Spice",
    "source:addr": "FHRS Open Data",
    "id": "way/642710900",
    "mapFeature": {
     "caption": "The Merchants of Spice",
     "allowPopup": true,
     "location": "127  Yarmouth Road  \n  NR7 0QY <br />\n  \n  \n  ",
     "layers": [
      "food"
     ]
    }
   },
   "geometry": {
    "type": "Point",
    "coordinates": [
     1.3495725,
     52.6272662
    ]
   }
  },
  {
   "type": "Feature",
   "id": "way/661008150",
   "properties": {
    "amenity": "pub",
    "building": "yes",
    "name": "The Racecourse",
    "id": "way/661008150",
    "mapFeature": {
     "caption": "The Racecourse",
     "allowPopup": true,
     "location": "  \n  <br />\n  \n  \n  ",
     "layers": [
      "food"
     ]
    }
   },
   "geometry": {
    "type": "Point",
    "coordinates": [
     1.3513323,
     52.652338
    ]
   }
  },
  {
   "type": "Feature",
   "id": "way/700932051",
   "properties": {
    "amenity": "pub",
    "building": "unit",
    "name": "The Beer House",
    "id": "way/700932051",
    "mapFeature": {
     "caption": "The Beer House",
     "allowPopup": true,
     "location": "  \n  <br />\n  \n  \n  ",
     "layers": [
      "food"
     ]
    }
   },
   "geometry": {
    "type": "Point",
    "coordinates": [
     1.3068959,
     52.6270254
    ]
   }
  },
  {
   "type": "Feature",
   "id": "relation/2266583",
   "properties": {
    "addr:city": "Norwich",
    "addr:country": "GB",
    "addr:housenumber": "51",
    "addr:postcode": "NR2 1NR",
    "addr:street": "Bethel Street",
    "amenity": "pub",
    "brand": "Greene King",
    "building": "house",
    "email": "coachbethelst@gmail.com",
    "fhrs:id": "941454",
    "kitchen_hours": "Mo-Sa 12:00-14:30,17:00-21:30; Su 12:00-18:00",
    "name": "Coach & Horses",
    "opening_hours": "Mo-Th 11:30-23:30; Fr-Sa 11:30-00:00; Su off",
    "phone": "+44 1603 618522",
    "real_ale": "6",
    "real_cider": "yes",
    "type": "multipolygon",
    "website": "http://www.coachbethelst.co.uk/",
    "id": "relation/2266583",
    "mapFeature": {
     "caption": "Coach & Horses",
     "allowPopup": true,
     "location": "51  Bethel Street  \n  NR2 1NR <br />\n  \n  \n  ",
     "layers": [
      "food"
     ]
    }
   },
   "geometry": {
    "type": "Point",
    "coordinates": [
     1.2888629,
     52.6283686
    ]
   }
  }
 ]
}