{
 "type": "FeatureCollection",
 "features": [
  {
   "type": "Feature",
   "id": "way/89653804",
   "properties": {
    "addr:city": "Norwich",
    "addr:country": "GB",
    "addr:housename": "Jarrolds",
    "addr:housenumber": "1-7",
    "addr:postcode": "NR2 1JF",
    "addr:street": "London Street",
    "building": "shop",
    "fax": "+44 1603 611295",
    "fhrs:id": "816415",
    "name": "Jarrolds Department Store",
    "opening_hours": "Mo-We,Fr-Sa 09:00-19:00; Th 09:00-21:00; Su 10:30-16:30",
    "phone": "+44 1603 660661",
    "shop": "department_store",
    "source:building": "Bing",
    "toilets:wheelchair": "yes",
    "wheelchair": "yes",
    "wheelchair:description": "Accessible entrance to the side of the main entrance. Push button to open door. Two lifts and accessible toilets in two location of the store",
    "wikidata": "Q6161111",
    "id": "way/89653804"
   },
   "geometry": {
    "type": "Polygon",
    "coordinates": [
     [
      [
       1.2934939,
       52.6290621
      ],
      [
       1.2937325,
       52.6290649
      ],
      [
       1.2937418,
       52.6291884
      ],
      [
       1.2938158,
       52.6291861
      ],
      [
       1.2938306,
       52.6292703
      ],
      [
       1.2939268,
       52.6292653
      ],
      [
       1.2939305,
       52.6292799
      ],
      [
       1.294084,
       52.6292647
      ],
      [
       1.2941247,
       52.6294348
      ],
      [
       1.2941469,
       52.6294332
      ],
      [
       1.2941664,
       52.6296566
      ],
      [
       1.293579,
       52.6296791
      ],
      [
       1.2935438,
       52.6294455
      ],
      [
       1.2934754,
       52.62913
      ],
      [
       1.2934689,
       52.6290727
      ],
      [
       1.2934782,
       52.6290636
      ],
      [
       1.2934939,
       52.6290621
      ]
     ]
    ]
   }
  },
  {
   "type": "Feature",
   "id": "way/116079139",
   "properties": {
    "access": "yes",
    "addr:housenumber": "2",
    "addr:street": "Pudding Ln",
    "amenity": "toilets",
    "building": "service",
    "contact:phone": "Office hours: Monday to Friday, 9am to 5pm, 01603 894140 Outside office hours: 08458 500319",
    "description": "Male and female toilets plus Accessible toilet (RADAR key)\nBaby changing facilities are inside the accessible toilet",
    "diaper": "limited",
    "fee": "no",
    "name": "Norwich Market (Memorial Gardens)  Toilets",
    "opening_hours": "Mo-Sa 07:30-16:30",
    "operator": "Norwich City Council",
    "toilets:disposal": "flush",
    "unisex": "yes",
    "wheelchair": "limited",
    "id": "way/116079139"
   },
   "geometry": {
    "type": "Polygon",
    "coordinates": [
     [
      [
       1.2925818,
       52.6281062
      ],
      [
       1.2925927,
       52.6281992
      ],
      [
       1.2924271,
       52.6282063
      ],
      [
       1.2924162,
       52.6281134
      ],
      [
       1.2925818,
       52.6281062
      ]
     ]
    ]
   }
  },
  {
   "type": "Feature",
   "id": "way/116079142",
   "properties": {
    "access": "public",
    "amenity": "toilets",
    "building": "yes",
    "description": "Button operated door open/close metallic single occupant toilet facility",
    "drinking_water": "no",
    "fee": "no",
    "operator": "Norwich City Council",
    "toilets:disposal": "flush",
    "toilets:position": "seated",
    "wheelchair": "yes",
    "id": "way/116079142"
   },
   "geometry": {
    "type": "Polygon",
    "coordinates": [
     [
      [
       1.3037129,
       52.6285379
      ],
      [
       1.3036762,
       52.6284961
      ],
      [
       1.3037556,
       52.6284704
      ],
      [
       1.3037923,
       52.6285123
      ],
      [
       1.3037129,
       52.6285379
      ]
     ]
    ]
   }
  },
  {
   "type": "Feature",
   "id": "way/116394455",
   "properties": {
    "addr:city": "Norwich",
    "addr:country": "GB",
    "addr:housenumber": "391",
    "addr:postcode": "NR5 8QJ",
    "addr:street": "Dereham Road",
    "alt_name": "Gate House",
    "amenity": "pub",
    "building": "house",
    "fhrs:id": "14335",
    "name": "Gatehouse",
    "opening_hours": "Su-Fr 12:00-23:00; Sa 12:00-00:00",
    "outdoor_seating": "yes",
    "phone": "+44 1603 620340",
    "real_ale": "5",
    "real_cider": "no",
    "source": "Bing",
    "toilets:wheelchair": "no",
    "wheelchair": "limited",
    "wikidata": "Q21008659",
    "id": "way/116394455"
   },
   "geometry": {
    "type": "Polygon",
    "coordinates": [
     [
      [
       1.2571382,
       52.6377361
      ],
      [
       1.2570826,
       52.6376224
      ],
      [
       1.2573757,
       52.6375696
      ],
      [
       1.2574047,
       52.6376288
      ],
      [
       1.2572397,
       52.6376585
      ],
      [
       1.2572664,
       52.637713
      ],
      [
       1.2571382,
       52.6377361
      ]
     ]
    ]
   }
  },
  {
   "type": "Feature",
   "id": "way/119389652",
   "properties": {
    "addr:city": "Norwich",
    "addr:country": "GB",
    "addr:housenumber": "28",
    "addr:postcode": "NR2 1EL",
    "addr:street": "Lower Goat Lane",
    "alt_name": "F'SH at the grosvenor",
    "amenity": "fast_food",
    "building": "shop",
    "cuisine": "fish_and_chips",
    "diet:pescetarian": "no",
    "email": "fshshop@gmail.com",
    "fhrs:id": "447484",
    "name": "Grosvenor Fish Bar",
    "opening_hours": "Mo-Sa 11:00-19:00",
    "phone": "+44 1603 625855",
    "toilets:wheelchair": "no",
    "website": "http://www.fshshop.com/",
    "wheelchair": "limited",
    "id": "way/119389652"
   },
   "geometry": {
    "type": "Polygon",
    "coordinates": [
     [
      [
       1.2916729,
       52.6299445
      ],
      [
       1.2915215,
       52.6299655
      ],
      [
       1.291511,
       52.6299387
      ],
      [
       1.2915485,
       52.629933
      ],
      [
       1.291544,
       52.6299221
      ],
      [
       1.2915385,
       52.6299087
      ],
      [
       1.2916702,
       52.6299069
      ],
      [
       1.2916729,
       52.6299445
      ]
     ]
    ]
   }
  },
  {
   "type": "Feature",
   "id": "way/119607917",
   "properties": {
    "addr:city": "Norwich",
    "addr:country": "GB",
    "addr:housenumber": "23-25",
    "addr:interpolation": "odd",
    "addr:postcode": "NR1 3QF",
    "addr:street": "Red Lion Street",
    "amenity": "restaurant",
    "brand": "Nando's",
    "brand:wikidata": "Q3472954",
    "brand:wikipedia": "en:Nando's",
    "building": "retail",
    "cuisine": "chicken;portuguese",
    "fhrs:id": "62225",
    "name": "Nando's",
    "opening_hours": "Su-Th 11:00-22:30; Fr-Sa 11:00-23:30",
    "phone": "+44 1603 633683",
    "source": "survey",
    "toilets:wheelchair": "yes",
    "website": "http://www.nandos.co.uk/restaurant/norwich-red-lion",
    "wheelchair": "yes",
    "wheelchair:description": "Merit Award, Norwich Access Group. 1 accessible toilet with easy access rails. Friendly and knowledgeable staff",
    "id": "way/119607917"
   },
   "geometry": {
    "type": "Polygon",
    "coordinates": [
     [
      [
       1.2944572,
       52.626764
      ],
      [
       1.294612,
       52.6267367
      ],
      [
       1.2945887,
       52.6266884
      ],
      [
       1.2946156,
       52.6266833
      ],
      [
       1.2946038,
       52.6266578
      ],
      [
       1.2947127,
       52.6266396
      ],
      [
       1.2947747,
       52.6267598
      ],
      [
       1.2947324,
       52.6267694
      ],
      [
       1.2947459,
       52.6267915
      ],
      [
       1.2946419,
       52.6268219
      ],
      [
       1.2946648,
       52.6268673
      ],
      [
       1.294548,
       52.6268635
      ],
      [
       1.2945474,
       52.6268737
      ],
      [
       1.2945139,
       52.6268733
      ],
      [
       1.2944889,
       52.6268304
      ],
      [
       1.2944572,
       52.626764
      ]
     ]
    ]
   }
  },
  {
   "type": "Feature",
   "id": "way/123525364",
   "properties": {
    "addr:city": "Norwich",
    "addr:housenumber": "52",
    "addr:postcode": "NR2 4AR",
    "addr:street": "Saint Benedicts Street",
    "amenity": "cafe",
    "building": "yes",
    "cuisine": "coffee_shop",
    "fhrs:id": "1092846",
    "internet_access": "wlan",
    "name": "House Cafe",
    "opening_hours": "Mo-Sa 08:00-17:00; Su 10:00-15:00",
    "phone": "+44 1603 920037",
    "source": "Bing",
    "toilets:wheelchair": "yes",
    "website": "https://housestbenedicts.co.uk/",
    "wheelchair": "yes",
    "id": "way/123525364"
   },
   "geometry": {
    "type": "Polygon",
    "coordinates": [
     [
      [
       1.2884514,
       52.630982
      ],
      [
       1.2884998,
       52.6310759
      ],
      [
       1.2884238,
       52.6310899
      ],
      [
       1.2883789,
       52.6309959
      ],
      [
       1.2884514,
       52.630982
      ]
     ]
    ]
   }
  },
  {
   "type": "Feature",
   "id": "way/131332797",
   "properties": {
    "addr:city": "Norwich",
    "addr:country": "GB",
    "addr:housename": "Tuckswood Library",
    "addr:postcode": "NR4 6BX",
    "addr:street": "Robin Hood Road",
    "amenity": "library",
    "building": "yes",
    "name": "Tuckswood Library",
    "opening_hours": "Tu,Fr 10:00-13:00,14:00-17:00;Sa 10:00-16:00",
    "operator": "Norfolk County Council",
    "parking": "yes",
    "phone": "+44 1603 452038",
    "source": "Bing",
    "toilets": "yes",
    "toilets:disabled": "yes",
    "website": "https://www.norfolk.gov.uk/libraries-local-history-and-archives/libraries/your-local-library/locations-and-opening-times/tuckswood-library",
    "wheelchair": "yes",
    "wikidata": "Q55111148",
    "id": "way/131332797"
   },
   "geometry": {
    "type": "Polygon",
    "coordinates": [
     [
      [
       1.2810035,
       52.6077797
      ],
      [
       1.2810187,
       52.6077381
      ],
      [
       1.2811458,
       52.6077552
      ],
      [
       1.2811113,
       52.6078507
      ],
      [
       1.2810897,
       52.607909
      ],
      [
       1.2809626,
       52.607892
      ],
      [
       1.2809766,
       52.6078535
      ],
      [
       1.2809053,
       52.6078439
      ],
      [
       1.2808915,
       52.6078819
      ],
      [
       1.2808064,
       52.6078704
      ],
      [
       1.2808625,
       52.6077165
      ],
      [
       1.2809476,
       52.6077279
      ],
      [
       1.2809322,
       52.6077701
      ],
      [
       1.2810035,
       52.6077797
      ]
     ]
    ]
   }
  },
  {
   "type": "Feature",
   "id": "way/132696852",
   "properties": {
    "amenity": "library",
    "building": "yes",
    "name": "Mile Cross Library",
    "opening_hours": "Tu 14:00-19:30; We,Th,Fr 10:00-17:30; Sa 10:00-13:00",
    "operator": "Norfolk County Council",
    "phone": "+44 1603 42590",
    "source": "Bing",
    "source:amenity": "OS_OpenData_StreetView",
    "toilets": "yes",
    "toilets:disabled": "yes",
    "website": "https://www.norfolk.gov.uk/libraries-local-history-and-archives/libraries/your-local-library/locations-and-opening-times/mile-cross-library",
    "wheelchair": "yes",
    "wheelchair:note": "slope",
    "wikidata": "Q55111121",
    "id": "way/132696852"
   },
   "geometry": {
    "type": "Polygon",
    "coordinates": [
     [
      [
       1.2803787,
       52.6500187
      ],
      [
       1.2802138,
       52.6499947
      ],
      [
       1.2802419,
       52.6499238
      ],
      [
       1.2801222,
       52.6499063
      ],
      [
       1.280165,
       52.649798
      ],
      [
       1.2804476,
       52.6498392
      ],
      [
       1.2804387,
       52.6498616
      ],
      [
       1.2804754,
       52.649867
      ],
      [
       1.2804678,
       52.6498849
      ],
      [
       1.2804607,
       52.6499043
      ],
      [
       1.2804259,
       52.6498992
      ],
      [
       1.2803787,
       52.6500187
      ]
     ]
    ]
   }
  },
  {
   "type": "Feature",
   "id": "way/135964029",
   "properties": {
    "access:disabled": "yes",
    "addr:city": "Norwich",
    "addr:country": "GB",
    "addr:housenumber": "17,27",
    "addr:postcode": "NR1 3QA",
    "addr:street": "Orford Place",
    "amenity": "fast_food",
    "brand": "Five Guys",
    "brand:wikidata": "Q1131810",
    "brand:wikipedia": "en:Five Guys",
    "building": "retail",
    "cuisine": "burger",
    "fhrs:id": "915738",
    "name": "Five Guys",
    "official_name": "Five Guys Burgers and Fries",
    "old_name": "Pizza Hut",
    "opening_hours": "Su-Th 11:00-23:00; Fr-Sa 11:00-00:00",
    "phone": "+44 1603 620763",
    "start_date": "2016-10-17T11:00:00+01:00",
    "takeaway": "yes",
    "toilets:access": "customers",
    "toilets:description": "1 disabled accessible toilet with easy access rails",
    "website": "https://www.fiveguys.co.uk/",
    "wheelchair": "yes",
    "wheelchair:description:en": "Push Manual doors from Red Lion Street;staff door hosts to provide assistance.",
    "id": "way/135964029"
   },
   "geometry": {
    "type": "Polygon",
    "coordinates": [
     [
      [
       1.2942339,
       52.6269811
      ],
      [
       1.2942467,
       52.6269371
      ],
      [
       1.2942492,
       52.6269349
      ],
      [
       1.2942597,
       52.6269327
      ],
      [
       1.2942764,
       52.6269353
      ],
      [
       1.2942916,
       52.6269445
      ],
      [
       1.2942924,
       52.6269556
      ],
      [
       1.2943024,
       52.6269621
      ],
      [
       1.2943651,
       52.6269849
      ],
      [
       1.2944171,
       52.6270229
      ],
      [
       1.2944261,
       52.6270321
      ],
      [
       1.2944461,
       52.6270559
      ],
      [
       1.2944541,
       52.6270689
      ],
      [
       1.2944781,
       52.6270739
      ],
      [
       1.2944903,
       52.6271035
      ],
      [
       1.294494,
       52.6271139
      ],
      [
       1.2943662,
       52.6271324
      ],
      [
       1.2943734,
       52.6271505
      ],
      [
       1.2942678,
       52.6271682
      ],
      [
       1.2942277,
       52.627083
      ],
      [
       1.2942172,
       52.6270516
      ],
      [
       1.2942465,
       52.6270429
      ],
      [
       1.2942262,
       52.6270325
      ],
      [
       1.2942262,
       52.6270101
      ],
      [
       1.2942339,
       52.6269811
      ]
     ]
    ]
   }
  },
  {
   "type": "Feature",
   "id": "way/138504756",
   "properties": {
    "addr:city": "Norwich",
    "addr:country": "GB",
    "addr:housenumber": "23",
    "addr:postcode": "NR2 1DS",
    "addr:street": "Pottergate",
    "amenity": "pub",
    "brand": "Greene King",
    "building": "yes",
    "email": "info@thebirdcagenorwich.co.uk",
    "fhrs:id": "18832",
    "gay": "welcome",
    "name": "The Birdcage",
    "old_name": "Pottergate Tavern;Brown Derby;Morning Star",
    "opening_hours": "Mo-Th 11:00-00:00; Fr-Sa 11:00-01:00; Su off",
    "phone": "+44 1603 633534",
    "real_ale": "3",
    "real_cider": "no",
    "source": "Bing",
    "start_date": "2007-08-01",
    "toilets:wheelchair": "no",
    "website": "https://www.thebirdcagenorwich.co.uk/",
    "wheelchair": "limited",
    "id": "way/138504756"
   },
   "geometry": {
    "type": "Polygon",
    "coordinates": [
     [
      [
       1.2917102,
       52.6300089
      ],
      [
       1.2917181,
       52.6300652
      ],
      [
       1.2917294,
       52.6301546
      ],
      [
       1.2917036,
       52.630155
      ],
      [
       1.2917052,
       52.6302069
      ],
      [
       1.2916969,
       52.630217
      ],
      [
       1.2916853,
       52.6302241
      ],
      [
       1.291667,
       52.6302273
      ],
      [
       1.2916501,
       52.6302257
      ],
      [
       1.2916348,
       52.630221
      ],
      [
       1.2916239,
       52.63021
      ],
      [
       1.2916172,
       52.6301601
      ],
      [
       1.291633,
       52.6300275
      ],
      [
       1.2916471,
       52.630019
      ],
      [
       1.2917102,
       52.6300089
      ]
     ]
    ]
   }
  },
  {
   "type": "Feature",
   "id": "way/169959573",
   "properties": {
    "addr:city": "Norwich",
    "addr:country": "GB",
    "addr:housenumber": "96",
    "addr:postcode": "NR3 3HT",
    "addr:street": "Angel Road",
    "amenity": "pub",
    "building": "house",
    "email": "ikwarren-angel@tiscali.co.uk",
    "fhrs:id": "1857",
    "name": "The Angel Gardens",
    "opening_hours": "Mo-Fr 11:00-00:00; Sa 11:00-01:00; Su 12:00-23:30",
    "phone": "+44 1603 427490",
    "real_ale": "7",
    "real_cider": "no",
    "toilets:wheelchair": "no",
    "website": "http://www.norwichinns.com/2-16",
    "wheelchair:description": "There are steps to the toilet. but you can gain access to the pub by manual wheelchair. Not by electric wheelchair as doorway entrance is limited. The bar staff are really helpful.",
    "id": "way/169959573"
   },
   "geometry": {
    "type": "Polygon",
    "coordinates": [
     [
      [
       1.2921061,
       52.6439934
      ],
      [
       1.2921307,
       52.6439586
      ],
      [
       1.2920464,
       52.6439366
      ],
      [
       1.2920751,
       52.6438961
      ],
      [
       1.2920145,
       52.6438803
      ],
      [
       1.2920499,
       52.6438302
      ],
      [
       1.2921184,
       52.6438481
      ],
      [
       1.2921658,
       52.643781
      ],
      [
       1.2923768,
       52.6438359
      ],
      [
       1.2923559,
       52.6438654
      ],
      [
       1.2923279,
       52.6438581
      ],
      [
       1.2922699,
       52.6439402
      ],
      [
       1.2922411,
       52.6439327
      ],
      [
       1.2921838,
       52.6440137
      ],
      [
       1.2921061,
       52.6439934
      ]
     ]
    ]
   }
  },
  {
   "type": "Feature",
   "id": "way/169980388",
   "properties": {
    "addr:city": "Norwich",
    "addr:country": "GB",
    "addr:housenumber": "17",
    "addr:postcode": "NR2 4PE",
    "addr:street": "Saint Benedicts Street",
    "amenity": "bar",
    "building": "yes",
    "fhrs:id": "30686",
    "internet_access": "wlan",
    "name": "The Bicycle Shop",
    "old_name": "Scullery Bar",
    "opening_hours": "Mo-Sa 17:00-01:00; Su off",
    "phone": "+44 1603 625777",
    "real_ale": "yes",
    "source": "Bing",
    "toilets:wheelchair": "yes",
    "wheelchair": "yes",
    "id": "way/169980388"
   },
   "geometry": {
    "type": "Polygon",
    "coordinates": [
     [
      [
       1.290641,
       52.6308415
      ],
      [
       1.2906765,
       52.6309519
      ],
      [
       1.2906513,
       52.630955
      ],
      [
       1.2906455,
       52.6309324
      ],
      [
       1.290611,
       52.6309366
      ],
      [
       1.2906133,
       52.6309478
      ],
      [
       1.2905776,
       52.6309506
      ],
      [
       1.2905456,
       52.6308514
      ],
      [
       1.290641,
       52.6308415
      ]
     ]
    ]
   }
  },
  {
   "type": "Feature",
   "id": "way/171357348",
   "properties": {
    "addr:city": "Norwich",
    "addr:country": "GB",
    "addr:housenumber": "4",
    "addr:postcode": "NR2 1AT",
    "addr:street": "Exchange Street",
    "amenity": "restaurant",
    "building": "shop",
    "cuisine": "burger",
    "fhrs:id": "17352",
    "level": "1",
    "name": "Captain America's",
    "opening_hours": "Mo 11:30-16:00; Tu-Sa 11:30+; Su 12:00-16:00",
    "phone": "+44 1603 622551",
    "toilets:wheelchair": "no",
    "website": "http://www.captain-americas.co.uk/",
    "wheelchair": "no",
    "wheelchair:description": "Upstairs Restaurant",
    "id": "way/171357348"
   },
   "geometry": {
    "type": "Polygon",
    "coordinates": [
     [
      [
       1.2933916,
       52.6291298
      ],
      [
       1.2933962,
       52.6291639
      ],
      [
       1.293404,
       52.6292098
      ],
      [
       1.2934095,
       52.6292549
      ],
      [
       1.2934174,
       52.6292965
      ],
      [
       1.293328,
       52.6293018
      ],
      [
       1.2933214,
       52.6292597
      ],
      [
       1.2933147,
       52.6292147
      ],
      [
       1.2933084,
       52.629169
      ],
      [
       1.2933033,
       52.6291351
      ],
      [
       1.2933916,
       52.6291298
      ]
     ]
    ]
   }
  },
  {
   "type": "Feature",
   "id": "way/171401299",
   "properties": {
    "addr:city": "Norwich",
    "addr:country": "GB",
    "addr:housenumber": "8",
    "addr:postcode": "NR2 1JG",
    "addr:street": "Guildhall Hill",
    "amenity": "pub",
    "building": "yes",
    "email": "admin@winecellarnorwich.co.uk",
    "fhrs:id": "34276",
    "name": "The Wine Cellar",
    "old_name": "Wine Press Bar & Bistro",
    "opening_hours": "Mo 11:00-22:00; Tu-Th 11:00-23:00; Fr-Sa 11:00-00:00; Su 11:00-16:00",
    "phone": "+44 1603 886100",
    "real_ale": "no",
    "toilets:wheelchair": "no",
    "website": "http://www.winecellarnorwich.co.uk/",
    "wheelchair": "no",
    "wheelchair:description": "Stair going down to access the whole build",
    "wikidata": "Q26303164",
    "id": "way/171401299"
   },
   "geometry": {
    "type": "Polygon",
    "coordinates": [
     [
      [
       1.2930663,
       52.6292293
      ],
      [
       1.2932096,
       52.629222
      ],
      [
       1.293216,
       52.6292773
      ],
      [
       1.2931752,
       52.6292794
      ],
      [
       1.2931773,
       52.6292928
      ],
      [
       1.2931947,
       52.6292919
      ],
      [
       1.293197,
       52.6293093
      ],
      [
       1.293218,
       52.6293082
      ],
      [
       1.2932206,
       52.629331
      ],
      [
       1.2930821,
       52.6293347
      ],
      [
       1.2930821,
       52.6293205
      ],
      [
       1.293083,
       52.6292713
      ],
      [
       1.293072,
       52.6292719
      ],
      [
       1.2930663,
       52.6292293
      ]
     ]
    ]
   }
  },
  {
   "type": "Feature",
   "id": "way/258688296",
   "properties": {
    "addr:city": "Norwich",
    "addr:country": "GB",
    "addr:housename": "Plumstead Road Library",
    "addr:postcode": "NR1 4JS",
    "addr:street": "Plumstead Road",
    "amenity": "library",
    "building": "yes",
    "name": "Plumstead Road Library",
    "opening_hours": "Tu,Th 13:00-19:00;We,Fr 10:00-13:00,14:00-17:00;Sa 10:00-15:30",
    "operator": "Norfolk County Council",
    "phone": "+44 1603 433455",
    "toilets": "yes",
    "toilets:disabled": "yes",
    "website": "https://www.norfolk.gov.uk/libraries-local-history-and-archives/libraries/your-local-library/locations-and-opening-times/plumstead-road-library",
    "wheelchair": "yes",
    "wikidata": "Q55111131",
    "id": "way/258688296"
   },
   "geometry": {
    "type": "Polygon",
    "coordinates": [
     [
      [
       1.3216926,
       52.6354916
      ],
      [
       1.3217567,
       52.6354195
      ],
      [
       1.3217385,
       52.6353884
      ],
      [
       1.3215953,
       52.6353462
      ],
      [
       1.3216584,
       52.6352645
      ],
      [
       1.3218626,
       52.6353242
      ],
      [
       1.3218916,
       52.6353773
      ],
      [
       1.3219149,
       52.6354202
      ],
      [
       1.3218358,
       52.6355279
      ],
      [
       1.3216926,
       52.6354916
      ]
     ]
    ]
   }
  },
  {
   "type": "Feature",
   "id": "way/296344311",
   "properties": {
    "access": "public",
    "amenity": "cafe",
    "building": "Visitors Center",
    "fee": "no",
    "information": "office",
    "name": "Whitlingham Visitor Centre",
    "operator": "Broads Authority",
    "toilets:position": "seated",
    "tourism": "information",
    "wheelchair": "yes",
    "id": "way/296344311"
   },
   "geometry": {
    "type": "Polygon",
    "coordinates": [
     [
      [
       1.3293391,
       52.6212151
      ],
      [
       1.3294153,
       52.6209562
      ],
      [
       1.3295409,
       52.6209678
      ],
      [
       1.329461,
       52.621229
      ],
      [
       1.3293391,
       52.6212151
      ]
     ]
    ]
   }
  },
  {
   "type": "Feature",
   "id": "way/387138871",
   "properties": {
    "amenity": "toilets",
    "building": "yes",
    "fee": "no",
    "source": "OS_OpenData_VectorMapLocal",
    "toilets:disposal": "flush",
    "id": "way/387138871"
   },
   "geometry": {
    "type": "Polygon",
    "coordinates": [
     [
      [
       1.4301798,
       52.6829942
      ],
      [
       1.4302612,
       52.6830249
      ],
      [
       1.4302314,
       52.6830541
      ],
      [
       1.43015,
       52.6830233
      ],
      [
       1.4301798,
       52.6829942
      ]
     ]
    ]
   }
  },
  {
   "type": "Feature",
   "id": "way/612990138",
   "properties": {
    "amenity": "toilets",
    "building": "yes",
    "diaper": "no",
    "fee": "no",
    "toilets:disposal": "flush",
    "id": "way/612990138"
   },
   "geometry": {
    "type": "Polygon",
    "coordinates": [
     [
      [
       1.2353893,
       52.626164
      ],
      [
       1.2355005,
       52.6261328
      ],
      [
       1.2355232,
       52.6261618
      ],
      [
       1.2354108,
       52.6261937
      ],
      [
       1.2353893,
       52.626164
      ]
     ]
    ]
   }
  },
  {
   "type": "Feature",
   "id": "way/700132754",
   "properties": {
    "addr:city": "Norwich",
    "addr:country": "GB",
    "addr:housename": "West Earlham Library",
    "addr:housenumber": "17,18",
    "addr:postcode": "NR5 8AD",
    "addr:street": "Earlham West Centre",
    "amenity": "library",
    "building": "yes",
    "level": "0",
    "name": "West Earlham Library",
    "opening_hours": "Tu,Th 9:00-13:00,13:00-18:00;Sa 9:00-13:00",
    "operator": "Norfolk County Council",
    "parking": "yes",
    "parking:disabled": "yes",
    "phone": "+44 1603 451881",
    "toilets:disabled": "yes",
    "website": "https://www.norfolk.gov.uk/libraries-local-history-and-archives/libraries/your-local-library/locations-and-opening-times/earlham-library",
    "wheelchair": "yes",
    "wikidata": "Q55111152",
    "id": "way/700132754"
   },
   "geometry": {
    "type": "Polygon",
    "coordinates": [
     [
      [
       1.2407213,
       52.631628
      ],
      [
       1.2408569,
       52.6316172
      ],
      [
       1.2408679,
       52.6316678
      ],
      [
       1.2408438,
       52.6316697
      ],
      [
       1.2408528,
       52.631711
      ],
      [
       1.2407647,
       52.631718
      ],
      [
       1.2406959,
       52.6317235
      ],
      [
       1.240687,
       52.6316822
      ],
      [
       1.2407323,
       52.6316786
      ],
      [
       1.2407213,
       52.631628
      ]
     ]
    ]
   }
  },
  {
   "type": "Feature",
   "id": "node/253006650",
   "properties": {
    "name": "Buckenham",
    "naptan:AtcoCode": "9100BUCKNHM",
    "network": "National Rail",
    "railway": "station",
    "source": "NPE",
    "toilets:wheelchair": "no",
    "wikidata": "Q2064742",
    "wikipedia": "en:Buckenham railway station",
    "id": "node/253006650"
   },
   "geometry": {
    "type": "Point",
    "coordinates": [
     1.4700589,
     52.5977308
    ]
   }
  },
  {
   "type": "Feature",
   "id": "node/299412199",
   "properties": {
    "addr:city": "Norwich",
    "addr:country": "GB",
    "addr:housename": "The Forum",
    "addr:postcode": "NR2 1AW",
    "addr:street": "Millennium Plain",
    "alt_name": "The Forum",
    "amenity": "library",
    "internet_access": "yes",
    "internet_access:fee": "no",
    "name": "Norfolk and Norwich Millennium Library",
    "opening_hours": "Mo-Fr 09:00-20:00; Sa 09:00-17:00",
    "operator": "Norfolk County Council",
    "parking": "yes",
    "parking:disabled": "yes",
    "phone": "+44 1603 774774",
    "toilets": "yes",
    "toilets:disabled": "yes",
    "website": "https://www.norfolk.gov.uk/libraries-local-history-and-archives/libraries/your-local-library/locations-and-opening-times/norfolk-and-norwich-millennium-library",
    "wheelchair": "yes",
    "wheelchair:note": "slope:lift",
    "wikidata": "Q7734913",
    "id": "node/299412199"
   },
   "geometry": {
    "type": "Point",
    "coordinates": [
     1.2909467,
     52.6277308
    ]
   }
  },
  {
   "type": "Feature",
   "id": "node/301260664",
   "properties": {
    "access": "yes",
    "addr:city": "Norwich",
    "addr:country": "GB",
    "addr:postcode": "NR2 1RU",
    "amenity": "parking",
    "capacity": "1000",
    "capacity:disabled": "yes",
    "fee": "yes",
    "fee:amount:15:00-08:00": "£2.00 GBP",
    "fee:amount:1_hour": "£1.20 GBP",
    "fee:amount:24_hour": "£20.00 GBP",
    "fee:amount:2_hour": "£2.40 GBP",
    "fee:amount:3_hour": "£3.60 GBP",
    "fee:amount:4_hour": "£4.80 GBP",
    "fee:amount:6_hour": "£8.00 GBP",
    "maxheight": "2.2",
    "maxspeed": "5 mph",
    "name": "Chapelfield",
    "note": "Car park can be exited 24/7",
    "opening_hours": "Mo-Sa 08:00-22:00; Su 08:00-20:00",
    "operator": "intu Chapelfield",
    "park_ride": "no",
    "parking": "underground",
    "toilets:wheelchair": "yes",
    "wheelchair": "yes",
    "id": "node/301260664"
   },
   "geometry": {
    "type": "Point",
    "coordinates": [
     1.2883517,
     52.6260018
    ]
   }
  },
  {
   "type": "Feature",
   "id": "node/355536540",
   "properties": {
    "addr:city": "Norwich",
    "addr:country": "GB",
    "addr:housename": "Forum Building",
    "addr:postcode": "NR2 1TF",
    "addr:street": "Millennium Plain",
    "amenity": "cafe",
    "fhrs:id": "84112",
    "kitchen_hours": "Mo-Sa 08:30-23:00; Su 09:30-22:30",
    "name": "Café Bar Marzano",
    "not:addr:postcode": "NR2 1BH",
    "opening_hours": "Mo-Th 08:30-22:00; Fr-Sa 08:30-23:00; Su 09:30-22:00",
    "outdoor_seating": "yes",
    "phone": "+44 1603 665504",
    "real_ale": "yes",
    "toilets:wheelchair": "yes",
    "website": "https://www.facebook.com/cafebarmarzano",
    "wheelchair": "yes",
    "id": "node/355536540"
   },
   "geometry": {
    "type": "Point",
    "coordinates": [
     1.2914672,
     52.6278151
    ]
   }
  },
  {
   "type": "Feature",
   "id": "node/1038499891",
   "properties": {
    "addr:city": "Norwich",
    "addr:housenumber": "18",
    "addr:postcode": "NR2 1QJ",
    "addr:street": "Haymarket",
    "amenity": "fast_food",
    "brand": "McDonald's",
    "brand:wikidata": "Q38076",
    "brand:wikipedia": "en:McDonald's",
    "cuisine": "burger",
    "drive_through": "no",
    "fhrs:id": "27479",
    "name": "McDonald's",
    "phone": "+44 1603 623391",
    "source:addr": "FHRS Open Data",
    "takeaway": "yes",
    "toilets": "customers",
    "toilets:wheelchair": "Ground floor with easy access rails and low sinks.",
    "wheelchair": "yes",
    "wheelchair:description": "Easy access through electronic doors from Hayhill/Haymarket",
    "id": "node/1038499891"
   },
   "geometry": {
    "type": "Point",
    "coordinates": [
     1.2927065,
     52.6271956
    ]
   }
  },
  {
   "type": "Feature",
   "id": "node/1541173567",
   "properties": {
    "access": "customers",
    "amenity": "toilets",
    "changing_table": "yes",
    "description": "The toilets are located on the Concourse, to the left of waiting room (platform 5b). Male toilets left, unisex disabled toilet middle, female toilets right. Doors open inwards",
    "fee": "no",
    "female": "yes",
    "male": "yes",
    "name": "Toilets at Norwich Station",
    "opening_hours": "Station opening times",
    "operator": "Abellio Greater Anglia",
    "toilets:handwashing": "yes",
    "wheelchair": "limited",
    "wheelchair:description": "Unisex disabled toilet requires RADAR key. Manual doors, open inwards. Baby changing is not wheelchair accessible",
    "id": "node/1541173567"
   },
   "geometry": {
    "type": "Point",
    "coordinates": [
     1.3071658,
     52.626855
    ]
   }
  },
  {
   "type": "Feature",
   "id": "node/2527310545",
   "properties": {
    "access": "customers",
    "amenity": "toilets",
    "fee": "no",
    "operator": "RSPB Strumpshaw Fen",
    "toilets:disposal": "flush",
    "id": "node/2527310545"
   },
   "geometry": {
    "type": "Point",
    "coordinates": [
     1.4565215,
     52.6064975
    ]
   }
  },
  {
   "type": "Feature",
   "id": "node/3250724561",
   "properties": {
    "access": "public",
    "amenity": "toilets",
    "name": "Sparhawk park toilets",
    "note": "open during daylight hours",
    "opening_hours": "sunrise-sunset",
    "toilets:disposal": "flush",
    "id": "node/3250724561"
   },
   "geometry": {
    "type": "Point",
    "coordinates": [
     1.3277886,
     52.6568856
    ]
   }
  },
  {
   "type": "Feature",
   "id": "node/4207863595",
   "properties": {
    "access": "yes",
    "amenity": "toilets",
    "fee": "no",
    "toilets:disposal": "flush",
    "unisex": "yes",
    "id": "node/4207863595"
   },
   "geometry": {
    "type": "Point",
    "coordinates": [
     1.3031876,
     52.6283783
    ]
   }
  },
  {
   "type": "Feature",
   "id": "node/5458528254",
   "properties": {
    "access": "customers",
    "amenity": "toilets",
    "diaper": "room",
    "fee": "no",
    "female": "yes",
    "male": "yes",
    "toilets:disposal": "flush",
    "wheelchair": "yes",
    "id": "node/5458528254"
   },
   "geometry": {
    "type": "Point",
    "coordinates": [
     1.2940813,
     52.6222482
    ]
   }
  }
 ]
}