{
  "type": "FeatureCollection",
  "generator": "overpass-ide",
  "copyright": "The data included in this document is from www.openstreetmap.org. The data is made available under ODbL.",
  "timestamp": "2019-06-15T21:32:01Z",
  "features": [
    {
      "type": "Feature",
      "properties": {
        "@id": "way/55291587",
        "amenity": "toilets",
        "baby_changing": "yes",
        "building": "office"
      },
      "geometry": {
        "type": "Polygon",
        "coordinates": [
          [
            [
              1.2196536,
              52.6028212
            ],
            [
              1.219685,
              52.6027764
            ],
            [
              1.2198299,
              52.6028138
            ],
            [
              1.2197985,
              52.6028586
            ],
            [
              1.2196536,
              52.6028212
            ]
          ]
        ]
      },
      "id": "way/55291587"
    },
    {
      "type": "Feature",
      "properties": {
        "@id": "way/89653804",
        "addr:city": "Norwich",
        "addr:country": "GB",
        "addr:housename": "Jarrolds",
        "addr:housenumber": "1-7",
        "addr:postcode": "NR2 1JF",
        "addr:street": "London Street",
        "building": "shop",
        "fax": "+44 1603 611295",
        "fhrs:id": "816415",
        "name": "Jarrolds Department Store",
        "opening_hours": "Mo-We,Fr-Sa 09:00-19:00; Th 09:00-21:00; Su 10:30-16:30",
        "phone": "+44 1603 660661",
        "shop": "department_store",
        "source:building": "Bing",
        "toilets:wheelchair": "yes",
        "wheelchair": "yes",
        "wheelchair:description": "Accessible entrance to the side of the main entrance. Push button to open door. Two lifts and accessible toilets in two location of the store",
        "wikidata": "Q6161111"
      },
      "geometry": {
        "type": "Polygon",
        "coordinates": [
          [
            [
              1.2934939,
              52.6290621
            ],
            [
              1.2937325,
              52.6290649
            ],
            [
              1.2937418,
              52.6291884
            ],
            [
              1.2938158,
              52.6291861
            ],
            [
              1.2938306,
              52.6292703
            ],
            [
              1.2939268,
              52.6292653
            ],
            [
              1.2939305,
              52.6292799
            ],
            [
              1.294084,
              52.6292647
            ],
            [
              1.2941247,
              52.6294348
            ],
            [
              1.2941469,
              52.6294332
            ],
            [
              1.2941664,
              52.6296566
            ],
            [
              1.293579,
              52.6296791
            ],
            [
              1.2935438,
              52.6294455
            ],
            [
              1.2934754,
              52.62913
            ],
            [
              1.2934689,
              52.6290727
            ],
            [
              1.2934782,
              52.6290636
            ],
            [
              1.2934939,
              52.6290621
            ]
          ]
        ]
      },
      "id": "way/89653804"
    },
    {
      "type": "Feature",
      "properties": {
        "@id": "way/114165003",
        "amenity": "toilets",
        "building": "yes",
        "source": "Bing"
      },
      "geometry": {
        "type": "Polygon",
        "coordinates": [
          [
            [
              1.267177,
              52.6461281
            ],
            [
              1.2671897,
              52.6459301
            ],
            [
              1.2674047,
              52.6459352
            ],
            [
              1.267392,
              52.6461332
            ],
            [
              1.267177,
              52.6461281
            ]
          ]
        ]
      },
      "id": "way/114165003"
    },
    {
      "type": "Feature",
      "properties": {
        "@id": "way/116079139",
        "access": "yes",
        "amenity": "toilets",
        "fee": "no",
        "opening_hours": "closes at 5pm",
        "operator": "Norwich City Council"
      },
      "geometry": {
        "type": "Polygon",
        "coordinates": [
          [
            [
              1.2925818,
              52.6281062
            ],
            [
              1.2925927,
              52.6281992
            ],
            [
              1.2924271,
              52.6282063
            ],
            [
              1.2924162,
              52.6281134
            ],
            [
              1.2925818,
              52.6281062
            ]
          ]
        ]
      },
      "id": "way/116079139"
    },
    {
      "type": "Feature",
      "properties": {
        "@id": "way/116079140",
        "amenity": "toilets",
        "building": "amenity",
        "operator": "Norwich City Council"
      },
      "geometry": {
        "type": "Polygon",
        "coordinates": [
          [
            [
              1.2868999,
              52.6268508
            ],
            [
              1.2868099,
              52.6269405
            ],
            [
              1.2867789,
              52.6269309
            ],
            [
              1.2867556,
              52.6269236
            ],
            [
              1.286777,
              52.6268979
            ],
            [
              1.2867636,
              52.6268768
            ],
            [
              1.2867797,
              52.626854
            ],
            [
              1.2868325,
              52.6268472
            ],
            [
              1.2868468,
              52.6268324
            ],
            [
              1.2868999,
              52.6268508
            ]
          ]
        ]
      },
      "id": "way/116079140"
    },
    {
      "type": "Feature",
      "properties": {
        "@id": "way/116079142",
        "access": "public",
        "amenity": "toilets",
        "building": "yes",
        "description": "Button operated door open/close metallic single occupant toilet facility",
        "drinking_water": "no",
        "fee": "no",
        "operator": "Norwich City Council",
        "toilets:disposal": "flush",
        "toilets:position": "seated",
        "wheelchair": "yes"
      },
      "geometry": {
        "type": "Polygon",
        "coordinates": [
          [
            [
              1.3037129,
              52.6285379
            ],
            [
              1.3036762,
              52.6284961
            ],
            [
              1.3037556,
              52.6284704
            ],
            [
              1.3037923,
              52.6285123
            ],
            [
              1.3037129,
              52.6285379
            ]
          ]
        ]
      },
      "id": "way/116079142"
    },
    {
      "type": "Feature",
      "properties": {
        "@id": "way/116394455",
        "addr:city": "Norwich",
        "addr:country": "GB",
        "addr:housenumber": "391",
        "addr:postcode": "NR5 8QJ",
        "addr:street": "Dereham Road",
        "alt_name": "Gate House",
        "amenity": "pub",
        "building": "house",
        "fhrs:id": "14335",
        "name": "Gatehouse",
        "opening_hours": "Su-Fr 12:00-23:00; Sa 12:00-00:00",
        "outdoor_seating": "yes",
        "phone": "+44 1603 620340",
        "real_ale": "5",
        "real_cider": "no",
        "source": "Bing",
        "toilets:wheelchair": "no",
        "wheelchair": "limited",
        "wikidata": "Q21008659"
      },
      "geometry": {
        "type": "Polygon",
        "coordinates": [
          [
            [
              1.2571382,
              52.6377361
            ],
            [
              1.2570826,
              52.6376224
            ],
            [
              1.2573757,
              52.6375696
            ],
            [
              1.2574047,
              52.6376288
            ],
            [
              1.2572397,
              52.6376585
            ],
            [
              1.2572664,
              52.637713
            ],
            [
              1.2571382,
              52.6377361
            ]
          ]
        ]
      },
      "id": "way/116394455"
    },
    {
      "type": "Feature",
      "properties": {
        "@id": "way/117048789",
        "amenity": "toilets",
        "building": "yes"
      },
      "geometry": {
        "type": "Polygon",
        "coordinates": [
          [
            [
              1.2685267,
              52.6261061
            ],
            [
              1.2684688,
              52.626107
            ],
            [
              1.2684662,
              52.6260445
            ],
            [
              1.2685241,
              52.6260436
            ],
            [
              1.2685267,
              52.6261061
            ]
          ]
        ]
      },
      "id": "way/117048789"
    },
    {
      "type": "Feature",
      "properties": {
        "@id": "way/117220825",
        "addr:city": "Norwich",
        "addr:country": "GB",
        "addr:housename": "West Earlham Library",
        "addr:housenumber": "17,18",
        "addr:postcode": "NR5 8AD",
        "addr:street": "Earlham West Centre",
        "amenity": "library",
        "building": "yes",
        "name": "West Earlham Library",
        "opening_hours": "Tu,Th 9:00-13:00,13:00-18:00;Sa 9:00-13:00",
        "operator": "Norfolk County Council",
        "parking": "yes",
        "parking:disabled": "yes",
        "phone": "+44 1603 451881",
        "toilets:disabled": "yes",
        "website": "https://www.norfolk.gov.uk/libraries-local-history-and-archives/libraries/your-local-library/locations-and-opening-times/earlham-library",
        "wheelchair": "yes",
        "wikidata": "Q55111152"
      },
      "geometry": {
        "type": "Polygon",
        "coordinates": [
          [
            [
              1.2407194,
              52.6316152
            ],
            [
              1.240856,
              52.6316044
            ],
            [
              1.2408598,
              52.6316221
            ],
            [
              1.2408739,
              52.6316879
            ],
            [
              1.2407373,
              52.6316987
            ],
            [
              1.2407194,
              52.6316152
            ]
          ]
        ]
      },
      "id": "way/117220825"
    },
    {
      "type": "Feature",
      "properties": {
        "@id": "way/119389652",
        "addr:city": "Norwich",
        "addr:country": "GB",
        "addr:housenumber": "28",
        "addr:postcode": "NR2 1EL",
        "addr:street": "Lower Goat Lane",
        "alt_name": "F'SH at the grosvenor",
        "amenity": "fast_food",
        "building": "shop",
        "cuisine": "fish_and_chips",
        "diet:pescetarian": "no",
        "email": "fshshop@gmail.com",
        "fhrs:id": "447484",
        "name": "Grosvenor Fish Bar",
        "opening_hours": "Mo-Sa 11:00-19:00",
        "phone": "+44 1603 625855",
        "toilets:wheelchair": "no",
        "website": "http://www.fshshop.com/",
        "wheelchair": "limited"
      },
      "geometry": {
        "type": "Polygon",
        "coordinates": [
          [
            [
              1.2916729,
              52.6299445
            ],
            [
              1.2915215,
              52.6299655
            ],
            [
              1.291511,
              52.6299387
            ],
            [
              1.2915485,
              52.629933
            ],
            [
              1.291544,
              52.6299221
            ],
            [
              1.2915385,
              52.6299087
            ],
            [
              1.2916702,
              52.6299069
            ],
            [
              1.2916729,
              52.6299445
            ]
          ]
        ]
      },
      "id": "way/119389652"
    },
    {
      "type": "Feature",
      "properties": {
        "@id": "way/123525364",
        "addr:city": "Norwich",
        "addr:housenumber": "52",
        "addr:postcode": "NR2 4AR",
        "addr:street": "Saint Benedicts Street",
        "amenity": "cafe",
        "building": "yes",
        "cuisine": "coffee_shop",
        "fhrs:id": "1092846",
        "internet_access": "wlan",
        "name": "House Cafe",
        "opening_hours": "Mo-Sa 08:00-17:00; Su 10:00-15:00",
        "phone": "+44 1603 920037",
        "source": "Bing",
        "toilets:wheelchair": "yes",
        "website": "https://housestbenedicts.co.uk/",
        "wheelchair": "yes"
      },
      "geometry": {
        "type": "Polygon",
        "coordinates": [
          [
            [
              1.2884514,
              52.630982
            ],
            [
              1.2884998,
              52.6310759
            ],
            [
              1.2884238,
              52.6310899
            ],
            [
              1.2883789,
              52.6309959
            ],
            [
              1.2884514,
              52.630982
            ]
          ]
        ]
      },
      "id": "way/123525364"
    },
    {
      "type": "Feature",
      "properties": {
        "@id": "way/131332797",
        "addr:city": "Norwich",
        "addr:country": "GB",
        "addr:housename": "Tuckswood Library",
        "addr:postcode": "NR4 6BX",
        "addr:street": "Robin Hood Road",
        "amenity": "library",
        "building": "yes",
        "name": "Tuckswood Library",
        "opening_hours": "Tu,Fr 10:00-13:00,14:00-17:00;Sa 10:00-16:00",
        "operator": "Norfolk County Council",
        "parking": "yes",
        "phone": "+44 1603 452038",
        "source": "Bing",
        "toilets": "yes",
        "toilets:disabled": "yes",
        "website": "https://www.norfolk.gov.uk/libraries-local-history-and-archives/libraries/your-local-library/locations-and-opening-times/tuckswood-library",
        "wheelchair": "yes",
        "wikidata": "Q55111148"
      },
      "geometry": {
        "type": "Polygon",
        "coordinates": [
          [
            [
              1.2810035,
              52.6077797
            ],
            [
              1.2810187,
              52.6077381
            ],
            [
              1.2811458,
              52.6077552
            ],
            [
              1.2811113,
              52.6078507
            ],
            [
              1.2810897,
              52.607909
            ],
            [
              1.2809626,
              52.607892
            ],
            [
              1.2809766,
              52.6078535
            ],
            [
              1.2809053,
              52.6078439
            ],
            [
              1.2808915,
              52.6078819
            ],
            [
              1.2808064,
              52.6078704
            ],
            [
              1.2808625,
              52.6077165
            ],
            [
              1.2809476,
              52.6077279
            ],
            [
              1.2809322,
              52.6077701
            ],
            [
              1.2810035,
              52.6077797
            ]
          ]
        ]
      },
      "id": "way/131332797"
    },
    {
      "type": "Feature",
      "properties": {
        "@id": "way/132696852",
        "amenity": "library",
        "building": "yes",
        "name": "Mile Cross Library",
        "opening_hours": "Tu 14:00-19:30; We,Th,Fr 10:00-17:30; Sa 10:00-13:00",
        "operator": "Norfolk County Council",
        "phone": "+44 1603 42590",
        "source": "Bing",
        "source:amenity": "OS_OpenData_StreetView",
        "toilets": "yes",
        "toilets:disabled": "yes",
        "website": "https://www.norfolk.gov.uk/libraries-local-history-and-archives/libraries/your-local-library/locations-and-opening-times/mile-cross-library",
        "wheelchair": "yes",
        "wheelchair:note": "slope",
        "wikidata": "Q55111121"
      },
      "geometry": {
        "type": "Polygon",
        "coordinates": [
          [
            [
              1.2803787,
              52.6500187
            ],
            [
              1.2802138,
              52.6499947
            ],
            [
              1.2802419,
              52.6499238
            ],
            [
              1.2801222,
              52.6499063
            ],
            [
              1.280165,
              52.649798
            ],
            [
              1.2804476,
              52.6498392
            ],
            [
              1.2804387,
              52.6498616
            ],
            [
              1.2804754,
              52.649867
            ],
            [
              1.2804678,
              52.6498849
            ],
            [
              1.2804607,
              52.6499043
            ],
            [
              1.2804259,
              52.6498992
            ],
            [
              1.2803787,
              52.6500187
            ]
          ]
        ]
      },
      "id": "way/132696852"
    },
    {
      "type": "Feature",
      "properties": {
        "@id": "way/138504756",
        "addr:city": "Norwich",
        "addr:country": "GB",
        "addr:housenumber": "23",
        "addr:postcode": "NR2 1DS",
        "addr:street": "Pottergate",
        "amenity": "pub",
        "brand": "Greene King",
        "building": "yes",
        "email": "info@thebirdcagenorwich.co.uk",
        "fhrs:id": "18832",
        "gay": "welcome",
        "name": "The Birdcage",
        "old_name": "Pottergate Tavern;Brown Derby;Morning Star",
        "opening_hours": "Mo-Th 11:00-00:00; Fr-Sa 11:00-01:00; Su off",
        "phone": "+44 1603 633534",
        "real_ale": "3",
        "real_cider": "no",
        "source": "Bing",
        "start_date": "2007-08-01",
        "toilets:wheelchair": "no",
        "website": "https://www.thebirdcagenorwich.co.uk/",
        "wheelchair": "limited"
      },
      "geometry": {
        "type": "Polygon",
        "coordinates": [
          [
            [
              1.2917102,
              52.6300089
            ],
            [
              1.2917181,
              52.6300652
            ],
            [
              1.2917294,
              52.6301546
            ],
            [
              1.2917036,
              52.630155
            ],
            [
              1.2917052,
              52.6302069
            ],
            [
              1.2916969,
              52.630217
            ],
            [
              1.2916853,
              52.6302241
            ],
            [
              1.291667,
              52.6302273
            ],
            [
              1.2916501,
              52.6302257
            ],
            [
              1.2916348,
              52.630221
            ],
            [
              1.2916239,
              52.63021
            ],
            [
              1.2916172,
              52.6301601
            ],
            [
              1.291633,
              52.6300275
            ],
            [
              1.2916471,
              52.630019
            ],
            [
              1.2917102,
              52.6300089
            ]
          ]
        ]
      },
      "id": "way/138504756"
    },
    {
      "type": "Feature",
      "properties": {
        "@id": "way/156828005",
        "access": "yes",
        "addr:city": "Norwich",
        "addr:country": "GB",
        "addr:housename": "Unit 3C",
        "addr:housenumber": "3C",
        "addr:postcode": "NR5 9HA",
        "addr:street": "Bowthorpe Main Centre",
        "amenity": "toilets",
        "building": "unit",
        "female": "yes",
        "male": "yes",
        "source": "Bing",
        "wheelchair": "yes"
      },
      "geometry": {
        "type": "Polygon",
        "coordinates": [
          [
            [
              1.2174794,
              52.6376826
            ],
            [
              1.2174786,
              52.637695
            ],
            [
              1.2174752,
              52.6377569
            ],
            [
              1.217338,
              52.6377541
            ],
            [
              1.2173422,
              52.63768
            ],
            [
              1.2174794,
              52.6376826
            ]
          ]
        ]
      },
      "id": "way/156828005"
    },
    {
      "type": "Feature",
      "properties": {
        "@id": "way/169959573",
        "addr:city": "Norwich",
        "addr:country": "GB",
        "addr:housenumber": "96",
        "addr:postcode": "NR3 3HT",
        "addr:street": "Angel Road",
        "amenity": "pub",
        "building": "house",
        "email": "ikwarren-angel@tiscali.co.uk",
        "name": "The Angel Gardens",
        "opening_hours": "Mo-Fr 11:00-00:00; Sa 11:00-01:00; Su 12:00-23:30",
        "phone": "+44 1603 427490",
        "real_ale": "7",
        "real_cider": "no",
        "toilets:wheelchair": "no",
        "website": "http://www.norwichinns.com/2-16",
        "wheelchair:description": "There are steps to the toilet. but you can gain access to the pub by manual wheelchair. Not by electric wheelchair as doorway entrance is limited. The bar staff are really helpful. "
      },
      "geometry": {
        "type": "Polygon",
        "coordinates": [
          [
            [
              1.2921061,
              52.6439934
            ],
            [
              1.2921307,
              52.6439586
            ],
            [
              1.2920464,
              52.6439366
            ],
            [
              1.2920751,
              52.6438961
            ],
            [
              1.2920145,
              52.6438803
            ],
            [
              1.2920499,
              52.6438302
            ],
            [
              1.2921184,
              52.6438481
            ],
            [
              1.2921658,
              52.643781
            ],
            [
              1.2923768,
              52.6438359
            ],
            [
              1.2923559,
              52.6438654
            ],
            [
              1.2923279,
              52.6438581
            ],
            [
              1.2922699,
              52.6439402
            ],
            [
              1.2922411,
              52.6439327
            ],
            [
              1.2921838,
              52.6440137
            ],
            [
              1.2921061,
              52.6439934
            ]
          ]
        ]
      },
      "id": "way/169959573"
    },
    {
      "type": "Feature",
      "properties": {
        "@id": "way/169980388",
        "addr:city": "Norwich",
        "addr:country": "GB",
        "addr:housenumber": "17",
        "addr:postcode": "NR2 4PE",
        "addr:street": "Saint Benedicts Street",
        "amenity": "bar",
        "building": "yes",
        "fhrs:id": "30686",
        "internet_access": "wlan",
        "name": "The Bicycle Shop",
        "old_name": "Scullery Bar",
        "opening_hours": "Mo-Sa 17:00-01:00; Su off",
        "phone": "+44 1603 625777",
        "real_ale": "yes",
        "source": "Bing",
        "toilets:wheelchair": "yes",
        "wheelchair": "yes"
      },
      "geometry": {
        "type": "Polygon",
        "coordinates": [
          [
            [
              1.290641,
              52.6308415
            ],
            [
              1.2906765,
              52.6309519
            ],
            [
              1.2906513,
              52.630955
            ],
            [
              1.2906455,
              52.6309324
            ],
            [
              1.290611,
              52.6309366
            ],
            [
              1.2906133,
              52.6309478
            ],
            [
              1.2905776,
              52.6309506
            ],
            [
              1.2905456,
              52.6308514
            ],
            [
              1.290641,
              52.6308415
            ]
          ]
        ]
      },
      "id": "way/169980388"
    },
    {
      "type": "Feature",
      "properties": {
        "@id": "way/171357348",
        "addr:city": "Norwich",
        "addr:country": "GB",
        "addr:housenumber": "4",
        "addr:postcode": "NR2 1AT",
        "addr:street": "Exchange Street",
        "amenity": "restaurant",
        "building": "shop",
        "cuisine": "burger",
        "fhrs:id": "17352",
        "name": "Captain America's",
        "opening_hours": "Mo 11:30-16:00; Tu-Sa 11:30+; Su 12:00-16:00",
        "phone": "+44 1603 622551",
        "toilets:wheelchair": "no",
        "website": "http://www.captain-americas.co.uk/",
        "wheelchair": "no",
        "wheelchair:description": "Upstairs Restaurant"
      },
      "geometry": {
        "type": "Polygon",
        "coordinates": [
          [
            [
              1.2933916,
              52.6291298
            ],
            [
              1.2933962,
              52.6291639
            ],
            [
              1.2933084,
              52.629169
            ],
            [
              1.2933033,
              52.6291351
            ],
            [
              1.2933916,
              52.6291298
            ]
          ]
        ]
      },
      "id": "way/171357348"
    },
    {
      "type": "Feature",
      "properties": {
        "@id": "way/171401299",
        "addr:city": "Norwich",
        "addr:country": "GB",
        "addr:housenumber": "8",
        "addr:postcode": "NR2 1JG",
        "addr:street": "Guildhall Hill",
        "amenity": "pub",
        "building": "yes",
        "email": "admin@winecellarnorwich.co.uk",
        "fhrs:id": "34276",
        "name": "The Wine Cellar",
        "old_name": "Wine Press Bar & Bistro",
        "opening_hours": "Mo 11:00-22:00; Tu-Th 11:00-23:00; Fr-Sa 11:00-00:00; Su 11:00-16:00",
        "phone": "+44 1603 886100",
        "real_ale": "no",
        "toilets:wheelchair": "no",
        "website": "http://www.winecellarnorwich.co.uk/",
        "wheelchair": "no",
        "wheelchair:description": "Stair going down to access the whole build",
        "wikidata": "Q26303164"
      },
      "geometry": {
        "type": "Polygon",
        "coordinates": [
          [
            [
              1.2930663,
              52.6292293
            ],
            [
              1.2932096,
              52.629222
            ],
            [
              1.293216,
              52.6292773
            ],
            [
              1.2931752,
              52.6292794
            ],
            [
              1.2931773,
              52.6292928
            ],
            [
              1.2931947,
              52.6292919
            ],
            [
              1.293197,
              52.6293093
            ],
            [
              1.293218,
              52.6293082
            ],
            [
              1.2932206,
              52.629331
            ],
            [
              1.2930821,
              52.6293347
            ],
            [
              1.2930821,
              52.6293205
            ],
            [
              1.293083,
              52.6292713
            ],
            [
              1.293072,
              52.6292719
            ],
            [
              1.2930663,
              52.6292293
            ]
          ]
        ]
      },
      "id": "way/171401299"
    },
    {
      "type": "Feature",
      "properties": {
        "@id": "way/186106534",
        "amenity": "toilets"
      },
      "geometry": {
        "type": "Polygon",
        "coordinates": [
          [
            [
              1.3418356,
              52.6260519
            ],
            [
              1.3418205,
              52.6260194
            ],
            [
              1.3418026,
              52.6260224
            ],
            [
              1.3417812,
              52.6259766
            ],
            [
              1.3418665,
              52.625962
            ],
            [
              1.3418814,
              52.625994
            ],
            [
              1.3418978,
              52.6259912
            ],
            [
              1.3419194,
              52.6260375
            ],
            [
              1.3418356,
              52.6260519
            ]
          ]
        ]
      },
      "id": "way/186106534"
    },
    {
      "type": "Feature",
      "properties": {
        "@id": "way/196001638",
        "amenity": "toilets",
        "fee": "no"
      },
      "geometry": {
        "type": "Polygon",
        "coordinates": [
          [
            [
              1.2864545,
              52.640127
            ],
            [
              1.2864868,
              52.6400939
            ],
            [
              1.286462,
              52.640085
            ],
            [
              1.2864876,
              52.6400588
            ],
            [
              1.2865157,
              52.6400689
            ],
            [
              1.286521,
              52.6400635
            ],
            [
              1.2865695,
              52.6400809
            ],
            [
              1.2865062,
              52.6401456
            ],
            [
              1.2864545,
              52.640127
            ]
          ]
        ]
      },
      "id": "way/196001638"
    },
    {
      "type": "Feature",
      "properties": {
        "@id": "way/258688296",
        "addr:city": "Norwich",
        "addr:country": "GB",
        "addr:housename": "Plumstead Road Library",
        "addr:postcode": "NR1 4JS",
        "addr:street": "Plumstead Road",
        "amenity": "library",
        "building": "yes",
        "name": "Plumstead Road Library",
        "opening_hours": "Tu,Th 13:00-19:00;We,Fr 10:00-13:00,14:00-17:00;Sa 10:00-15:30",
        "operator": "Norfolk County Council",
        "phone": "+44 1603 433455",
        "toilets": "yes",
        "toilets:disabled": "yes",
        "website": "https://www.norfolk.gov.uk/libraries-local-history-and-archives/libraries/your-local-library/locations-and-opening-times/plumstead-road-library",
        "wheelchair": "yes",
        "wikidata": "Q55111131"
      },
      "geometry": {
        "type": "Polygon",
        "coordinates": [
          [
            [
              1.3216926,
              52.6354916
            ],
            [
              1.3217567,
              52.6354195
            ],
            [
              1.3217385,
              52.6353884
            ],
            [
              1.3215953,
              52.6353462
            ],
            [
              1.3216584,
              52.6352645
            ],
            [
              1.3218626,
              52.6353242
            ],
            [
              1.3218916,
              52.6353773
            ],
            [
              1.3219149,
              52.6354202
            ],
            [
              1.3218358,
              52.6355279
            ],
            [
              1.3216926,
              52.6354916
            ]
          ]
        ]
      },
      "id": "way/258688296"
    },
    {
      "type": "Feature",
      "properties": {
        "@id": "way/296344311",
        "access": "public",
        "amenity": "cafe",
        "building": "Visitors Center",
        "fee": "no",
        "information": "office",
        "toilets:position": "seated",
        "tourism": "information",
        "wheelchair": "yes"
      },
      "geometry": {
        "type": "Polygon",
        "coordinates": [
          [
            [
              1.3293391,
              52.6212151
            ],
            [
              1.3294153,
              52.6209562
            ],
            [
              1.3295409,
              52.6209678
            ],
            [
              1.329461,
              52.621229
            ],
            [
              1.3293391,
              52.6212151
            ]
          ]
        ]
      },
      "id": "way/296344311"
    },
    {
      "type": "Feature",
      "properties": {
        "@id": "way/375126841",
        "amenity": "toilets"
      },
      "geometry": {
        "type": "Polygon",
        "coordinates": [
          [
            [
              1.4311187,
              52.6877207
            ],
            [
              1.4311158,
              52.6876733
            ],
            [
              1.4311528,
              52.6876725
            ],
            [
              1.4311557,
              52.6877199
            ],
            [
              1.4311187,
              52.6877207
            ]
          ]
        ]
      },
      "id": "way/375126841"
    },
    {
      "type": "Feature",
      "properties": {
        "@id": "way/387138871",
        "amenity": "toilets",
        "building": "yes",
        "fee": "no",
        "source": "OS_OpenData_VectorMapLocal",
        "toilets:disposal": "flush"
      },
      "geometry": {
        "type": "Polygon",
        "coordinates": [
          [
            [
              1.4301798,
              52.6829942
            ],
            [
              1.4302612,
              52.6830249
            ],
            [
              1.4302314,
              52.6830541
            ],
            [
              1.43015,
              52.6830233
            ],
            [
              1.4301798,
              52.6829942
            ]
          ]
        ]
      },
      "id": "way/387138871"
    },
    {
      "type": "Feature",
      "properties": {
        "@id": "way/604403859",
        "amenity": "toilets",
        "building": "yes"
      },
      "geometry": {
        "type": "Polygon",
        "coordinates": [
          [
            [
              1.2830744,
              52.6242805
            ],
            [
              1.2831197,
              52.6243325
            ],
            [
              1.2830281,
              52.6243619
            ],
            [
              1.2829828,
              52.6243099
            ],
            [
              1.2830744,
              52.6242805
            ]
          ]
        ]
      },
      "id": "way/604403859"
    },
    {
      "type": "Feature",
      "properties": {
        "@id": "way/607025993",
        "amenity": "toilets",
        "building": "yes",
        "female": "yes",
        "male": "yes",
        "material": "brick",
        "wheelchair": "yes"
      },
      "geometry": {
        "type": "Polygon",
        "coordinates": [
          [
            [
              1.4893125,
              52.677157
            ],
            [
              1.4891751,
              52.6771613
            ],
            [
              1.4891706,
              52.6771082
            ],
            [
              1.489308,
              52.6771039
            ],
            [
              1.4893125,
              52.677157
            ]
          ]
        ]
      },
      "id": "way/607025993"
    },
    {
      "type": "Feature",
      "properties": {
        "@id": "way/612990138",
        "amenity": "toilets",
        "building": "yes",
        "diaper": "no",
        "fee": "no",
        "toilets:disposal": "flush"
      },
      "geometry": {
        "type": "Polygon",
        "coordinates": [
          [
            [
              1.2353893,
              52.626164
            ],
            [
              1.2355005,
              52.6261328
            ],
            [
              1.2355232,
              52.6261618
            ],
            [
              1.2354108,
              52.6261937
            ],
            [
              1.2353893,
              52.626164
            ]
          ]
        ]
      },
      "id": "way/612990138"
    },
    {
      "type": "Feature",
      "properties": {
        "@id": "node/253006650",
        "name": "Buckenham",
        "naptan:AtcoCode": "9100BUCKNHM",
        "network": "National Rail",
        "railway": "station",
        "source": "NPE",
        "toilets:wheelchair": "no",
        "wikidata": "Q2064742",
        "wikipedia": "en:Buckenham railway station"
      },
      "geometry": {
        "type": "Point",
        "coordinates": [
          1.4700589,
          52.5977308
        ]
      },
      "id": "node/253006650"
    },
    {
      "type": "Feature",
      "properties": {
        "@id": "node/299412199",
        "addr:city": "Norwich",
        "addr:country": "GB",
        "addr:housename": "The Forum",
        "addr:postcode": "NR2 1AW",
        "addr:street": "Millennium Plain",
        "alt_name": "The Forum",
        "amenity": "library",
        "name": "Norfolk and Norwich Millennium Library",
        "opening_hours": "Mo-Fr 09:00-20:00;Sa 09:00-17:00",
        "operator": "Norfolk County Council",
        "parking": "yes",
        "parking:disabled": "yes",
        "phone": "+44 1603 774774",
        "toilets": "yes",
        "toilets:disabled": "yes",
        "website": "https://www.norfolk.gov.uk/libraries-local-history-and-archives/libraries/your-local-library/locations-and-opening-times/norfolk-and-norwich-millennium-library",
        "wheelchair": "yes",
        "wheelchair:note": "slope:lift",
        "wikidata": "Q7734913"
      },
      "geometry": {
        "type": "Point",
        "coordinates": [
          1.2909467,
          52.6277308
        ]
      },
      "id": "node/299412199"
    },
    {
      "type": "Feature",
      "properties": {
        "@id": "node/301260664",
        "access": "yes",
        "addr:city": "Norwich",
        "addr:country": "GB",
        "addr:postcode": "NR2 1RU",
        "amenity": "parking",
        "capacity": "1000",
        "capacity:disabled": "yes",
        "fee": "yes",
        "fee:amount:15:00-08:00": "£2.00 GBP",
        "fee:amount:1_hour": "£1.20 GBP",
        "fee:amount:24_hour": "£20.00 GBP",
        "fee:amount:2_hour": "£2.40 GBP",
        "fee:amount:3_hour": "£3.60 GBP",
        "fee:amount:4_hour": "£4.80 GBP",
        "fee:amount:6_hour": "£8.00 GBP",
        "maxheight": "2.2",
        "maxspeed": "5 mph",
        "name": "Chapelfield",
        "note": "Car park can be exited 24/7",
        "opening_hours": "Mo-Sa 08:00-22:00; Su 08:00-20:00",
        "operator": "intu Chapelfield",
        "park_ride": "no",
        "parking": "underground",
        "toilets:wheelchair": "yes",
        "wheelchair": "yes"
      },
      "geometry": {
        "type": "Point",
        "coordinates": [
          1.2883517,
          52.6260018
        ]
      },
      "id": "node/301260664"
    },
    {
      "type": "Feature",
      "properties": {
        "@id": "node/355536540",
        "addr:city": "Norwich",
        "addr:country": "GB",
        "addr:housename": "Forum Building",
        "addr:postcode": "NR2 1TF",
        "addr:street": "Millennium Plain",
        "amenity": "cafe",
        "fhrs:id": "84112",
        "kitchen_hours": "Mo-Sa 08:30-23:00; Su 09:30-22:30",
        "name": "Café Bar Marzano",
        "opening_hours": "Mo-Th 08:30-22:00; Fr-Sa 08:30-23:00; Su 09:30-22:00",
        "outdoor_seating": "yes",
        "phone": "+44 1603 665504",
        "real_ale": "yes",
        "toilets:wheelchair": "yes",
        "website": "https://www.facebook.com/cafebarmarzano",
        "wheelchair": "yes"
      },
      "geometry": {
        "type": "Point",
        "coordinates": [
          1.2914136,
          52.6277337
        ]
      },
      "id": "node/355536540"
    },
    {
      "type": "Feature",
      "properties": {
        "@id": "node/364431812",
        "amenity": "toilets"
      },
      "geometry": {
        "type": "Point",
        "coordinates": [
          1.1770828,
          52.6497638
        ]
      },
      "id": "node/364431812"
    },
    {
      "type": "Feature",
      "properties": {
        "@id": "node/364431875",
        "amenity": "toilets"
      },
      "geometry": {
        "type": "Point",
        "coordinates": [
          1.180087,
          52.6495701
        ]
      },
      "id": "node/364431875"
    },
    {
      "type": "Feature",
      "properties": {
        "@id": "node/472647140",
        "amenity": "toilets"
      },
      "geometry": {
        "type": "Point",
        "coordinates": [
          1.3020923,
          52.6292283
        ]
      },
      "id": "node/472647140"
    },
    {
      "type": "Feature",
      "properties": {
        "@id": "node/498703509",
        "amenity": "toilets"
      },
      "geometry": {
        "type": "Point",
        "coordinates": [
          1.1756825,
          52.6464247
        ]
      },
      "id": "node/498703509"
    },
    {
      "type": "Feature",
      "properties": {
        "@id": "node/1180840444",
        "amenity": "toilets",
        "fee": "no",
        "wheelchair": "yes"
      },
      "geometry": {
        "type": "Point",
        "coordinates": [
          1.1845154,
          52.6527017
        ]
      },
      "id": "node/1180840444"
    },
    {
      "type": "Feature",
      "properties": {
        "@id": "node/1230743522",
        "access": "yes",
        "amenity": "toilets",
        "fee": "no",
        "layer": "-2",
        "level": "2.5"
      },
      "geometry": {
        "type": "Point",
        "coordinates": [
          1.2957831,
          52.6274202
        ]
      },
      "id": "node/1230743522"
    },
    {
      "type": "Feature",
      "properties": {
        "@id": "node/1230743580",
        "amenity": "toilets",
        "layer": "-3",
        "level": "2",
        "unisex": "yes",
        "wheelchair": "no"
      },
      "geometry": {
        "type": "Point",
        "coordinates": [
          1.2973514,
          52.6274401
        ]
      },
      "id": "node/1230743580"
    },
    {
      "type": "Feature",
      "properties": {
        "@id": "node/1230744001",
        "amenity": "toilets",
        "layer": "-1",
        "level": "3"
      },
      "geometry": {
        "type": "Point",
        "coordinates": [
          1.2958621,
          52.6268804
        ]
      },
      "id": "node/1230744001"
    },
    {
      "type": "Feature",
      "properties": {
        "@id": "node/1248122658",
        "amenity": "toilets",
        "fee": "no",
        "level": "0",
        "wheelchair": "yes"
      },
      "geometry": {
        "type": "Point",
        "coordinates": [
          1.2899736,
          52.6261526
        ]
      },
      "id": "node/1248122658"
    },
    {
      "type": "Feature",
      "properties": {
        "@id": "node/1248123374",
        "amenity": "toilets",
        "layer": "2",
        "level": "2",
        "operator": "Costa Coffee"
      },
      "geometry": {
        "type": "Point",
        "coordinates": [
          1.2898198,
          52.6261265
        ]
      },
      "id": "node/1248123374"
    },
    {
      "type": "Feature",
      "properties": {
        "@id": "node/1248123398",
        "amenity": "toilets",
        "layer": "2",
        "level": "2",
        "wheelchair": "yes"
      },
      "geometry": {
        "type": "Point",
        "coordinates": [
          1.2911286,
          52.6256819
        ]
      },
      "id": "node/1248123398"
    },
    {
      "type": "Feature",
      "properties": {
        "@id": "node/1248123681",
        "amenity": "toilets",
        "layer": "2",
        "level": "2",
        "operator": "House of Fraser"
      },
      "geometry": {
        "type": "Point",
        "coordinates": [
          1.2893232,
          52.6264278
        ]
      },
      "id": "node/1248123681"
    },
    {
      "type": "Feature",
      "properties": {
        "@id": "node/1335979674",
        "access": "customers",
        "amenity": "toilets"
      },
      "geometry": {
        "type": "Point",
        "coordinates": [
          1.5016557,
          52.6658571
        ]
      },
      "id": "node/1335979674"
    },
    {
      "type": "Feature",
      "properties": {
        "@id": "node/1365424951",
        "amenity": "toilets",
        "fee": "no",
        "operator": "Tesco",
        "wheelchair": "yes"
      },
      "geometry": {
        "type": "Point",
        "coordinates": [
          1.2770067,
          52.5951194
        ]
      },
      "id": "node/1365424951"
    },
    {
      "type": "Feature",
      "properties": {
        "@id": "node/1541173567",
        "access": "yes",
        "amenity": "toilets",
        "wheelchair": "yes"
      },
      "geometry": {
        "type": "Point",
        "coordinates": [
          1.3071658,
          52.626855
        ]
      },
      "id": "node/1541173567"
    },
    {
      "type": "Feature",
      "properties": {
        "@id": "node/2381422616",
        "amenity": "toilets",
        "note": "Baby changing facilities",
        "opening_hours": "07:00-18:30"
      },
      "geometry": {
        "type": "Point",
        "coordinates": [
          1.2929281,
          52.6244206
        ]
      },
      "id": "node/2381422616"
    },
    {
      "type": "Feature",
      "properties": {
        "@id": "node/2527310545",
        "access": "customers",
        "amenity": "toilets",
        "fee": "no",
        "operator": "RSPB Strumpshaw Fen",
        "toilets:disposal": "flush"
      },
      "geometry": {
        "type": "Point",
        "coordinates": [
          1.4565215,
          52.6064975
        ]
      },
      "id": "node/2527310545"
    },
    {
      "type": "Feature",
      "properties": {
        "@id": "node/3033452040",
        "amenity": "toilets"
      },
      "geometry": {
        "type": "Point",
        "coordinates": [
          1.1794497,
          52.6470741
        ]
      },
      "id": "node/3033452040"
    },
    {
      "type": "Feature",
      "properties": {
        "@id": "node/3250724561",
        "access": "public",
        "amenity": "toilets",
        "name": "Sparhawk park toilets",
        "note": "open during daylight hours",
        "opening_hours": "sunrise-sunset",
        "toilets:disposal": "flush"
      },
      "geometry": {
        "type": "Point",
        "coordinates": [
          1.3277886,
          52.6568856
        ]
      },
      "id": "node/3250724561"
    },
    {
      "type": "Feature",
      "properties": {
        "@id": "node/3709817678",
        "access": "yes",
        "amenity": "toilets",
        "drinking_water": "no"
      },
      "geometry": {
        "type": "Point",
        "coordinates": [
          1.257524,
          52.6204575
        ]
      },
      "id": "node/3709817678"
    },
    {
      "type": "Feature",
      "properties": {
        "@id": "node/3823244185",
        "amenity": "toilets"
      },
      "geometry": {
        "type": "Point",
        "coordinates": [
          1.2774352,
          52.6698739
        ]
      },
      "id": "node/3823244185"
    },
    {
      "type": "Feature",
      "properties": {
        "@id": "node/3823244186",
        "amenity": "toilets"
      },
      "geometry": {
        "type": "Point",
        "coordinates": [
          1.277558,
          52.66936
        ]
      },
      "id": "node/3823244186"
    },
    {
      "type": "Feature",
      "properties": {
        "@id": "node/3823244187",
        "amenity": "toilets"
      },
      "geometry": {
        "type": "Point",
        "coordinates": [
          1.2775867,
          52.6694047
        ]
      },
      "id": "node/3823244187"
    },
    {
      "type": "Feature",
      "properties": {
        "@id": "node/3862586935",
        "access": "customers",
        "amenity": "toilets",
        "diaper": "yes",
        "fee": "no",
        "wheelchair": "yes"
      },
      "geometry": {
        "type": "Point",
        "coordinates": [
          1.3027088,
          52.6280135
        ]
      },
      "id": "node/3862586935"
    },
    {
      "type": "Feature",
      "properties": {
        "@id": "node/3862586936",
        "access": "customers",
        "amenity": "toilets",
        "diaper": "yes",
        "fee": "no",
        "wheelchair": "yes"
      },
      "geometry": {
        "type": "Point",
        "coordinates": [
          1.3026434,
          52.6280287
        ]
      },
      "id": "node/3862586936"
    },
    {
      "type": "Feature",
      "properties": {
        "@id": "node/4207863595",
        "access": "yes",
        "amenity": "toilets",
        "fee": "no",
        "toilets:disposal": "flush",
        "unisex": "yes"
      },
      "geometry": {
        "type": "Point",
        "coordinates": [
          1.3031876,
          52.6283783
        ]
      },
      "id": "node/4207863595"
    },
    {
      "type": "Feature",
      "properties": {
        "@id": "node/5167531555",
        "access": "yes",
        "amenity": "toilets",
        "fee": "no",
        "note": "Access code can be obtained through various locations"
      },
      "geometry": {
        "type": "Point",
        "coordinates": [
          1.3008996,
          52.6312699
        ]
      },
      "id": "node/5167531555"
    },
    {
      "type": "Feature",
      "properties": {
        "@id": "node/5458528254",
        "access": "customers",
        "amenity": "toilets",
        "diaper": "room",
        "fee": "no",
        "female": "yes",
        "male": "yes",
        "toilets:disposal": "flush",
        "wheelchair": "yes"
      },
      "geometry": {
        "type": "Point",
        "coordinates": [
          1.2940813,
          52.6222482
        ]
      },
      "id": "node/5458528254"
    },
    {
      "type": "Feature",
      "properties": {
        "@id": "node/5694856554",
        "access": "yes",
        "amenity": "toilets",
        "female": "yes",
        "operator": "Norwich City Council"
      },
      "geometry": {
        "type": "Point",
        "coordinates": [
          1.2991592,
          52.6161306
        ]
      },
      "id": "node/5694856554"
    },
    {
      "type": "Feature",
      "properties": {
        "@id": "node/6543931838",
        "access": "RADA",
        "addr:city": "Norwich",
        "addr:street": "Cattlemarket Street",
        "amenity": "toilets",
        "description": "Fully accessible toilet with hoist and adult size changing \"table\". Bench - Height Adjustable, Adult Sized, Wall Mounted Hoist - Ceiling , Loop , Mobile Peninsular Toilet Washbasin Height Adjustable , Emergency Alarm, Managed ",
        "level": "2",
        "name": "Changing Places at Castle Mall Shopping Centre,",
        "unisex": "yes",
        "wheelchair": "yes",
        "wheelchair:description": "Near the Cattlemarket entrance, right next to our disabled parking on Level J of the car park. If you are accessing the centre from Castle Meadow or Cattlemarket Street you will not need to use stairs or lifts. Opening times are as per the centre opening"
      },
      "geometry": {
        "type": "Point",
        "coordinates": [
          1.2974323,
          52.6272255
        ]
      },
      "id": "node/6543931838"
    }
  ]
}